{"type": "Feature", "properties": {"hash": "1a3377212aee6624", "number": "26800", "street": "EKLUTNA VILLAGE RD", "unit": "TRLR 26800", "city": "Chugiak", "district": "", "region": "AK", "postcode": "99567", "id": ""}, "geometry": {"type": "Point", "coordinates": [-149.375648, 61.4655247]}}
{"type": "Feature", "properties": {"hash": "723e0b63a8b3c292", "number": "26960", "street": "EKLUTNA VILLAGE RD", "unit": "", "city": "Chugiak", "district": "", "region": "AK", "postcode": "99567", "id": ""}, "geometry": {"type": "Point", "coordinates": [-149.3603915, 61.4636244]}}
{"type": "Feature", "properties": {"hash": "56c1620c1aa737be", "number": "26636", "street": "EKLUTNA VILLAGE RD", "unit": "", "city": "Chugiak", "district": "", "region": "AK", "postcode": "99567", "id": ""}, "geometry": {"type": "Point", "coordinates": [-149.3614712, 61.4607111]}}
{"type": "Feature", "properties": {"hash": "a88e6f5decff5133", "number": "26585", "street": "EKLUTNA VILLAGE RD", "unit": "", "city": "Chugiak", "district": "", "region": "AK", "postcode": "99567", "id": ""}, "geometry": {"type": "Point", "coordinates": [-149.3608084, 61.4606194]}}
{"type": "Feature", "properties": {"hash": "713a76840a6a0511", "number": "26612", "street": "EKLUTNA VILLAGE RD", "unit": "", "city": "Chugiak", "district": "", "region": "AK", "postcode": "99567", "id": ""}, "geometry": {"type": "Point", "coordinates": [-149.3616346, 61.4603857]}}
{"type": "Feature", "properties": {"hash": "2283a385228d2fdd", "number": "26527", "street": "EKLUTNA VILLAGE RD", "unit": "", "city": "Chugiak", "district": "", "region": "AK", "postcode": "99567", "id": ""}, "geometry": {"type": "Point", "coordinates": [-149.3611108, 61.4601672]}}
{"type": "Feature", "properties": {"hash": "2283a385228d2fdd", "number": "26527", "street": "EKLUTNA VILLAGE RD", "unit": "", "city": "Chugiak", "district": "", "region": "AK", "postcode": "99567", "id": ""}, "geometry": {"type": "Point", "coordinates": [-149.3611108, 61.4601672]}}
{"type": "Feature", "properties": {"hash": "2283a385228d2fdd", "number": "26527", "street": "EKLUTNA VILLAGE RD", "unit": "", "city": "Chugiak", "district": "", "region": "AK", "postcode": "99567", "id": ""}, "geometry": {"type": "Point", "coordinates": [-149.3611108, 61.4601672]}}
{"type": "Feature", "properties": {"hash": "2283a385228d2fdd", "number": "26527", "street": "EKLUTNA VILLAGE RD", "unit": "", "city": "Chugiak", "district": "", "region": "AK", "postcode": "99567", "id": ""}, "geometry": {"type": "Point", "coordinates": [-149.3611108, 61.4601672]}}
{"type": "Feature", "properties": {"hash": "e7d1b49b89e7cd06", "number": "26450", "street": "EKLUTNA VILLAGE RD", "unit": "", "city": "Chugiak", "district": "", "region": "AK", "postcode": "99567", "id": ""}, "geometry": {"type": "Point", "coordinates": [-149.3617677, 61.4600081]}}
{"type": "Feature", "properties": {"hash": "63c8af45b5291587", "number": "26428", "street": "EKLUTNA VILLAGE RD", "unit": "", "city": "Chugiak", "district": "", "region": "AK", "postcode": "99567", "id": ""}, "geometry": {"type": "Point", "coordinates": [-149.3627605, 61.4596639]}}
{"type": "Feature", "properties": {"hash": "f55fe7ba93681fe7", "number": "26439", "street": "EKLUTNA VILLAGE RD", "unit": "", "city": "Chugiak", "district": "", "region": "AK", "postcode": "99567", "id": ""}, "geometry": {"type": "Point", "coordinates": [-149.3612236, 61.4596546]}}
{"type": "Feature", "properties": {"hash": "8a14c2c9589b88c8", "number": "28350", "street": "GLACIER LOOP RD", "unit": "", "city": "Chugiak", "district": "", "region": "AK", "postcode": "99567", "id": ""}, "geometry": {"type": "Point", "coordinates": [-149.3548776, 61.4591643]}}
{"type": "Feature", "properties": {"hash": "31479770f06d5a8c", "number": "26339", "street": "EKLUTNA VILLAGE RD", "unit": "", "city": "Chugiak", "district": "", "region": "AK", "postcode": "99567", "id": ""}, "geometry": {"type": "Point", "coordinates": [-149.3615672, 61.4583501]}}
{"type": "Feature", "properties": {"hash": "1f1fef2c81c57791", "number": "26338", "street": "EKLUTNA VILLAGE RD", "unit": "", "city": "Chugiak", "district": "", "region": "AK", "postcode": "99567", "id": ""}, "geometry": {"type": "Point", "coordinates": [-149.3638762, 61.4586372]}}
{"type": "Feature", "properties": {"hash": "42d120f2057509e3", "number": "26301", "street": "RUSTICATE DR", "unit": "", "city": "Chugiak", "district": "", "region": "AK", "postcode": "99567", "id": ""}, "geometry": {"type": "Point", "coordinates": [-149.3662081, 61.457759]}}
{"type": "Feature", "properties": {"hash": "40823ff80711fb2d", "number": "26281", "street": "RUSTICATE DR", "unit": "", "city": "Chugiak", "district": "", "region": "AK", "postcode": "99567", "id": ""}, "geometry": {"type": "Point", "coordinates": [-149.3672755, 61.4571618]}}
{"type": "Feature", "properties": {"hash": "9bcac3c455a9eda7", "number": "27540", "street": "HARICOT DR", "unit": "", "city": "Chugiak", "district": "", "region": "AK", "postcode": "99567", "id": ""}, "geometry": {"type": "Point", "coordinates": [-149.3678855, 61.4565081]}}
{"type": "Feature", "properties": {"hash": "2b6b42c2c7bc193f", "number": "27522", "street": "HARICOT DR", "unit": "", "city": "Chugiak", "district": "", "region": "AK", "postcode": "99567", "id": ""}, "geometry": {"type": "Point", "coordinates": [-149.3685707, 61.4564643]}}
{"type": "Feature", "properties": {"hash": "5a361a920bed481d", "number": "27508", "street": "HARICOT DR", "unit": "", "city": "Chugiak", "district": "", "region": "AK", "postcode": "99567", "id": ""}, "geometry": {"type": "Point", "coordinates": [-149.3691543, 61.4564308]}}
{"type": "Feature", "properties": {"hash": "a12d882f5b9ccbe2", "number": "26118", "street": "RUSTICATE DR", "unit": "", "city": "Chugiak", "district": "", "region": "AK", "postcode": "99567", "id": ""}, "geometry": {"type": "Point", "coordinates": [-149.3671377, 61.4562895]}}
{"type": "Feature", "properties": {"hash": "8b32ee69d6672e89", "number": "26106", "street": "RUSTICATE DR", "unit": "", "city": "Chugiak", "district": "", "region": "AK", "postcode": "99567", "id": ""}, "geometry": {"type": "Point", "coordinates": [-149.3670206, 61.456105]}}
{"type": "Feature", "properties": {"hash": "da1b53eaac8e71fb", "number": "26101", "street": "OLD GLENN HWY", "unit": "TOWER", "city": "Chugiak", "district": "", "region": "AK", "postcode": "99567", "id": ""}, "geometry": {"type": "Point", "coordinates": [-149.3621603, 61.4558738]}}
{"type": "Feature", "properties": {"hash": "ab79f75d9314d3cf", "number": "26044", "street": "HARICOT CIR", "unit": "", "city": "Chugiak", "district": "", "region": "AK", "postcode": "99567", "id": ""}, "geometry": {"type": "Point", "coordinates": [-149.3692895, 61.4558412]}}
{"type": "Feature", "properties": {"hash": "4767573eb479778f", "number": "26034", "street": "HARICOT CIR", "unit": "", "city": "Chugiak", "district": "", "region": "AK", "postcode": "99567", "id": ""}, "geometry": {"type": "Point", "coordinates": [-149.3691975, 61.455622]}}
{"type": "Feature", "properties": {"hash": "a292ba15b49dcb6f", "number": "26024", "street": "HARICOT CIR", "unit": "", "city": "Chugiak", "district": "", "region": "AK", "postcode": "99567", "id": ""}, "geometry": {"type": "Point", "coordinates": [-149.3693263, 61.4555348]}}
{"type": "Feature", "properties": {"hash": "07e53ccd92160972", "number": "26015", "street": "HARICOT CIR", "unit": "", "city": "Chugiak", "district": "", "region": "AK", "postcode": "99567", "id": ""}, "geometry": {"type": "Point", "coordinates": [-149.3698666, 61.4554672]}}
{"type": "Feature", "properties": {"hash": "65b9f54a1780eb17", "number": "26014", "street": "HARICOT CIR", "unit": "", "city": "Chugiak", "district": "", "region": "AK", "postcode": "99567", "id": ""}, "geometry": {"type": "Point", "coordinates": [-149.3696417, 61.4554455]}}
{"type": "Feature", "properties": {"hash": "23e061b24b9c95a9", "number": "38035", "street": "ROSEHIP RIDGE RD", "unit": "", "city": "Chugiak", "district": "", "region": "AK", "postcode": "99567", "id": ""}, "geometry": {"type": "Point", "coordinates": [-149.1731659, 61.4192072]}}
{"type": "Feature", "properties": {"hash": "11fef66dda9e2f8b", "number": "38283", "street": "ROSEHIP RIDGE RD", "unit": "", "city": "Chugiak", "district": "", "region": "AK", "postcode": "99567", "id": ""}, "geometry": {"type": "Point", "coordinates": [-149.1685142, 61.4192076]}}
{"type": "Feature", "properties": {"hash": "36710b1afb13755c", "number": "34683", "street": "EKLUTNA LAKE RD", "unit": "", "city": "Chugiak", "district": "", "region": "AK", "postcode": "99567", "id": ""}, "geometry": {"type": "Point", "coordinates": [-149.2353913, 61.4421035]}}
{"type": "Feature", "properties": {"hash": "c57ecc1f356c75c3", "number": "34620", "street": "EKLUTNA LAKE RD", "unit": "", "city": "Chugiak", "district": "", "region": "AK", "postcode": "99567", "id": ""}, "geometry": {"type": "Point", "coordinates": [-149.2373741, 61.4414724]}}
{"type": "Feature", "properties": {"hash": "4b7c347b71bfbfe5", "number": "34709", "street": "EKLUTNA LAKE RD", "unit": "", "city": "Chugiak", "district": "", "region": "AK", "postcode": "99567", "id": ""}, "geometry": {"type": "Point", "coordinates": [-149.2342658, 61.4413514]}}
{"type": "Feature", "properties": {"hash": "2940eefc3455a4d8", "number": "35400", "street": "EKLUTNA LAKE RD", "unit": "", "city": "Chugiak", "district": "", "region": "AK", "postcode": "99567", "id": ""}, "geometry": {"type": "Point", "coordinates": [-149.2227298, 61.4344633]}}
{"type": "Feature", "properties": {"hash": "47689763f8ce7205", "number": "35851", "street": "EKLUTNA LAKE RD", "unit": "", "city": "Chugiak", "district": "", "region": "AK", "postcode": "99567", "id": ""}, "geometry": {"type": "Point", "coordinates": [-149.2120021, 61.4305365]}}
{"type": "Feature", "properties": {"hash": "f929b7d2b3424bc2", "number": "35780", "street": "EKLUTNA LAKE RD", "unit": "", "city": "Chugiak", "district": "", "region": "AK", "postcode": "99567", "id": ""}, "geometry": {"type": "Point", "coordinates": [-149.2163121, 61.4304916]}}
{"type": "Feature", "properties": {"hash": "fbe6449ac6d14a71", "number": "35790", "street": "EKLUTNA LAKE RD", "unit": "", "city": "Chugiak", "district": "", "region": "AK", "postcode": "99567", "id": ""}, "geometry": {"type": "Point", "coordinates": [-149.2153876, 61.4298021]}}
{"type": "Feature", "properties": {"hash": "ff44e5f8baf0df7f", "number": "35845", "street": "EKLUTNA LAKE RD", "unit": "", "city": "Chugiak", "district": "", "region": "AK", "postcode": "99567", "id": ""}, "geometry": {"type": "Point", "coordinates": [-149.2125145, 61.4299439]}}
{"type": "Feature", "properties": {"hash": "152162c897458b8c", "number": "35850", "street": "EKLUTNA LAKE RD", "unit": "", "city": "Chugiak", "district": "", "region": "AK", "postcode": "99567", "id": ""}, "geometry": {"type": "Point", "coordinates": [-149.2137197, 61.4291264]}}
{"type": "Feature", "properties": {"hash": "9273732c435462f7", "number": "35900", "street": "EKLUTNA LAKE RD", "unit": "", "city": "Chugiak", "district": "", "region": "AK", "postcode": "99567", "id": ""}, "geometry": {"type": "Point", "coordinates": [-149.2114658, 61.4283032]}}
{"type": "Feature", "properties": {"hash": "45b5ce7bf7c26dc8", "number": "35870", "street": "EKLUTNA LAKE RD", "unit": "", "city": "Chugiak", "district": "", "region": "AK", "postcode": "99567", "id": ""}, "geometry": {"type": "Point", "coordinates": [-149.2136617, 61.4274925]}}
{"type": "Feature", "properties": {"hash": "759635035c2d49eb", "number": "32551", "street": "EKLUTNA LAKE RD", "unit": "", "city": "Chugiak", "district": "", "region": "AK", "postcode": "99567", "id": ""}, "geometry": {"type": "Point", "coordinates": [-149.2738679, 61.4539987]}}
{"type": "Feature", "properties": {"hash": "59fe3deed43e1553", "number": "31401", "street": "EKLUTNA LAKE RD", "unit": "", "city": "Chugiak", "district": "", "region": "AK", "postcode": "99567", "id": ""}, "geometry": {"type": "Point", "coordinates": [-149.3033318, 61.4522088]}}
{"type": "Feature", "properties": {"hash": "8670da7512812542", "number": "30001", "street": "EKLUTNA LAKE RD", "unit": "", "city": "Chugiak", "district": "", "region": "AK", "postcode": "99567", "id": ""}, "geometry": {"type": "Point", "coordinates": [-149.3217109, 61.4496099]}}
{"type": "Feature", "properties": {"hash": "b1af50a892749ccc", "number": "31085", "street": "EKLUTNA LAKE RD", "unit": "", "city": "Chugiak", "district": "", "region": "AK", "postcode": "99567", "id": ""}, "geometry": {"type": "Point", "coordinates": [-149.3034133, 61.4468412]}}
{"type": "Feature", "properties": {"hash": "f31db750b3b73820", "number": "25351", "street": "OLD GLENN HWY", "unit": "", "city": "Chugiak", "district": "", "region": "AK", "postcode": "99567", "id": ""}, "geometry": {"type": "Point", "coordinates": [-149.3706356, 61.4492824]}}
{"type": "Feature", "properties": {"hash": "fd6abd42311254cd", "number": "25321", "street": "OLD GLENN HWY", "unit": "", "city": "Chugiak", "district": "", "region": "AK", "postcode": "99567", "id": ""}, "geometry": {"type": "Point", "coordinates": [-149.37123, 61.4490204]}}
{"type": "Feature", "properties": {"hash": "24e30dd8dc42ee78", "number": "25240", "street": "THUNDERBIRD DR", "unit": "", "city": "Chugiak", "district": "", "region": "AK", "postcode": "99567", "id": ""}, "geometry": {"type": "Point", "coordinates": [-149.3723576, 61.4485516]}}
{"type": "Feature", "properties": {"hash": "41c558efa8fc6ec5", "number": "27339", "street": "GOLDEN EAGLE CT", "unit": "", "city": "Chugiak", "district": "", "region": "AK", "postcode": "99567", "id": ""}, "geometry": {"type": "Point", "coordinates": [-149.3712298, 61.4483382]}}
{"type": "Feature", "properties": {"hash": "a69327eb18e7ceb9", "number": "25210", "street": "THUNDERBIRD DR", "unit": "", "city": "Chugiak", "district": "", "region": "AK", "postcode": "99567", "id": ""}, "geometry": {"type": "Point", "coordinates": [-149.3724677, 61.4479285]}}
{"type": "Feature", "properties": {"hash": "2a80b404f05cacf2", "number": "27333", "street": "GOLDEN EAGLE CT", "unit": "", "city": "Chugiak", "district": "", "region": "AK", "postcode": "99567", "id": ""}, "geometry": {"type": "Point", "coordinates": [-149.3716637, 61.4478631]}}
{"type": "Feature", "properties": {"hash": "ea4f51eab3eb4832", "number": "27345", "street": "GOLDEN EAGLE CT", "unit": "", "city": "Chugiak", "district": "", "region": "AK", "postcode": "99567", "id": ""}, "geometry": {"type": "Point", "coordinates": [-149.370952, 61.4477342]}}
{"type": "Feature", "properties": {"hash": "b3d70f0d17971948", "number": "25144", "street": "THUNDERBIRD DR", "unit": "", "city": "Chugiak", "district": "", "region": "AK", "postcode": "99567", "id": ""}, "geometry": {"type": "Point", "coordinates": [-149.3725602, 61.4475315]}}
{"type": "Feature", "properties": {"hash": "196c507cea0157d3", "number": "27336", "street": "GOLDEN EAGLE CT", "unit": "", "city": "Chugiak", "district": "", "region": "AK", "postcode": "99567", "id": ""}, "geometry": {"type": "Point", "coordinates": [-149.3715987, 61.4474545]}}
{"type": "Feature", "properties": {"hash": "0519d3efed4ba5bd", "number": "25122", "street": "THUNDERBIRD DR", "unit": "", "city": "Chugiak", "district": "", "region": "AK", "postcode": "99567", "id": ""}, "geometry": {"type": "Point", "coordinates": [-149.372721, 61.4474161]}}
{"type": "Feature", "properties": {"hash": "3978d076562e6f40", "number": "27211", "street": "FALCON DR", "unit": "", "city": "Chugiak", "district": "", "region": "AK", "postcode": "99567", "id": ""}, "geometry": {"type": "Point", "coordinates": [-149.3746789, 61.447238]}}
{"type": "Feature", "properties": {"hash": "9a631a1556afb39f", "number": "27231", "street": "FALCON DR", "unit": "", "city": "Chugiak", "district": "", "region": "AK", "postcode": "99567", "id": ""}, "geometry": {"type": "Point", "coordinates": [-149.3733004, 61.4470191]}}
{"type": "Feature", "properties": {"hash": "e5a9071526beb41c", "number": "25111", "street": "THUNDERBIRD DR", "unit": "", "city": "Chugiak", "district": "", "region": "AK", "postcode": "99567", "id": ""}, "geometry": {"type": "Point", "coordinates": [-149.3726111, 61.4470139]}}
{"type": "Feature", "properties": {"hash": "54e0aacce2fc6ff0", "number": "27220", "street": "FALCON DR", "unit": "", "city": "Chugiak", "district": "", "region": "AK", "postcode": "99567", "id": ""}, "geometry": {"type": "Point", "coordinates": [-149.3746028, 61.4469114]}}
{"type": "Feature", "properties": {"hash": "5e584d91cd0332f0", "number": "25043", "street": "THUNDERBIRD DR", "unit": "", "city": "Chugiak", "district": "", "region": "AK", "postcode": "99567", "id": ""}, "geometry": {"type": "Point", "coordinates": [-149.372989, 61.4467953]}}
{"type": "Feature", "properties": {"hash": "66dbe3b22f6d2c04", "number": "27366", "street": "GOSHAWK CT", "unit": "", "city": "Chugiak", "district": "", "region": "AK", "postcode": "99567", "id": ""}, "geometry": {"type": "Point", "coordinates": [-149.3712305, 61.4465944]}}
{"type": "Feature", "properties": {"hash": "7b7bfdd56a0500b9", "number": "25034", "street": "THUNDERBIRD DR", "unit": "", "city": "Chugiak", "district": "", "region": "AK", "postcode": "99567", "id": ""}, "geometry": {"type": "Point", "coordinates": [-149.3738114, 61.4465678]}}
{"type": "Feature", "properties": {"hash": "36a88a942ac50c31", "number": "27346", "street": "GOSHAWK CT", "unit": "", "city": "Chugiak", "district": "", "region": "AK", "postcode": "99567", "id": ""}, "geometry": {"type": "Point", "coordinates": [-149.371358, 61.4464086]}}
{"type": "Feature", "properties": {"hash": "547b3e4fe00cf830", "number": "27326", "street": "GOSHAWK CT", "unit": "", "city": "Chugiak", "district": "", "region": "AK", "postcode": "99567", "id": ""}, "geometry": {"type": "Point", "coordinates": [-149.3722164, 61.4462965]}}
{"type": "Feature", "properties": {"hash": "28d34e04d2d9e79e", "number": "27306", "street": "GOSHAWK CT", "unit": "", "city": "Chugiak", "district": "", "region": "AK", "postcode": "99567", "id": ""}, "geometry": {"type": "Point", "coordinates": [-149.3731942, 61.4462895]}}
{"type": "Feature", "properties": {"hash": "a296e1b374d27968", "number": "25016", "street": "THUNDERBIRD DR", "unit": "", "city": "Chugiak", "district": "", "region": "AK", "postcode": "99567", "id": ""}, "geometry": {"type": "Point", "coordinates": [-149.3740155, 61.4463358]}}
{"type": "Feature", "properties": {"hash": "b621f167adbc6fab", "number": "24946", "street": "THUNDERBIRD DR", "unit": "", "city": "Chugiak", "district": "", "region": "AK", "postcode": "99567", "id": ""}, "geometry": {"type": "Point", "coordinates": [-149.3741722, 61.4460224]}}
{"type": "Feature", "properties": {"hash": "c58abec80a319350", "number": "24939", "street": "THUNDERBIRD DR", "unit": "", "city": "Chugiak", "district": "", "region": "AK", "postcode": "99567", "id": ""}, "geometry": {"type": "Point", "coordinates": [-149.3735324, 61.4458786]}}
{"type": "Feature", "properties": {"hash": "5d9439b5e7ecf630", "number": "24928", "street": "THUNDERBIRD DR", "unit": "", "city": "Chugiak", "district": "", "region": "AK", "postcode": "99567", "id": ""}, "geometry": {"type": "Point", "coordinates": [-149.3742101, 61.4456803]}}
{"type": "Feature", "properties": {"hash": "3eec32a95e36e24f", "number": "24853", "street": "TEAL LOOP", "unit": "", "city": "Chugiak", "district": "", "region": "AK", "postcode": "99567", "id": ""}, "geometry": {"type": "Point", "coordinates": [-149.3671513, 61.4447208]}}
{"type": "Feature", "properties": {"hash": "9aca9007d587e7e0", "number": "24845", "street": "TEAL LOOP", "unit": "", "city": "Chugiak", "district": "", "region": "AK", "postcode": "99567", "id": ""}, "geometry": {"type": "Point", "coordinates": [-149.3667191, 61.4446949]}}
{"type": "Feature", "properties": {"hash": "4efff44cbdb2f559", "number": "24837", "street": "TEAL LOOP", "unit": "", "city": "Chugiak", "district": "", "region": "AK", "postcode": "99567", "id": ""}, "geometry": {"type": "Point", "coordinates": [-149.3664325, 61.4446294]}}
{"type": "Feature", "properties": {"hash": "8ae324bb7b334c39", "number": "27231", "street": "SANDPIPER CT", "unit": "", "city": "Chugiak", "district": "", "region": "AK", "postcode": "99567", "id": ""}, "geometry": {"type": "Point", "coordinates": [-149.3737717, 61.4445416]}}
{"type": "Feature", "properties": {"hash": "a0ce0e1857ae2c58", "number": "24823", "street": "TEAL LOOP", "unit": "", "city": "Chugiak", "district": "", "region": "AK", "postcode": "99567", "id": ""}, "geometry": {"type": "Point", "coordinates": [-149.3660111, 61.4444751]}}
{"type": "Feature", "properties": {"hash": "f98ce4d0c21bd287", "number": "24865", "street": "THUNDERBIRD DR", "unit": "", "city": "Chugiak", "district": "", "region": "AK", "postcode": "99567", "id": ""}, "geometry": {"type": "Point", "coordinates": [-149.371761, 61.4444655]}}
{"type": "Feature", "properties": {"hash": "4c7c3abdd9f8da30", "number": "27217", "street": "SANDPIPER CT", "unit": "", "city": "Chugiak", "district": "", "region": "AK", "postcode": "99567", "id": ""}, "geometry": {"type": "Point", "coordinates": [-149.3743708, 61.4443537]}}
{"type": "Feature", "properties": {"hash": "f82d707f817bb88e", "number": "27232", "street": "SANDPIPER CT", "unit": "", "city": "Chugiak", "district": "", "region": "AK", "postcode": "99567", "id": ""}, "geometry": {"type": "Point", "coordinates": [-149.3734816, 61.4443398]}}
{"type": "Feature", "properties": {"hash": "b87572f87ef108e8", "number": "24865", "street": "TEAL LOOP", "unit": "", "city": "Chugiak", "district": "", "region": "AK", "postcode": "99567", "id": ""}, "geometry": {"type": "Point", "coordinates": [-149.367909, 61.4443528]}}
{"type": "Feature", "properties": {"hash": "85099b2b32811770", "number": "24807", "street": "TEAL LOOP", "unit": "", "city": "Chugiak", "district": "", "region": "AK", "postcode": "99567", "id": ""}, "geometry": {"type": "Point", "coordinates": [-149.3654186, 61.4442696]}}
{"type": "Feature", "properties": {"hash": "c129319390d542cb", "number": "24817", "street": "THUNDERBIRD DR", "unit": "", "city": "Chugiak", "district": "", "region": "AK", "postcode": "99567", "id": ""}, "geometry": {"type": "Point", "coordinates": [-149.3699199, 61.44432]}}
{"type": "Feature", "properties": {"hash": "a966c115318d1a62", "number": "24824", "street": "TEAL LOOP", "unit": "", "city": "Chugiak", "district": "", "region": "AK", "postcode": "99567", "id": ""}, "geometry": {"type": "Point", "coordinates": [-149.3663347, 61.4442803]}}
{"type": "Feature", "properties": {"hash": "dfd39fbc3dbfb7df", "number": "24805", "street": "THUNDERBIRD DR", "unit": "", "city": "Chugiak", "district": "", "region": "AK", "postcode": "99567", "id": ""}, "geometry": {"type": "Point", "coordinates": [-149.3695055, 61.4442623]}}
{"type": "Feature", "properties": {"hash": "968a4f4ab3b0545b", "number": "24839", "street": "THUNDERBIRD DR", "unit": "", "city": "Chugiak", "district": "", "region": "AK", "postcode": "99567", "id": ""}, "geometry": {"type": "Point", "coordinates": [-149.3710547, 61.4442557]}}
{"type": "Feature", "properties": {"hash": "0a45622c97e64425", "number": "24854", "street": "TEAL LOOP", "unit": "", "city": "Chugiak", "district": "", "region": "AK", "postcode": "99567", "id": ""}, "geometry": {"type": "Point", "coordinates": [-149.3674549, 61.4441372]}}
{"type": "Feature", "properties": {"hash": "c7a622fc06de210f", "number": "24743", "street": "TEAL LOOP", "unit": "", "city": "Chugiak", "district": "", "region": "AK", "postcode": "99567", "id": ""}, "geometry": {"type": "Point", "coordinates": [-149.365093, 61.4441591]}}
{"type": "Feature", "properties": {"hash": "048376726215dace", "number": "27222", "street": "SANDPIPER CT", "unit": "", "city": "Chugiak", "district": "", "region": "AK", "postcode": "99567", "id": ""}, "geometry": {"type": "Point", "coordinates": [-149.373799, 61.4441175]}}
{"type": "Feature", "properties": {"hash": "5fbd8a6f6c1ef3db", "number": "24808", "street": "TEAL LOOP", "unit": "", "city": "Chugiak", "district": "", "region": "AK", "postcode": "99567", "id": ""}, "geometry": {"type": "Point", "coordinates": [-149.3658552, 61.444103]}}
{"type": "Feature", "properties": {"hash": "6610c4047c7af5b7", "number": "27212", "street": "SANDPIPER CT", "unit": "", "city": "Chugiak", "district": "", "region": "AK", "postcode": "99567", "id": ""}, "geometry": {"type": "Point", "coordinates": [-149.3742387, 61.4440819]}}
{"type": "Feature", "properties": {"hash": "6ea428804b1b9449", "number": "24810", "street": "THUNDERBIRD DR", "unit": "", "city": "Chugiak", "district": "", "region": "AK", "postcode": "99567", "id": ""}, "geometry": {"type": "Point", "coordinates": [-149.3695784, 61.443978]}}
{"type": "Feature", "properties": {"hash": "d3d5d8dcf19aad8d", "number": "24846", "street": "THUNDERBIRD DR", "unit": "", "city": "Chugiak", "district": "", "region": "AK", "postcode": "99567", "id": ""}, "geometry": {"type": "Point", "coordinates": [-149.3711617, 61.4439786]}}
{"type": "Feature", "properties": {"hash": "56d4d373314ce3dc", "number": "24744", "street": "TEAL LOOP", "unit": "", "city": "Chugiak", "district": "", "region": "AK", "postcode": "99567", "id": ""}, "geometry": {"type": "Point", "coordinates": [-149.3655159, 61.4439808]}}
{"type": "Feature", "properties": {"hash": "a98cf4512fa00d95", "number": "24832", "street": "THUNDERBIRD DR", "unit": "", "city": "Chugiak", "district": "", "region": "AK", "postcode": "99567", "id": ""}, "geometry": {"type": "Point", "coordinates": [-149.3705568, 61.4439695]}}
{"type": "Feature", "properties": {"hash": "9bdc6b1c625bade3", "number": "24737", "street": "THUNDERBIRD DR", "unit": "", "city": "Chugiak", "district": "", "region": "AK", "postcode": "99567", "id": ""}, "geometry": {"type": "Point", "coordinates": [-149.3689297, 61.444028]}}
{"type": "Feature", "properties": {"hash": "08ece2d2646758fc", "number": "24739", "street": "TEAL LOOP", "unit": "", "city": "Chugiak", "district": "", "region": "AK", "postcode": "99567", "id": ""}, "geometry": {"type": "Point", "coordinates": [-149.3648359, 61.4439863]}}
{"type": "Feature", "properties": {"hash": "e7c9859f9c9fa1d8", "number": "24888", "street": "TEAL LOOP", "unit": "", "city": "Chugiak", "district": "", "region": "AK", "postcode": "99567", "id": ""}, "geometry": {"type": "Point", "coordinates": [-149.3676121, 61.4439858]}}
{"type": "Feature", "properties": {"hash": "430c8c6540437ec5", "number": "24723", "street": "TEAL LOOP", "unit": "", "city": "Chugiak", "district": "", "region": "AK", "postcode": "99567", "id": ""}, "geometry": {"type": "Point", "coordinates": [-149.3646951, 61.4438084]}}
{"type": "Feature", "properties": {"hash": "f2546678a8061328", "number": "24712", "street": "TEAL LOOP", "unit": "", "city": "Chugiak", "district": "", "region": "AK", "postcode": "99567", "id": ""}, "geometry": {"type": "Point", "coordinates": [-149.3651705, 61.4434087]}}
{"type": "Feature", "properties": {"hash": "77a129c53cb3dc9f", "number": "24709", "street": "TEAL LOOP", "unit": "", "city": "Chugiak", "district": "", "region": "AK", "postcode": "99567", "id": ""}, "geometry": {"type": "Point", "coordinates": [-149.3646787, 61.4434102]}}
{"type": "Feature", "properties": {"hash": "c8587ff416d1e507", "number": "24707", "street": "THUNDERBIRD DR", "unit": "", "city": "Chugiak", "district": "", "region": "AK", "postcode": "99567", "id": ""}, "geometry": {"type": "Point", "coordinates": [-149.3683214, 61.443466]}}
{"type": "Feature", "properties": {"hash": "7e78727d0e537932", "number": "24643", "street": "TEAL LOOP", "unit": "", "city": "Chugiak", "district": "", "region": "AK", "postcode": "99567", "id": ""}, "geometry": {"type": "Point", "coordinates": [-149.3646816, 61.4430987]}}
