{"type": "Feature", "properties": {"hash": "84bff1e558de7ef9", "number": "1001", "street": "AVONDALE RD", "unit": "", "city": "MONTGOMERY", "district": "", "region": "AL", "postcode": "36109", "id": ""}, "geometry": {"type": "Point", "coordinates": [-86.2466514, 32.3668836]}}
{"type": "Feature", "properties": {"hash": "dbf0f1b301a749bc", "number": "1002", "street": "AVONDALE RD", "unit": "", "city": "MONTGOMERY", "district": "", "region": "AL", "postcode": "36109", "id": ""}, "geometry": {"type": "Point", "coordinates": [-86.2471216, 32.3668717]}}
{"type": "Feature", "properties": {"hash": "7c79198aff668034", "number": "1001", "street": "BETH MANOR DR", "unit": "", "city": "MONTGOMERY", "district": "", "region": "AL", "postcode": "36109", "id": ""}, "geometry": {"type": "Point", "coordinates": [-86.2445266, 32.3651344]}}
{"type": "Feature", "properties": {"hash": "3ca34b9a451bf10b", "number": "2821", "street": "PLUM ST", "unit": "", "city": "MONTGOMERY", "district": "", "region": "AL", "postcode": "36107", "id": ""}, "geometry": {"type": "Point", "coordinates": [-86.2711556, 32.3715171]}}
{"type": "Feature", "properties": {"hash": "817fd1615332f0db", "number": "1000", "street": "PERRY HILL RD", "unit": "", "city": "MONTGOMERY", "district": "", "region": "AL", "postcode": "36109", "id": ""}, "geometry": {"type": "Point", "coordinates": [-86.2445061, 32.3668529]}}
{"type": "Feature", "properties": {"hash": "d227f572b58fca64", "number": "1434", "street": "MULBERRY ST", "unit": "", "city": "MONTGOMERY", "district": "", "region": "AL", "postcode": "36106", "id": ""}, "geometry": {"type": "Point", "coordinates": [-86.2833534, 32.3647949]}}
{"type": "Feature", "properties": {"hash": "4d5e2fc2cea63c3c", "number": "1825", "street": "W   SECOND ST", "unit": "", "city": "MONTGOMERY", "district": "", "region": "AL", "postcode": "36106", "id": ""}, "geometry": {"type": "Point", "coordinates": [-86.2834949, 32.3647926]}}
{"type": "Feature", "properties": {"hash": "5ad4ba1c1da480ad", "number": "1821", "street": "W   SECOND ST", "unit": "", "city": "MONTGOMERY", "district": "", "region": "AL", "postcode": "36106", "id": ""}, "geometry": {"type": "Point", "coordinates": [-86.2836704, 32.3647729]}}
{"type": "Feature", "properties": {"hash": "01c69aef0acaa0ff", "number": "1817", "street": "W   SECOND ST", "unit": "", "city": "MONTGOMERY", "district": "", "region": "AL", "postcode": "36106", "id": ""}, "geometry": {"type": "Point", "coordinates": [-86.2838459, 32.3647763]}}
{"type": "Feature", "properties": {"hash": "c32e3cb33da8da85", "number": "1813", "street": "W   SECOND ST", "unit": "", "city": "MONTGOMERY", "district": "", "region": "AL", "postcode": "36106", "id": ""}, "geometry": {"type": "Point", "coordinates": [-86.2839942, 32.3647683]}}
{"type": "Feature", "properties": {"hash": "8319a4e660f92363", "number": "1809", "street": "W   SECOND ST", "unit": "", "city": "MONTGOMERY", "district": "", "region": "AL", "postcode": "36106", "id": ""}, "geometry": {"type": "Point", "coordinates": [-86.2841766, 32.3647774]}}
{"type": "Feature", "properties": {"hash": "127ad2b480670c51", "number": "1805", "street": "W   SECOND ST", "unit": "", "city": "MONTGOMERY", "district": "", "region": "AL", "postcode": "36106", "id": ""}, "geometry": {"type": "Point", "coordinates": [-86.2843317, 32.3647925]}}
{"type": "Feature", "properties": {"hash": "a9d36ba58fcb9213", "number": "1801", "street": "W   SECOND ST", "unit": "", "city": "MONTGOMERY", "district": "", "region": "AL", "postcode": "36106", "id": ""}, "geometry": {"type": "Point", "coordinates": [-86.2844736, 32.3648057]}}
{"type": "Feature", "properties": {"hash": "4a7330e9264abccb", "number": "1737", "street": "W   SECOND ST", "unit": "", "city": "MONTGOMERY", "district": "", "region": "AL", "postcode": "36106", "id": ""}, "geometry": {"type": "Point", "coordinates": [-86.2848288, 32.3648001]}}
{"type": "Feature", "properties": {"hash": "cca6988458c9c814", "number": "1731", "street": "W   SECOND ST", "unit": "", "city": "MONTGOMERY", "district": "", "region": "AL", "postcode": "36106", "id": ""}, "geometry": {"type": "Point", "coordinates": [-86.2850186, 32.3647391]}}
{"type": "Feature", "properties": {"hash": "1c8350d88ffed193", "number": "1727", "street": "W   SECOND ST", "unit": "", "city": "MONTGOMERY", "district": "", "region": "AL", "postcode": "36106", "id": ""}, "geometry": {"type": "Point", "coordinates": [-86.2851493, 32.3647827]}}
{"type": "Feature", "properties": {"hash": "85b3e4aff8f75e25", "number": "1721", "street": "W   SECOND ST", "unit": "", "city": "MONTGOMERY", "district": "", "region": "AL", "postcode": "36106", "id": ""}, "geometry": {"type": "Point", "coordinates": [-86.2853314, 32.3647672]}}
{"type": "Feature", "properties": {"hash": "4d337901bf804edd", "number": "1401", "street": "FOREST AVE", "unit": "", "city": "MONTGOMERY", "district": "", "region": "AL", "postcode": "36106", "id": ""}, "geometry": {"type": "Point", "coordinates": [-86.2859308, 32.3648038]}}
{"type": "Feature", "properties": {"hash": "b315878fd8a7455a", "number": "1501", "street": "MULBERRY ST", "unit": "", "city": "MONTGOMERY", "district": "", "region": "AL", "postcode": "36106", "id": ""}, "geometry": {"type": "Point", "coordinates": [-86.2828593, 32.3648738]}}
{"type": "Feature", "properties": {"hash": "e00bfa63edeec3d7", "number": "1515", "street": "MULBERRY ST", "unit": "", "city": "MONTGOMERY", "district": "", "region": "AL", "postcode": "36106", "id": ""}, "geometry": {"type": "Point", "coordinates": [-86.2828333, 32.3646044]}}
{"type": "Feature", "properties": {"hash": "5b8280749780c354", "number": "1521", "street": "MULBERRY ST", "unit": "", "city": "MONTGOMERY", "district": "", "region": "AL", "postcode": "36106", "id": ""}, "geometry": {"type": "Point", "coordinates": [-86.2829087, 32.364427]}}
{"type": "Feature", "properties": {"hash": "d5432ff0f1c8a756", "number": "1500", "street": "MULBERRY ST", "unit": "", "city": "MONTGOMERY", "district": "", "region": "AL", "postcode": "36106", "id": ""}, "geometry": {"type": "Point", "coordinates": [-86.2833844, 32.3644226]}}
{"type": "Feature", "properties": {"hash": "c3aa0cbfa70161f2", "number": "1816", "street": "W   SECOND ST", "unit": "", "city": "MONTGOMERY", "district": "", "region": "AL", "postcode": "36106", "id": ""}, "geometry": {"type": "Point", "coordinates": [-86.2838351, 32.3643494]}}
{"type": "Feature", "properties": {"hash": "b1c72e1d3e6a1f7b", "number": "1812", "street": "W   SECOND ST", "unit": "", "city": "MONTGOMERY", "district": "", "region": "AL", "postcode": "36106", "id": ""}, "geometry": {"type": "Point", "coordinates": [-86.2839835, 32.3643587]}}
{"type": "Feature", "properties": {"hash": "e723bd3d08e6d43d", "number": "1808", "street": "W   SECOND ST", "unit": "", "city": "MONTGOMERY", "district": "", "region": "AL", "postcode": "36106", "id": ""}, "geometry": {"type": "Point", "coordinates": [-86.2841742, 32.3643562]}}
{"type": "Feature", "properties": {"hash": "ea6bf9c3ecd8a7ed", "number": "1923", "street": "PLUM ST", "unit": "", "city": "MONTGOMERY", "district": "", "region": "AL", "postcode": "36107", "id": ""}, "geometry": {"type": "Point", "coordinates": [-86.282049, 32.3713957]}}
{"type": "Feature", "properties": {"hash": "75f8e82aee3beb24", "number": "1922", "street": "PLUM ST", "unit": "", "city": "MONTGOMERY", "district": "", "region": "AL", "postcode": "36107", "id": ""}, "geometry": {"type": "Point", "coordinates": [-86.2820059, 32.3708859]}}
{"type": "Feature", "properties": {"hash": "41eaeb90f31b835d", "number": "1918", "street": "PLUM ST", "unit": "", "city": "MONTGOMERY", "district": "", "region": "AL", "postcode": "36107", "id": ""}, "geometry": {"type": "Point", "coordinates": [-86.2821778, 32.3708793]}}
{"type": "Feature", "properties": {"hash": "165ce76a3f57606a", "number": "1912", "street": "PLUM ST", "unit": "", "city": "MONTGOMERY", "district": "", "region": "AL", "postcode": "36107", "id": ""}, "geometry": {"type": "Point", "coordinates": [-86.2823297, 32.3708813]}}
{"type": "Feature", "properties": {"hash": "3aac8e79750a8fdc", "number": "1908", "street": "PLUM ST", "unit": "", "city": "MONTGOMERY", "district": "", "region": "AL", "postcode": "36107", "id": ""}, "geometry": {"type": "Point", "coordinates": [-86.282532, 32.3708699]}}
{"type": "Feature", "properties": {"hash": "79527f2a690223bb", "number": "1901", "street": "CHERRY ST", "unit": "", "city": "MONTGOMERY", "district": "", "region": "AL", "postcode": "36107", "id": ""}, "geometry": {"type": "Point", "coordinates": [-86.282791, 32.3702731]}}
{"type": "Feature", "properties": {"hash": "bee98869e21c43e4", "number": "1905", "street": "CHERRY ST", "unit": "", "city": "MONTGOMERY", "district": "", "region": "AL", "postcode": "36107", "id": ""}, "geometry": {"type": "Point", "coordinates": [-86.2825991, 32.3702756]}}
{"type": "Feature", "properties": {"hash": "0af80e64ace42214", "number": "1913", "street": "CHERRY ST", "unit": "", "city": "MONTGOMERY", "district": "", "region": "AL", "postcode": "36107", "id": ""}, "geometry": {"type": "Point", "coordinates": [-86.2824672, 32.370282]}}
{"type": "Feature", "properties": {"hash": "b18166414afefb2c", "number": "1917", "street": "CHERRY ST", "unit": "", "city": "MONTGOMERY", "district": "", "region": "AL", "postcode": "36107", "id": ""}, "geometry": {"type": "Point", "coordinates": [-86.2823053, 32.3702802]}}
{"type": "Feature", "properties": {"hash": "d55520f7723203f2", "number": "1921", "street": "CHERRY ST", "unit": "", "city": "MONTGOMERY", "district": "", "region": "AL", "postcode": "36107", "id": ""}, "geometry": {"type": "Point", "coordinates": [-86.2821434, 32.3702825]}}
{"type": "Feature", "properties": {"hash": "6e4a0fc6f983ba7a", "number": "1925", "street": "CHERRY ST", "unit": "", "city": "MONTGOMERY", "district": "", "region": "AL", "postcode": "36107", "id": ""}, "geometry": {"type": "Point", "coordinates": [-86.2819815, 32.3702976]}}
{"type": "Feature", "properties": {"hash": "2118f628470bb3bb", "number": "2024", "street": "PLUM ST", "unit": "", "city": "MONTGOMERY", "district": "", "region": "AL", "postcode": "36107", "id": ""}, "geometry": {"type": "Point", "coordinates": [-86.2807679, 32.3708985]}}
{"type": "Feature", "properties": {"hash": "ae8082cb47dba54e", "number": "2020", "street": "PLUM ST", "unit": "", "city": "MONTGOMERY", "district": "", "region": "AL", "postcode": "36107", "id": ""}, "geometry": {"type": "Point", "coordinates": [-86.2809251, 32.3708917]}}
{"type": "Feature", "properties": {"hash": "1ad45d22023b7ba3", "number": "2014", "street": "PLUM ST", "unit": "", "city": "MONTGOMERY", "district": "", "region": "AL", "postcode": "36107", "id": ""}, "geometry": {"type": "Point", "coordinates": [-86.2810777, 32.3708892]}}
{"type": "Feature", "properties": {"hash": "447375d70994600b", "number": "2010", "street": "PLUM ST", "unit": "", "city": "MONTGOMERY", "district": "", "region": "AL", "postcode": "36107", "id": ""}, "geometry": {"type": "Point", "coordinates": [-86.2812353, 32.3708952]}}
{"type": "Feature", "properties": {"hash": "7ca2dab49921f533", "number": "2000", "street": "PLUM ST", "unit": "", "city": "MONTGOMERY", "district": "", "region": "AL", "postcode": "36107", "id": ""}, "geometry": {"type": "Point", "coordinates": [-86.2815336, 32.37087]}}
{"type": "Feature", "properties": {"hash": "52754b07aa9993ae", "number": "2001", "street": "CHERRY ST", "unit": "", "city": "MONTGOMERY", "district": "", "region": "AL", "postcode": "36107", "id": ""}, "geometry": {"type": "Point", "coordinates": [-86.2815503, 32.3702911]}}
{"type": "Feature", "properties": {"hash": "9de80a4ab74050f9", "number": "2005", "street": "CHERRY ST", "unit": "", "city": "MONTGOMERY", "district": "", "region": "AL", "postcode": "36107", "id": ""}, "geometry": {"type": "Point", "coordinates": [-86.2813832, 32.3703149]}}
{"type": "Feature", "properties": {"hash": "0a587cf1f3e92a7d", "number": "2009", "street": "CHERRY ST", "unit": "", "city": "MONTGOMERY", "district": "", "region": "AL", "postcode": "36107", "id": ""}, "geometry": {"type": "Point", "coordinates": [-86.2812156, 32.3702963]}}
{"type": "Feature", "properties": {"hash": "fb5ca1272e1a69d8", "number": "2013", "street": "CHERRY ST", "unit": "", "city": "MONTGOMERY", "district": "", "region": "AL", "postcode": "36107", "id": ""}, "geometry": {"type": "Point", "coordinates": [-86.2810715, 32.3702811]}}
{"type": "Feature", "properties": {"hash": "0f89d8d51c7941d3", "number": "830", "street": "ARTHUR ST", "unit": "", "city": "MONTGOMERY", "district": "", "region": "AL", "postcode": "36107", "id": ""}, "geometry": {"type": "Point", "coordinates": [-86.2807729, 32.3702512]}}
{"type": "Feature", "properties": {"hash": "d28d4931cff16227", "number": "818", "street": "ARTHUR ST", "unit": "", "city": "MONTGOMERY", "district": "", "region": "AL", "postcode": "36107", "id": ""}, "geometry": {"type": "Point", "coordinates": [-86.280804, 32.3705198]}}
{"type": "Feature", "properties": {"hash": "a8c2673a0a770d3d", "number": "2122", "street": "PLUM ST", "unit": "", "city": "MONTGOMERY", "district": "", "region": "AL", "postcode": "36107", "id": ""}, "geometry": {"type": "Point", "coordinates": [-86.2795894, 32.370904]}}
{"type": "Feature", "properties": {"hash": "8f0af4e1db0285f9", "number": "2118", "street": "PLUM ST", "unit": "", "city": "MONTGOMERY", "district": "", "region": "AL", "postcode": "36107", "id": ""}, "geometry": {"type": "Point", "coordinates": [-86.2797618, 32.3709269]}}
{"type": "Feature", "properties": {"hash": "1bd1660a59d24c51", "number": "2114", "street": "PLUM ST", "unit": "", "city": "MONTGOMERY", "district": "", "region": "AL", "postcode": "36107", "id": ""}, "geometry": {"type": "Point", "coordinates": [-86.2799144, 32.3709329]}}
{"type": "Feature", "properties": {"hash": "11378a255f2871b5", "number": "325", "street": "CHASE PLANTATION CIR", "unit": "", "city": "BIRMINGHAM", "district": "Shelby", "region": "AL", "postcode": "35244", "id": ""}, "geometry": {"type": "Point", "coordinates": [-86.8122728, 33.3566534]}}
{"type": "Feature", "properties": {"hash": "5c1a2372aa515bef", "number": "2036", "street": "CLEARVIEW DR", "unit": "", "city": "BIRMINGHAM", "district": "Shelby", "region": "AL", "postcode": "35244", "id": ""}, "geometry": {"type": "Point", "coordinates": [-86.7618122, 33.3709214]}}
{"type": "Feature", "properties": {"hash": "abaf96845cfbb084", "number": "3041", "street": "BROOKHILL DR", "unit": "", "city": "BIRMINGHAM", "district": "Shelby", "region": "AL", "postcode": "35242", "id": ""}, "geometry": {"type": "Point", "coordinates": [-86.7010104, 33.4010267]}}
{"type": "Feature", "properties": {"hash": "0d148ea0908674ef", "number": "3157", "street": "MAC IAN LN", "unit": "", "city": "BIRMINGHAM", "district": "Shelby", "region": "AL", "postcode": "35242", "id": ""}, "geometry": {"type": "Point", "coordinates": [-86.6964135, 33.3899612]}}
{"type": "Feature", "properties": {"hash": "770b291f924fbc55", "number": "300", "street": "DOGWOOD DR", "unit": "", "city": "LEEDS", "district": "Shelby", "region": "AL", "postcode": "35094", "id": ""}, "geometry": {"type": "Point", "coordinates": [-86.5866614, 33.4681526]}}
{"type": "Feature", "properties": {"hash": "e036b90e61599e17", "number": "390", "street": "HWY 13", "unit": "", "city": "HELENA", "district": "Shelby", "region": "AL", "postcode": "35080", "id": ""}, "geometry": {"type": "Point", "coordinates": [-87.0191553, 33.2209611]}}
{"type": "Feature", "properties": {"hash": "9ca6424883dc513e", "number": "2512", "street": "ELIZABETH DR", "unit": "", "city": "PELHAM", "district": "Shelby", "region": "AL", "postcode": "35124", "id": ""}, "geometry": {"type": "Point", "coordinates": [-86.8230224, 33.331097]}}
{"type": "Feature", "properties": {"hash": "14d460a0363399f6", "number": "4203", "street": "PLANTATION PL", "unit": "", "city": "HELENA", "district": "Shelby", "region": "AL", "postcode": "35080", "id": ""}, "geometry": {"type": "Point", "coordinates": [-86.8408238, 33.2879119]}}
{"type": "Feature", "properties": {"hash": "cb8f5ad89383da99", "number": "518", "street": "LAUREL WOODS TRL", "unit": "", "city": "HELENA", "district": "Shelby", "region": "AL", "postcode": "35080", "id": ""}, "geometry": {"type": "Point", "coordinates": [-86.8376473, 33.2721504]}}
{"type": "Feature", "properties": {"hash": "02dca122b2d791c2", "number": "3008", "street": "LONGLEAF LN", "unit": "", "city": "HELENA", "district": "Shelby", "region": "AL", "postcode": "35080", "id": ""}, "geometry": {"type": "Point", "coordinates": [-86.8548131, 33.2602801]}}
{"type": "Feature", "properties": {"hash": "5cfa650cb17f0502", "number": "125", "street": "SAND PEBBLE ST", "unit": "", "city": "ALABASTER", "district": "Shelby", "region": "AL", "postcode": "35007", "id": ""}, "geometry": {"type": "Point", "coordinates": [-86.8268374, 33.2658823]}}
{"type": "Feature", "properties": {"hash": "57cc1688673b2771", "number": "805", "street": "CREEKVIEW DR", "unit": "", "city": "PELHAM", "district": "Shelby", "region": "AL", "postcode": "35124", "id": ""}, "geometry": {"type": "Point", "coordinates": [-86.8150766, 33.3113428]}}
{"type": "Feature", "properties": {"hash": "f253a32b8ac5e8c6", "number": "4714", "street": "HOLLOW LN", "unit": "", "city": "HELENA", "district": "Shelby", "region": "AL", "postcode": "35080", "id": ""}, "geometry": {"type": "Point", "coordinates": [-86.8371392, 33.2828358]}}
{"type": "Feature", "properties": {"hash": "a0fb34bb47869e3a", "number": "81", "street": "HWY 223", "unit": "", "city": "MONTEVALLO", "district": "Shelby", "region": "AL", "postcode": "35115", "id": ""}, "geometry": {"type": "Point", "coordinates": [-86.8849169, 33.1086648]}}
{"type": "Feature", "properties": {"hash": "7385eab4ae71c878", "number": "909", "street": "WILDERNESS CIR", "unit": "", "city": "PELHAM", "district": "Shelby", "region": "AL", "postcode": "35124", "id": ""}, "geometry": {"type": "Point", "coordinates": [-86.8074271, 33.3165356]}}
{"type": "Feature", "properties": {"hash": "46291665951ee3cd", "number": "6821", "street": "HWY 55", "unit": "", "city": "WILSONVILLE", "district": "Shelby", "region": "AL", "postcode": "35186", "id": ""}, "geometry": {"type": "Point", "coordinates": [-86.5539573, 33.3158003]}}
{"type": "Feature", "properties": {"hash": "93356a777d9fe592", "number": "223", "street": "BIG ROCK DR", "unit": "", "city": "MONTEVALLO", "district": "Shelby", "region": "AL", "postcode": "35040", "id": ""}, "geometry": {"type": "Point", "coordinates": [-86.8005495, 33.1293419]}}
{"type": "Feature", "properties": {"hash": "a4aa9f0fa05d77f1", "number": "2570", "street": "BLUE SPRINGS RD", "unit": "", "city": "WILSONVILLE", "district": "Shelby", "region": "AL", "postcode": "35186", "id": ""}, "geometry": {"type": "Point", "coordinates": [-86.5102229, 33.2388802]}}
{"type": "Feature", "properties": {"hash": "7d16606b0bd7bdee", "number": "855", "street": "REED CREEK DR", "unit": "", "city": "SHELBY", "district": "Shelby", "region": "AL", "postcode": "35143", "id": ""}, "geometry": {"type": "Point", "coordinates": [-86.5399252, 33.0470019]}}
{"type": "Feature", "properties": {"hash": "1908346624b176f6", "number": "346", "street": "HWY 203", "unit": "", "city": "MONTEVALLO", "district": "Shelby", "region": "AL", "postcode": "35115", "id": ""}, "geometry": {"type": "Point", "coordinates": [-86.8934474, 33.1049623]}}
{"type": "Feature", "properties": {"hash": "8389e4e568b78b51", "number": "84", "street": "SPRUCE DR", "unit": "", "city": "COLUMBIANA", "district": "Shelby", "region": "AL", "postcode": "35051", "id": ""}, "geometry": {"type": "Point", "coordinates": [-86.6371748, 33.1593683]}}
{"type": "Feature", "properties": {"hash": "5dd4893aaaf85860", "number": "202", "street": "JENKINS CIR", "unit": "", "city": "HELENA", "district": "Shelby", "region": "AL", "postcode": "35080", "id": ""}, "geometry": {"type": "Point", "coordinates": [-86.8454987, 33.2838544]}}
{"type": "Feature", "properties": {"hash": "1a0a2e8bbf776f7e", "number": "499", "street": "HWY 270", "unit": "", "city": "MAYLENE", "district": "Shelby", "region": "AL", "postcode": "35114", "id": ""}, "geometry": {"type": "Point", "coordinates": [-86.8727945, 33.2163374]}}
{"type": "Feature", "properties": {"hash": "e6b9bdb7e9b810f7", "number": "317", "street": "MAGNOLIA DR", "unit": "", "city": "MAYLENE", "district": "Shelby", "region": "AL", "postcode": "35114", "id": ""}, "geometry": {"type": "Point", "coordinates": [-86.8657841, 33.2030944]}}
{"type": "Feature", "properties": {"hash": "bc286c0d252d80dd", "number": "4005", "street": "VIRGINIA LN", "unit": "", "city": "HELENA", "district": "Shelby", "region": "AL", "postcode": "35080", "id": ""}, "geometry": {"type": "Point", "coordinates": [-86.8513732, 33.2775628]}}
{"type": "Feature", "properties": {"hash": "4dad7a6fe2379134", "number": "1140", "street": "ASHVILLE RD", "unit": "", "city": "MONTEVALLO", "district": "Shelby", "region": "AL", "postcode": "35115", "id": ""}, "geometry": {"type": "Point", "coordinates": [-86.8573696, 33.1044683]}}
{"type": "Feature", "properties": {"hash": "8a5b8e2d1f3c607e", "number": "5112", "street": "STRATFORD RD", "unit": "", "city": "BIRMINGHAM", "district": "Shelby", "region": "AL", "postcode": "35242", "id": ""}, "geometry": {"type": "Point", "coordinates": [-86.6964127, 33.4002396]}}
{"type": "Feature", "properties": {"hash": "123f471fc9c91c18", "number": "434", "street": "HWY 203", "unit": "", "city": "MONTEVALLO", "district": "Shelby", "region": "AL", "postcode": "35115", "id": ""}, "geometry": {"type": "Point", "coordinates": [-86.8934582, 33.1038731]}}
{"type": "Feature", "properties": {"hash": "8ae39d7ab7c6170d", "number": "85", "street": "SPRUCE DR", "unit": "", "city": "COLUMBIANA", "district": "Shelby", "region": "AL", "postcode": "35051", "id": ""}, "geometry": {"type": "Point", "coordinates": [-86.6371686, 33.1591511]}}
{"type": "Feature", "properties": {"hash": "f002be92f191af33", "number": "108", "street": "W  COLLEGE ST", "unit": "", "city": "COLUMBIANA", "district": "Shelby", "region": "AL", "postcode": "35051", "id": ""}, "geometry": {"type": "Point", "coordinates": [-86.6088069, 33.1787816]}}
{"type": "Feature", "properties": {"hash": "01357021975911bf", "number": "929", "street": "GREYSTONE HIGHLANDS CIR", "unit": "", "city": "BIRMINGHAM", "district": "Shelby", "region": "AL", "postcode": "35242", "id": ""}, "geometry": {"type": "Point", "coordinates": [-86.6690021, 33.4146847]}}
{"type": "Feature", "properties": {"hash": "bc00ebb7cdba653e", "number": "154", "street": "CEDAR BEND DR", "unit": "", "city": "HELENA", "district": "Shelby", "region": "AL", "postcode": "35080", "id": ""}, "geometry": {"type": "Point", "coordinates": [-86.843734, 33.2734032]}}
{"type": "Feature", "properties": {"hash": "485c5691d060c310", "number": "305", "street": "FOREST HILLS LN", "unit": "", "city": "ALABASTER", "district": "Shelby", "region": "AL", "postcode": "35007", "id": ""}, "geometry": {"type": "Point", "coordinates": [-86.8033261, 33.2043476]}}
{"type": "Feature", "properties": {"hash": "f9e00a684972aef6", "number": "725", "street": "HWY 63", "unit": "", "city": "CALERA", "district": "Shelby", "region": "AL", "postcode": "35040", "id": ""}, "geometry": {"type": "Point", "coordinates": [-86.7747006, 33.1058617]}}
{"type": "Feature", "properties": {"hash": "5015e07fe8bb868b", "number": "2595", "street": "HWY 35", "unit": "", "city": "PELHAM", "district": "Shelby", "region": "AL", "postcode": "35124", "id": ""}, "geometry": {"type": "Point", "coordinates": [-86.78334, 33.3116498]}}
{"type": "Feature", "properties": {"hash": "e363a37246e34f11", "number": "39714", "street": "HWY 25", "unit": "", "city": "HARPERSVILLE", "district": "Shelby", "region": "AL", "postcode": "35078", "id": ""}, "geometry": {"type": "Point", "coordinates": [-86.434958, 33.3464934]}}
{"type": "Feature", "properties": {"hash": "a9df163bbd9c43d2", "number": "672", "street": "N  HORTON RD", "unit": "", "city": "WILSONVILLE", "district": "Shelby", "region": "AL", "postcode": "35186", "id": ""}, "geometry": {"type": "Point", "coordinates": [-86.5267455, 33.1897475]}}
{"type": "Feature", "properties": {"hash": "f418492e6751c785", "number": "4007", "street": "VIRGINIA LN", "unit": "", "city": "HELENA", "district": "Shelby", "region": "AL", "postcode": "35080", "id": ""}, "geometry": {"type": "Point", "coordinates": [-86.8512607, 33.2775524]}}
{"type": "Feature", "properties": {"hash": "d322f2c8d1c7a3ba", "number": "154", "street": "MOTLEY AVE", "unit": "", "city": "MONTEVALLO", "district": "Shelby", "region": "AL", "postcode": "35115", "id": ""}, "geometry": {"type": "Point", "coordinates": [-86.8442599, 33.1004814]}}
{"type": "Feature", "properties": {"hash": "1b5100d52998e7a0", "number": "620", "street": "MEADOW RIDGE DR", "unit": "", "city": "BIRMINGHAM", "district": "Shelby", "region": "AL", "postcode": "35242", "id": ""}, "geometry": {"type": "Point", "coordinates": [-86.6919893, 33.4120775]}}
{"type": "Feature", "properties": {"hash": "4820881510e3fde4", "number": "1541", "street": "NAPOLEON DR", "unit": "", "city": "ALABASTER", "district": "Shelby", "region": "AL", "postcode": "35007", "id": ""}, "geometry": {"type": "Point", "coordinates": [-86.8263338, 33.2663002]}}
{"type": "Feature", "properties": {"hash": "ea2d9971d6083e32", "number": "116", "street": "OAKMONT RD", "unit": "", "city": "BIRMINGHAM", "district": "Shelby", "region": "AL", "postcode": "35244", "id": ""}, "geometry": {"type": "Point", "coordinates": [-86.7439245, 33.4002834]}}
{"type": "Feature", "properties": {"hash": "967a331be3ac6f6a", "number": "2033", "street": "CLEARVIEW DR", "unit": "", "city": "BIRMINGHAM", "district": "Shelby", "region": "AL", "postcode": "35244", "id": ""}, "geometry": {"type": "Point", "coordinates": [-86.7614411, 33.3704916]}}
{"type": "Feature", "properties": {"hash": "38ac1803ac3e6fd1", "number": "4822", "street": "RIVERWOOD PL", "unit": "", "city": "BIRMINGHAM", "district": "Shelby", "region": "AL", "postcode": "35242", "id": ""}, "geometry": {"type": "Point", "coordinates": [-86.7378721, 33.4113971]}}
{"type": "Feature", "properties": {"hash": "345829a34b212296", "number": "2924", "street": "SELKIRK CIR", "unit": "", "city": "BIRMINGHAM", "district": "Shelby", "region": "AL", "postcode": "35242", "id": ""}, "geometry": {"type": "Point", "coordinates": [-86.7200065, 33.3988885]}}
{"type": "Feature", "properties": {"hash": "4f74dc50066e728b", "number": "5068", "street": "MEADOW BROOK RD", "unit": "", "city": "BIRMINGHAM", "district": "Shelby", "region": "AL", "postcode": "35242", "id": ""}, "geometry": {"type": "Point", "coordinates": [-86.70133, 33.4002976]}}
{"type": "Feature", "properties": {"hash": "56738c70976259a0", "number": "307", "street": "NORTH LAKE RD", "unit": "", "city": "BIRMINGHAM", "district": "Shelby", "region": "AL", "postcode": "35242", "id": ""}, "geometry": {"type": "Point", "coordinates": [-86.6257903, 33.431159]}}
{"type": "Feature", "properties": {"hash": "3d8d88199ff5198f", "number": "2511", "street": "ELIZABETH DR", "unit": "", "city": "PELHAM", "district": "Shelby", "region": "AL", "postcode": "35124", "id": ""}, "geometry": {"type": "Point", "coordinates": [-86.8223049, 33.3304622]}}
{"type": "Feature", "properties": {"hash": "4c8938a07a8a38ea", "number": "854", "street": "HWY 52  E", "unit": "", "city": "HELENA", "district": "Shelby", "region": "AL", "postcode": "35080", "id": ""}, "geometry": {"type": "Point", "coordinates": [-86.8396302, 33.2897048]}}
{"type": "Feature", "properties": {"hash": "b7ae9f4de876ca9c", "number": "514", "street": "LAUREL WOODS TRL", "unit": "", "city": "HELENA", "district": "Shelby", "region": "AL", "postcode": "35080", "id": ""}, "geometry": {"type": "Point", "coordinates": [-86.8373301, 33.2719171]}}
