{"type": "Feature", "properties": {"hash": "d59cc9038c9da476", "number": "200", "street": "QUAPAW AVE", "unit": "", "city": "HOT SPRINGS", "district": "", "region": "AR", "postcode": "71901", "id": ""}, "geometry": {"type": "Point", "coordinates": [-93.0567254, 34.5097156]}}
{"type": "Feature", "properties": {"hash": "8b71b3480a430a3f", "number": "605", "street": "QUAPAW AVE", "unit": "", "city": "HOT SPRINGS", "district": "", "region": "AR", "postcode": "71901", "id": ""}, "geometry": {"type": "Point", "coordinates": [-93.0598718, 34.5060846]}}
{"type": "Feature", "properties": {"hash": "e89ca62bc28417e0", "number": "201", "street": "AFTON ST", "unit": "", "city": "HOT SPRINGS", "district": "", "region": "AR", "postcode": "71913", "id": ""}, "geometry": {"type": "Point", "coordinates": [-93.0730169, 34.4960621]}}
{"type": "Feature", "properties": {"hash": "4921cda8c1143d1b", "number": "217", "street": "AFTON ST", "unit": "", "city": "HOT SPRINGS", "district": "", "region": "AR", "postcode": "71913", "id": ""}, "geometry": {"type": "Point", "coordinates": [-93.0730278, 34.495095]}}
{"type": "Feature", "properties": {"hash": "f506f8c785c55280", "number": "205", "street": "ASH ST", "unit": "APT 1", "city": "HOT SPRINGS", "district": "", "region": "AR", "postcode": "71901", "id": ""}, "geometry": {"type": "Point", "coordinates": [-93.0422185, 34.5037541]}}
{"type": "Feature", "properties": {"hash": "558f0d5b168bf417", "number": "108", "street": "BAFANRIDGE ST", "unit": "", "city": "HOT SPRINGS", "district": "", "region": "AR", "postcode": "71901", "id": ""}, "geometry": {"type": "Point", "coordinates": [-93.0239477, 34.4765572]}}
{"type": "Feature", "properties": {"hash": "9239f6a920179d48", "number": "110", "street": "BAFANRIDGE ST", "unit": "", "city": "HOT SPRINGS", "district": "", "region": "AR", "postcode": "71901", "id": ""}, "geometry": {"type": "Point", "coordinates": [-93.0234636, 34.4766715]}}
{"type": "Feature", "properties": {"hash": "d39410114d235576", "number": "107", "street": "BARRETT ST", "unit": "", "city": "HOT SPRINGS", "district": "", "region": "AR", "postcode": "71901", "id": ""}, "geometry": {"type": "Point", "coordinates": [-93.0322586, 34.5111373]}}
{"type": "Feature", "properties": {"hash": "a9a3103f15a8dcd4", "number": "229", "street": "BAYARD ST", "unit": "", "city": "HOT SPRINGS", "district": "", "region": "AR", "postcode": "71901", "id": ""}, "geometry": {"type": "Point", "coordinates": [-93.0474953, 34.4848438]}}
{"type": "Feature", "properties": {"hash": "66559364be386333", "number": "102", "street": "BAYBERRY ST", "unit": "", "city": "HOT SPRINGS", "district": "", "region": "AR", "postcode": "71901", "id": ""}, "geometry": {"type": "Point", "coordinates": [-93.0431964, 34.4935735]}}
{"type": "Feature", "properties": {"hash": "166a1732456fbb92", "number": "204", "street": "BELLVIEW ST", "unit": "", "city": "HOT SPRINGS", "district": "", "region": "AR", "postcode": "71901", "id": ""}, "geometry": {"type": "Point", "coordinates": [-93.051984, 34.4824443]}}
{"type": "Feature", "properties": {"hash": "33152f31d893a5c0", "number": "602", "street": "BELLVIEW ST", "unit": "", "city": "HOT SPRINGS", "district": "", "region": "AR", "postcode": "71901", "id": ""}, "geometry": {"type": "Point", "coordinates": [-93.0475612, 34.4824831]}}
{"type": "Feature", "properties": {"hash": "0ac9d7a11bfadf57", "number": "606", "street": "BELLVIEW ST", "unit": "", "city": "HOT SPRINGS", "district": "", "region": "AR", "postcode": "71901", "id": ""}, "geometry": {"type": "Point", "coordinates": [-93.0473962, 34.4824759]}}
{"type": "Feature", "properties": {"hash": "47c4afefd6f76992", "number": "610", "street": "BELLVIEW ST", "unit": "", "city": "HOT SPRINGS", "district": "", "region": "AR", "postcode": "71901", "id": ""}, "geometry": {"type": "Point", "coordinates": [-93.0472254, 34.4824761]}}
{"type": "Feature", "properties": {"hash": "219709ba5fbaf34f", "number": "614", "street": "BELLVIEW ST", "unit": "", "city": "HOT SPRINGS", "district": "", "region": "AR", "postcode": "71901", "id": ""}, "geometry": {"type": "Point", "coordinates": [-93.0470664, 34.4824725]}}
{"type": "Feature", "properties": {"hash": "fedb46325d7122af", "number": "618", "street": "BELLVIEW ST", "unit": "", "city": "HOT SPRINGS", "district": "", "region": "AR", "postcode": "71901", "id": ""}, "geometry": {"type": "Point", "coordinates": [-93.0468882, 34.4824691]}}
{"type": "Feature", "properties": {"hash": "45f5748a8f1ac50d", "number": "622", "street": "BELLVIEW ST", "unit": "", "city": "HOT SPRINGS", "district": "", "region": "AR", "postcode": "71901", "id": ""}, "geometry": {"type": "Point", "coordinates": [-93.0467337, 34.4824692]}}
{"type": "Feature", "properties": {"hash": "df2758c450d396cb", "number": "104", "street": "BENTTREE CT", "unit": "", "city": "HOT SPRINGS", "district": "", "region": "AR", "postcode": "71913", "id": ""}, "geometry": {"type": "Point", "coordinates": [-93.0678063, 34.4874237]}}
{"type": "Feature", "properties": {"hash": "2f22083777b31e0a", "number": "118", "street": "BLAKE ST", "unit": "", "city": "HOT SPRINGS", "district": "", "region": "AR", "postcode": "71901", "id": ""}, "geometry": {"type": "Point", "coordinates": [-93.0427975, 34.4992463]}}
{"type": "Feature", "properties": {"hash": "ec1d7658a222f267", "number": "226", "street": "BLUFF ST", "unit": "", "city": "HOT SPRINGS", "district": "", "region": "AR", "postcode": "71901", "id": ""}, "geometry": {"type": "Point", "coordinates": [-93.0582905, 34.5298626]}}
{"type": "Feature", "properties": {"hash": "0e5674a2a8b36511", "number": "104", "street": "BOND CT", "unit": "", "city": "HOT SPRINGS", "district": "", "region": "AR", "postcode": "71901", "id": ""}, "geometry": {"type": "Point", "coordinates": [-93.0632289, 34.5056842]}}
{"type": "Feature", "properties": {"hash": "e63db98ca9eca479", "number": "104", "street": "BRENTWOOD ST", "unit": "", "city": "HOT SPRINGS", "district": "", "region": "AR", "postcode": "71901", "id": ""}, "geometry": {"type": "Point", "coordinates": [-93.0106138, 34.4719422]}}
{"type": "Feature", "properties": {"hash": "5c2f7fbe5c4b777f", "number": "105", "street": "BRENTWOOD ST", "unit": "", "city": "HOT SPRINGS", "district": "", "region": "AR", "postcode": "71901", "id": ""}, "geometry": {"type": "Point", "coordinates": [-93.010614, 34.4724231]}}
{"type": "Feature", "properties": {"hash": "c2252b9ac4fe41f7", "number": "113", "street": "BRIDGEVIEW CIR", "unit": "", "city": "HOT SPRINGS", "district": "", "region": "AR", "postcode": "71913", "id": ""}, "geometry": {"type": "Point", "coordinates": [-93.1222209, 34.4712317]}}
{"type": "Feature", "properties": {"hash": "9c6fe79b3932ed09", "number": "102", "street": "BRYAN PAUL ST", "unit": "", "city": "HOT SPRINGS", "district": "", "region": "AR", "postcode": "71901", "id": ""}, "geometry": {"type": "Point", "coordinates": [-93.0278423, 34.4925629]}}
{"type": "Feature", "properties": {"hash": "736d586d177cf73f", "number": "104", "street": "BRYAN PAUL ST", "unit": "", "city": "HOT SPRINGS", "district": "", "region": "AR", "postcode": "71901", "id": ""}, "geometry": {"type": "Point", "coordinates": [-93.0278272, 34.4923207]}}
{"type": "Feature", "properties": {"hash": "399a92794a1a2b4b", "number": "105", "street": "BRYAN PAUL ST", "unit": "", "city": "HOT SPRINGS", "district": "", "region": "AR", "postcode": "71901", "id": ""}, "geometry": {"type": "Point", "coordinates": [-93.0272187, 34.4924267]}}
{"type": "Feature", "properties": {"hash": "6537211108c7956a", "number": "777", "street": "CARPENTER DAM RD", "unit": "", "city": "HOT SPRINGS", "district": "", "region": "AR", "postcode": "71901", "id": ""}, "geometry": {"type": "Point", "coordinates": [-93.0260928, 34.4592528]}}
{"type": "Feature", "properties": {"hash": "52c1302a95f81f9f", "number": "258", "street": "CATHERINE HEIGHTS RD", "unit": "", "city": "HOT SPRINGS", "district": "", "region": "AR", "postcode": "71901", "id": ""}, "geometry": {"type": "Point", "coordinates": [-92.9876578, 34.4648809]}}
{"type": "Feature", "properties": {"hash": "99469c3159b583fe", "number": "267", "street": "CATHERINE HEIGHTS LOOP", "unit": "", "city": "HOT SPRINGS", "district": "", "region": "AR", "postcode": "71901", "id": ""}, "geometry": {"type": "Point", "coordinates": [-92.9869409, 34.4648762]}}
{"type": "Feature", "properties": {"hash": "35480b132bd524a1", "number": "200", "street": "CATHERINE HEIGHTS LOOP", "unit": "", "city": "HOT SPRINGS", "district": "", "region": "AR", "postcode": "71901", "id": ""}, "geometry": {"type": "Point", "coordinates": [-92.9849084, 34.464933]}}
{"type": "Feature", "properties": {"hash": "d0c08df1cb141f2e", "number": "408", "street": "CEDAR ST", "unit": "", "city": "HOT SPRINGS", "district": "", "region": "AR", "postcode": "71901", "id": ""}, "geometry": {"type": "Point", "coordinates": [-93.0639362, 34.5255849]}}
{"type": "Feature", "properties": {"hash": "d5c3d699d1eab92d", "number": "105", "street": "CENTERWOOD ST", "unit": "", "city": "HOT SPRINGS", "district": "", "region": "AR", "postcode": "71901", "id": ""}, "geometry": {"type": "Point", "coordinates": [-93.0208271, 34.4765896]}}
{"type": "Feature", "properties": {"hash": "cb0bc8f8db44baf0", "number": "507", "street": "CHATTANOOGA ST", "unit": "", "city": "HOT SPRINGS", "district": "", "region": "AR", "postcode": "71901", "id": ""}, "geometry": {"type": "Point", "coordinates": [-93.0316857, 34.5024908]}}
{"type": "Feature", "properties": {"hash": "d2b7cd54f1768d1c", "number": "617", "street": "CHATTANOOGA ST", "unit": "", "city": "HOT SPRINGS", "district": "", "region": "AR", "postcode": "71901", "id": ""}, "geometry": {"type": "Point", "coordinates": [-93.0289355, 34.5024917]}}
{"type": "Feature", "properties": {"hash": "0b546c0153375ab0", "number": "152", "street": "CHELLE ST", "unit": "", "city": "HOT SPRINGS", "district": "", "region": "AR", "postcode": "71901", "id": ""}, "geometry": {"type": "Point", "coordinates": [-93.0439739, 34.477441]}}
{"type": "Feature", "properties": {"hash": "56f66a4140ae395c", "number": "210", "street": "CHELSEA ST", "unit": "", "city": "HOT SPRINGS", "district": "", "region": "AR", "postcode": "71901", "id": ""}, "geometry": {"type": "Point", "coordinates": [-93.0503529, 34.4804334]}}
{"type": "Feature", "properties": {"hash": "c3da3edf35add4f9", "number": "323", "street": "SHAWNEE ST", "unit": "", "city": "HOT SPRINGS", "district": "", "region": "AR", "postcode": "71901", "id": ""}, "geometry": {"type": "Point", "coordinates": [-93.0306077, 34.491506]}}
{"type": "Feature", "properties": {"hash": "ee09aa5b273a6974", "number": "401", "street": "SPRING ST", "unit": "", "city": "HOT SPRINGS", "district": "", "region": "AR", "postcode": "71901", "id": ""}, "geometry": {"type": "Point", "coordinates": [-93.0506803, 34.5114355]}}
{"type": "Feature", "properties": {"hash": "daefb4a823928851", "number": "201", "street": "CLAIRMONT ST", "unit": "", "city": "HOT SPRINGS", "district": "", "region": "AR", "postcode": "71901", "id": ""}, "geometry": {"type": "Point", "coordinates": [-93.0485969, 34.4857419]}}
{"type": "Feature", "properties": {"hash": "d904230cdbd6830c", "number": "207", "street": "CLAIRMONT ST", "unit": "", "city": "HOT SPRINGS", "district": "", "region": "AR", "postcode": "71901", "id": ""}, "geometry": {"type": "Point", "coordinates": [-93.0486594, 34.4854772]}}
{"type": "Feature", "properties": {"hash": "ac658f34c2fdd3f1", "number": "107", "street": "CLARK ST", "unit": "", "city": "HOT SPRINGS", "district": "", "region": "AR", "postcode": "71913", "id": ""}, "geometry": {"type": "Point", "coordinates": [-93.0652859, 34.485751]}}
{"type": "Feature", "properties": {"hash": "344a7f63daaf8af3", "number": "109", "street": "CLARK ST", "unit": "", "city": "HOT SPRINGS", "district": "", "region": "AR", "postcode": "71913", "id": ""}, "geometry": {"type": "Point", "coordinates": [-93.0653737, 34.4854497]}}
{"type": "Feature", "properties": {"hash": "e31a0f60ec83f4b9", "number": "30", "street": "CLIFF LOOP", "unit": "", "city": "HOT SPRINGS", "district": "", "region": "AR", "postcode": "71913", "id": ""}, "geometry": {"type": "Point", "coordinates": [-93.1236, 34.4780882]}}
{"type": "Feature", "properties": {"hash": "e2cd53e061859bec", "number": "40", "street": "CLIFF LOOP", "unit": "", "city": "HOT SPRINGS", "district": "", "region": "AR", "postcode": "71913", "id": ""}, "geometry": {"type": "Point", "coordinates": [-93.1246582, 34.4782961]}}
{"type": "Feature", "properties": {"hash": "925703a1fa36baa9", "number": "70", "street": "CLIFF LOOP", "unit": "", "city": "HOT SPRINGS", "district": "", "region": "AR", "postcode": "71913", "id": ""}, "geometry": {"type": "Point", "coordinates": [-93.1246375, 34.4777792]}}
{"type": "Feature", "properties": {"hash": "0b4852ca065f2938", "number": "80", "street": "CLIFF LOOP", "unit": "", "city": "HOT SPRINGS", "district": "", "region": "AR", "postcode": "71913", "id": ""}, "geometry": {"type": "Point", "coordinates": [-93.1244089, 34.4775713]}}
{"type": "Feature", "properties": {"hash": "d4bc2358e93cc096", "number": "55", "street": "CLIFF LOOP", "unit": "", "city": "HOT SPRINGS", "district": "", "region": "AR", "postcode": "71913", "id": ""}, "geometry": {"type": "Point", "coordinates": [-93.1241673, 34.4779399]}}
{"type": "Feature", "properties": {"hash": "82284988a538e08a", "number": "90", "street": "CLIFF LOOP", "unit": "", "city": "HOT SPRINGS", "district": "", "region": "AR", "postcode": "71913", "id": ""}, "geometry": {"type": "Point", "coordinates": [-93.1247439, 34.4772181]}}
{"type": "Feature", "properties": {"hash": "4ce3e28cc6415736", "number": "332", "street": "CONES RD", "unit": "", "city": "HOT SPRINGS", "district": "", "region": "AR", "postcode": "71901", "id": ""}, "geometry": {"type": "Point", "coordinates": [-93.0339818, 34.4962072]}}
{"type": "Feature", "properties": {"hash": "63725c6aa5bc9996", "number": "146", "street": "Ouachita 88 Rd", "unit": "", "city": "Camden", "district": "Ouachita", "region": "AR", "postcode": "71701", "id": ""}, "geometry": {"type": "Point", "coordinates": [-92.7590597, 33.6537708]}}
{"type": "Feature", "properties": {"hash": "12e160cf3fd28a2d", "number": "186", "street": "Ouachita 88 Rd", "unit": "", "city": "Camden", "district": "Ouachita", "region": "AR", "postcode": "71701", "id": ""}, "geometry": {"type": "Point", "coordinates": [-92.7624256, 33.6538948]}}
{"type": "Feature", "properties": {"hash": "e7c75b1b895a61e7", "number": "337", "street": "Ouachita 88 Rd", "unit": "", "city": "Camden", "district": "Ouachita", "region": "AR", "postcode": "71701", "id": ""}, "geometry": {"type": "Point", "coordinates": [-92.7747987, 33.6514895]}}
{"type": "Feature", "properties": {"hash": "1162ad7f6ba65b52", "number": "356", "street": "Ouachita 88 Rd", "unit": "", "city": "Camden", "district": "Ouachita", "region": "AR", "postcode": "71701", "id": ""}, "geometry": {"type": "Point", "coordinates": [-92.7762917, 33.6522095]}}
{"type": "Feature", "properties": {"hash": "079e6579c07b6b57", "number": "362", "street": "Ouachita 88 Rd", "unit": "", "city": "Camden", "district": "Ouachita", "region": "AR", "postcode": "71701", "id": ""}, "geometry": {"type": "Point", "coordinates": [-92.7769078, 33.6522551]}}
{"type": "Feature", "properties": {"hash": "d2aeebd1e2db8d2f", "number": "446", "street": "Ouachita 43 Rd", "unit": "", "city": "Camden", "district": "Ouachita", "region": "AR", "postcode": "71701", "id": ""}, "geometry": {"type": "Point", "coordinates": [-92.7814683, 33.6529411]}}
{"type": "Feature", "properties": {"hash": "a6a02766f67886fa", "number": "408", "street": "Ouachita 88 Rd", "unit": "", "city": "Camden", "district": "Ouachita", "region": "AR", "postcode": "71701", "id": ""}, "geometry": {"type": "Point", "coordinates": [-92.7803709, 33.6522682]}}
{"type": "Feature", "properties": {"hash": "781db5f598f90f08", "number": "410", "street": "Ouachita 88 Rd", "unit": "", "city": "Camden", "district": "Ouachita", "region": "AR", "postcode": "71701", "id": ""}, "geometry": {"type": "Point", "coordinates": [-92.7807276, 33.6522344]}}
{"type": "Feature", "properties": {"hash": "0b8c1c22cee80877", "number": "503", "street": "Ouachita 88 Rd", "unit": "", "city": "Camden", "district": "Ouachita", "region": "AR", "postcode": "71701", "id": ""}, "geometry": {"type": "Point", "coordinates": [-92.7876571, 33.6544382]}}
{"type": "Feature", "properties": {"hash": "c464788e686c7b3b", "number": "511", "street": "Ouachita 88 Rd", "unit": "", "city": "Camden", "district": "Ouachita", "region": "AR", "postcode": "71701", "id": ""}, "geometry": {"type": "Point", "coordinates": [-92.7882918, 33.652523]}}
{"type": "Feature", "properties": {"hash": "91d626e47a6d2278", "number": "513", "street": "Ouachita 88 Rd", "unit": "", "city": "Camden", "district": "Ouachita", "region": "AR", "postcode": "71701", "id": ""}, "geometry": {"type": "Point", "coordinates": [-92.7890013, 33.6527311]}}
{"type": "Feature", "properties": {"hash": "631d1170610699d7", "number": "522", "street": "Ouachita 88 Rd", "unit": "", "city": "Camden", "district": "Ouachita", "region": "AR", "postcode": "71701", "id": ""}, "geometry": {"type": "Point", "coordinates": [-92.7888055, 33.6557421]}}
{"type": "Feature", "properties": {"hash": "bac9c64e5e927bd3", "number": "527", "street": "Ouachita 88 Rd", "unit": "", "city": "Camden", "district": "Ouachita", "region": "AR", "postcode": "71701", "id": ""}, "geometry": {"type": "Point", "coordinates": [-92.789673, 33.6544609]}}
{"type": "Feature", "properties": {"hash": "d71a61b8a45358e2", "number": "537", "street": "Ouachita 88 Rd", "unit": "", "city": "Camden", "district": "Ouachita", "region": "AR", "postcode": "71701", "id": ""}, "geometry": {"type": "Point", "coordinates": [-92.790255, 33.6557001]}}
{"type": "Feature", "properties": {"hash": "6fa9972c8657ad32", "number": "549", "street": "Ouachita 88 Rd", "unit": "", "city": "Camden", "district": "Ouachita", "region": "AR", "postcode": "71701", "id": ""}, "geometry": {"type": "Point", "coordinates": [-92.79144, 33.6546471]}}
{"type": "Feature", "properties": {"hash": "13e42369d5300032", "number": "877", "street": "1st St NE", "unit": "", "city": "Bearden", "district": "Ouachita", "region": "AR", "postcode": "71720", "id": ""}, "geometry": {"type": "Point", "coordinates": [-92.6023063, 33.7308922]}}
{"type": "Feature", "properties": {"hash": "863b4ad1b17c91c8", "number": "104", "street": "Ouachita 85 Rd", "unit": "", "city": "Bearden", "district": "Ouachita", "region": "AR", "postcode": "71720", "id": ""}, "geometry": {"type": "Point", "coordinates": [-92.6032698, 33.7316206]}}
{"type": "Feature", "properties": {"hash": "0ce55c18449e03f1", "number": "129", "street": "Ouachita 284 Rd", "unit": "", "city": "Bearden", "district": "Ouachita", "region": "AR", "postcode": "71720", "id": ""}, "geometry": {"type": "Point", "coordinates": [-92.5999878, 33.7464088]}}
{"type": "Feature", "properties": {"hash": "acb84240a994e052", "number": "141", "street": "Ouachita 284 Rd", "unit": "", "city": "Bearden", "district": "Ouachita", "region": "AR", "postcode": "71720", "id": ""}, "geometry": {"type": "Point", "coordinates": [-92.5989031, 33.7473289]}}
{"type": "Feature", "properties": {"hash": "54b8a4fbe5e76f42", "number": "143", "street": "Ouachita 284 Rd", "unit": "", "city": "Bearden", "district": "Ouachita", "region": "AR", "postcode": "71720", "id": ""}, "geometry": {"type": "Point", "coordinates": [-92.599102, 33.7462399]}}
{"type": "Feature", "properties": {"hash": "5e4efb4a68146594", "number": "151", "street": "Ouachita 284 Rd", "unit": "", "city": "Bearden", "district": "Ouachita", "region": "AR", "postcode": "71720", "id": ""}, "geometry": {"type": "Point", "coordinates": [-92.5981307, 33.7474014]}}
{"type": "Feature", "properties": {"hash": "978d2927b0246904", "number": "327", "street": "Ouachita 85 Rd", "unit": "", "city": "Bearden", "district": "Ouachita", "region": "AR", "postcode": "71720", "id": ""}, "geometry": {"type": "Point", "coordinates": [-92.6020759, 33.7462312]}}
{"type": "Feature", "properties": {"hash": "94afbe3f53381ad0", "number": "327", "street": "Ouachita 85 Rd", "unit": "", "city": "Bearden", "district": "Ouachita", "region": "AR", "postcode": "71720", "id": ""}, "geometry": {"type": "Point", "coordinates": [-92.6015044, 33.7462712]}}
{"type": "Feature", "properties": {"hash": "9f2be643d0c0f117", "number": "338", "street": "Ouachita 85 Rd", "unit": "", "city": "Bearden", "district": "Ouachita", "region": "AR", "postcode": "71720", "id": ""}, "geometry": {"type": "Point", "coordinates": [-92.6026788, 33.7469779]}}
{"type": "Feature", "properties": {"hash": "25a27fd70bc34709", "number": "341", "street": "Ouachita 85 Rd", "unit": "", "city": "Bearden", "district": "Ouachita", "region": "AR", "postcode": "71720", "id": ""}, "geometry": {"type": "Point", "coordinates": [-92.6022233, 33.74714]}}
{"type": "Feature", "properties": {"hash": "c44fc9f4cca194d4", "number": "347", "street": "Ouachita 85 Rd", "unit": "", "city": "Bearden", "district": "Ouachita", "region": "AR", "postcode": "71720", "id": ""}, "geometry": {"type": "Point", "coordinates": [-92.6020678, 33.7474719]}}
{"type": "Feature", "properties": {"hash": "941ca61486a50a8b", "number": "1100", "street": "1st St NE", "unit": "", "city": "Bearden", "district": "Ouachita", "region": "AR", "postcode": "71720", "id": ""}, "geometry": {"type": "Point", "coordinates": [-92.5856055, 33.7393834]}}
{"type": "Feature", "properties": {"hash": "8d57050083f95c91", "number": "112", "street": "Ouachita 291 Rd", "unit": "", "city": "Bearden", "district": "Ouachita", "region": "AR", "postcode": "71720", "id": ""}, "geometry": {"type": "Point", "coordinates": [-92.5936112, 33.7375286]}}
{"type": "Feature", "properties": {"hash": "a9d9e0400e8ae9c8", "number": "118", "street": "Ouachita 291 Rd", "unit": "", "city": "Bearden", "district": "Ouachita", "region": "AR", "postcode": "71720", "id": ""}, "geometry": {"type": "Point", "coordinates": [-92.5935591, 33.7377795]}}
{"type": "Feature", "properties": {"hash": "bae1e24339530cd2", "number": "122", "street": "Ouachita 291 Rd", "unit": "", "city": "Bearden", "district": "Ouachita", "region": "AR", "postcode": "71720", "id": ""}, "geometry": {"type": "Point", "coordinates": [-92.5935553, 33.7380588]}}
{"type": "Feature", "properties": {"hash": "5ce44b5ef1a1db3c", "number": "124", "street": "Ouachita 291 Rd", "unit": "", "city": "Bearden", "district": "Ouachita", "region": "AR", "postcode": "71720", "id": ""}, "geometry": {"type": "Point", "coordinates": [-92.5938505, 33.7381482]}}
{"type": "Feature", "properties": {"hash": "d816cbff19c540e4", "number": "125", "street": "Ouachita 583 Rd", "unit": "", "city": "Bearden", "district": "Ouachita", "region": "AR", "postcode": "71720", "id": ""}, "geometry": {"type": "Point", "coordinates": [-92.6064158, 33.7431623]}}
{"type": "Feature", "properties": {"hash": "9738f9f201084830", "number": "137", "street": "Ouachita 583 Rd", "unit": "", "city": "Bearden", "district": "Ouachita", "region": "AR", "postcode": "71720", "id": ""}, "geometry": {"type": "Point", "coordinates": [-92.6063531, 33.7449289]}}
{"type": "Feature", "properties": {"hash": "e6a8758e0e53abd0", "number": "151", "street": "Ouachita 583 Rd", "unit": "", "city": "Bearden", "district": "Ouachita", "region": "AR", "postcode": "71720", "id": ""}, "geometry": {"type": "Point", "coordinates": [-92.607327, 33.7447886]}}
{"type": "Feature", "properties": {"hash": "b99567b66cddc3fd", "number": "163", "street": "Ouachita 583 Rd", "unit": "", "city": "Bearden", "district": "Ouachita", "region": "AR", "postcode": "71720", "id": ""}, "geometry": {"type": "Point", "coordinates": [-92.6063804, 33.7469517]}}
{"type": "Feature", "properties": {"hash": "649b66460774aba3", "number": "112", "street": "Ouachita 247 Rd", "unit": "", "city": "Bearden", "district": "Ouachita", "region": "AR", "postcode": "71720", "id": ""}, "geometry": {"type": "Point", "coordinates": [-92.6565782, 33.7111377]}}
{"type": "Feature", "properties": {"hash": "3f08e67b25ba423e", "number": "126", "street": "Ouachita 247 Rd", "unit": "", "city": "Bearden", "district": "Ouachita", "region": "AR", "postcode": "71720", "id": ""}, "geometry": {"type": "Point", "coordinates": [-92.6565531, 33.7096528]}}
{"type": "Feature", "properties": {"hash": "98eeba2a6ee23287", "number": "1598", "street": "Highway 203 Hwy", "unit": "", "city": "Bearden", "district": "Ouachita", "region": "AR", "postcode": "71720", "id": ""}, "geometry": {"type": "Point", "coordinates": [-92.6539491, 33.7642753]}}
{"type": "Feature", "properties": {"hash": "3f936ec4a9ac09be", "number": "1601", "street": "Highway 203 Hwy", "unit": "", "city": "Bearden", "district": "Ouachita", "region": "AR", "postcode": "71720", "id": ""}, "geometry": {"type": "Point", "coordinates": [-92.6538746, 33.7632799]}}
{"type": "Feature", "properties": {"hash": "ab4f2427fc1bf693", "number": "1625", "street": "Highway 203 Hwy", "unit": "", "city": "Bearden", "district": "Ouachita", "region": "AR", "postcode": "71720", "id": ""}, "geometry": {"type": "Point", "coordinates": [-92.6561323, 33.7637058]}}
{"type": "Feature", "properties": {"hash": "18d0210248e29ec4", "number": "1410", "street": "Highway 203 Hwy", "unit": "", "city": "Bearden", "district": "Ouachita", "region": "AR", "postcode": "71720", "id": ""}, "geometry": {"type": "Point", "coordinates": [-92.64327, 33.756316]}}
{"type": "Feature", "properties": {"hash": "443c6f163892ba2b", "number": "1443", "street": "Highway 203 Hwy", "unit": "", "city": "Bearden", "district": "Ouachita", "region": "AR", "postcode": "71720", "id": ""}, "geometry": {"type": "Point", "coordinates": [-92.6449227, 33.7580937]}}
{"type": "Feature", "properties": {"hash": "c7e2a5e87cab88c4", "number": "4000", "street": "Highway 79 Hwy N", "unit": "", "city": "Bearden", "district": "Ouachita", "region": "AR", "postcode": "71720", "id": ""}, "geometry": {"type": "Point", "coordinates": [-92.7085022, 33.6907036]}}
{"type": "Feature", "properties": {"hash": "4d4c028c7ce7898c", "number": "126", "street": "Ouachita 90 Rd", "unit": "", "city": "Bearden", "district": "Ouachita", "region": "AR", "postcode": "71720", "id": ""}, "geometry": {"type": "Point", "coordinates": [-92.7038781, 33.7627603]}}
{"type": "Feature", "properties": {"hash": "a24b76bc6cc47ef8", "number": "150", "street": "Ouachita 221 Rd", "unit": "", "city": "Bearden", "district": "Ouachita", "region": "AR", "postcode": "71720", "id": ""}, "geometry": {"type": "Point", "coordinates": [-92.5990124, 33.7437331]}}
{"type": "Feature", "properties": {"hash": "3fc8b38c5a1f04fd", "number": "165", "street": "Ouachita 221 Rd", "unit": "", "city": "Bearden", "district": "Ouachita", "region": "AR", "postcode": "71720", "id": ""}, "geometry": {"type": "Point", "coordinates": [-92.5977797, 33.7422765]}}
{"type": "Feature", "properties": {"hash": "050ece04f4a6b487", "number": "145", "street": "Ouachita 284 Rd", "unit": "", "city": "Bearden", "district": "Ouachita", "region": "AR", "postcode": "71720", "id": ""}, "geometry": {"type": "Point", "coordinates": [-92.5992276, 33.745288]}}
{"type": "Feature", "properties": {"hash": "b5dac951a5743231", "number": "185", "street": "Ouachita 257 Rd", "unit": "", "city": "Bearden", "district": "Ouachita", "region": "AR", "postcode": "71720", "id": ""}, "geometry": {"type": "Point", "coordinates": [-92.6069781, 33.7511103]}}
{"type": "Feature", "properties": {"hash": "0c740af249441e0a", "number": "235", "street": "Ouachita 257 Rd", "unit": "", "city": "Bearden", "district": "Ouachita", "region": "AR", "postcode": "71720", "id": ""}, "geometry": {"type": "Point", "coordinates": [-92.602861, 33.7509702]}}
{"type": "Feature", "properties": {"hash": "b70f7095c50869aa", "number": "344", "street": "Ouachita 85 Rd", "unit": "", "city": "Bearden", "district": "Ouachita", "region": "AR", "postcode": "71720", "id": ""}, "geometry": {"type": "Point", "coordinates": [-92.6029811, 33.747491]}}
