{"type": "Feature", "properties": {"id": "", "unit": "", "number": "304", "street": "S OSO DORADO DR", "city": "PAYSON", "district": "", "region": "AZ", "postcode": "85541", "hash": "0ba6715a0b9c4f55"}, "geometry": {"type": "Point", "coordinates": [-111.3355568, 34.2366451]}}
{"type": "Feature", "properties": {"id": "", "unit": "", "number": "304", "street": "S GOLDEN BEAR PT", "city": "PAYSON", "district": "", "region": "AZ", "postcode": "85541", "hash": "8beac42c8b5beeba"}, "geometry": {"type": "Point", "coordinates": [-111.3375709, 34.2368828]}}
{"type": "Feature", "properties": {"id": "", "unit": "", "number": "305", "street": "S GOLDEN BEAR PT", "city": "PAYSON", "district": "", "region": "AZ", "postcode": "85541", "hash": "a3793040a5c79a42"}, "geometry": {"type": "Point", "coordinates": [-111.3373714, 34.2367316]}}
{"type": "Feature", "properties": {"id": "", "unit": "", "number": "5626", "street": "E ROBERTS DR", "city": "GLOBE", "district": "", "region": "AZ", "postcode": "85501", "hash": "47de24fc08990e1c"}, "geometry": {"type": "Point", "coordinates": [-110.8172218, 33.41105]}}
{"type": "Feature", "properties": {"id": "", "unit": "", "number": "5614", "street": "E ROBERTS DR", "city": "GLOBE", "district": "", "region": "AZ", "postcode": "85501", "hash": "b64f6c6319eb1ddf"}, "geometry": {"type": "Point", "coordinates": [-110.8173259, 33.4102889]}}
{"type": "Feature", "properties": {"id": "", "unit": "", "number": "5574", "street": "E ROBERTS DR", "city": "GLOBE", "district": "", "region": "AZ", "postcode": "85501", "hash": "b1a34bc86cf9ea8e"}, "geometry": {"type": "Point", "coordinates": [-110.8179884, 33.4098519]}}
{"type": "Feature", "properties": {"id": "", "unit": "", "number": "5513", "street": "E ROBERTS DR", "city": "GLOBE", "district": "", "region": "AZ", "postcode": "85501", "hash": "c27d88c2f4125ab0"}, "geometry": {"type": "Point", "coordinates": [-110.8186798, 33.4091692]}}
{"type": "Feature", "properties": {"id": "", "unit": "", "number": "5501", "street": "E ROBERTS DR", "city": "GLOBE", "district": "", "region": "AZ", "postcode": "85501", "hash": "d33e439b051fce61"}, "geometry": {"type": "Point", "coordinates": [-110.818902, 33.4090502]}}
{"type": "Feature", "properties": {"id": "", "unit": "", "number": "5493", "street": "E ROBERTS DR", "city": "GLOBE", "district": "", "region": "AZ", "postcode": "85501", "hash": "3fc30350515ebcc0"}, "geometry": {"type": "Point", "coordinates": [-110.8190872, 33.4089407]}}
{"type": "Feature", "properties": {"id": "", "unit": "", "number": "5483", "street": "E ROBERTS DR", "city": "GLOBE", "district": "", "region": "AZ", "postcode": "85501", "hash": "f5cd440de283b12c"}, "geometry": {"type": "Point", "coordinates": [-110.8192724, 33.408836]}}
{"type": "Feature", "properties": {"id": "", "unit": "", "number": "5463", "street": "E ROBERTS DR", "city": "GLOBE", "district": "", "region": "AZ", "postcode": "85501", "hash": "7b0eb91767d9b387"}, "geometry": {"type": "Point", "coordinates": [-110.8196514, 33.4085764]}}
{"type": "Feature", "properties": {"id": "", "unit": "", "number": "5460", "street": "E APACHE HILLS LN", "city": "GLOBE", "district": "", "region": "AZ", "postcode": "85501", "hash": "3ec689e53f40f7f1"}, "geometry": {"type": "Point", "coordinates": [-110.81984, 33.4081662]}}
{"type": "Feature", "properties": {"id": "", "unit": "", "number": "5494", "street": "E APACHE HILLS LN", "city": "GLOBE", "district": "", "region": "AZ", "postcode": "85501", "hash": "6bc6e382d1fc8108"}, "geometry": {"type": "Point", "coordinates": [-110.8192534, 33.4083754]}}
{"type": "Feature", "properties": {"id": "", "unit": "", "number": "5504", "street": "E APACHE HILLS LN", "city": "GLOBE", "district": "", "region": "AZ", "postcode": "85501", "hash": "1ff5aaed037fd325"}, "geometry": {"type": "Point", "coordinates": [-110.8190341, 33.4084872]}}
{"type": "Feature", "properties": {"id": "", "unit": "", "number": "5512", "street": "E APACHE HILLS LN", "city": "GLOBE", "district": "", "region": "AZ", "postcode": "85501", "hash": "1e5fef9a4106b8a9"}, "geometry": {"type": "Point", "coordinates": [-110.818846, 33.4086086]}}
{"type": "Feature", "properties": {"id": "", "unit": "", "number": "5522", "street": "E APACHE HILLS LN", "city": "GLOBE", "district": "", "region": "AZ", "postcode": "85501", "hash": "0fa2e33b0a0dc29d"}, "geometry": {"type": "Point", "coordinates": [-110.8185981, 33.4087682]}}
{"type": "Feature", "properties": {"id": "", "unit": "", "number": "5377", "street": "E WASHBORN ST", "city": "GLOBE", "district": "", "region": "AZ", "postcode": "85501", "hash": "1b5291d66b4b1b26"}, "geometry": {"type": "Point", "coordinates": [-110.8214273, 33.4097937]}}
{"type": "Feature", "properties": {"id": "", "unit": "", "number": "5453", "street": "E WASHBORN ST", "city": "GLOBE", "district": "", "region": "AZ", "postcode": "85501", "hash": "f40007804386df37"}, "geometry": {"type": "Point", "coordinates": [-110.8213898, 33.4100395]}}
{"type": "Feature", "properties": {"id": "", "unit": "", "number": "6071", "street": "W RIMVIEW DR", "city": "PINE", "district": "", "region": "AZ", "postcode": "85544", "hash": "e311b0b24df41db4"}, "geometry": {"type": "Point", "coordinates": [-111.4544338, 34.3805007]}}
{"type": "Feature", "properties": {"id": "", "unit": "", "number": "6053", "street": "W RIMVIEW DR", "city": "PINE", "district": "", "region": "AZ", "postcode": "85544", "hash": "5ab0bb142388d7c5"}, "geometry": {"type": "Point", "coordinates": [-111.4540698, 34.3804967]}}
{"type": "Feature", "properties": {"id": "", "unit": "", "number": "256", "street": "N SECOND ST", "city": "GLOBE", "district": "", "region": "AZ", "postcode": "85501", "hash": "9da22ee89e13f0b3"}, "geometry": {"type": "Point", "coordinates": [-110.7817384, 33.3995199]}}
{"type": "Feature", "properties": {"id": "", "unit": "", "number": "108", "street": "W HILLSIDE DR", "city": "HAYDEN", "district": "", "region": "AZ", "postcode": "85135", "hash": "d07939337b071171"}, "geometry": {"type": "Point", "coordinates": [-110.7905675, 33.0036214]}}
{"type": "Feature", "properties": {"id": "", "unit": "", "number": "114", "street": "W HILLSIDE DR", "city": "HAYDEN", "district": "", "region": "AZ", "postcode": "85135", "hash": "e41aa25f572b5890"}, "geometry": {"type": "Point", "coordinates": [-110.7906715, 33.0037243]}}
{"type": "Feature", "properties": {"id": "", "unit": "", "number": "118", "street": "W HILLSIDE DR", "city": "HAYDEN", "district": "", "region": "AZ", "postcode": "85135", "hash": "085200a1282b9532"}, "geometry": {"type": "Point", "coordinates": [-110.7908556, 33.0037499]}}
{"type": "Feature", "properties": {"id": "", "unit": "", "number": "512", "street": "N SAN PEDRO RD", "city": "HAYDEN", "district": "", "region": "AZ", "postcode": "85135", "hash": "cd040d7b03716454"}, "geometry": {"type": "Point", "coordinates": [-110.7901702, 33.0038245]}}
{"type": "Feature", "properties": {"id": "", "unit": "", "number": "194", "street": "E HILLSIDE DR", "city": "HAYDEN", "district": "", "region": "AZ", "postcode": "85135", "hash": "e0111dc2d5d7a35b"}, "geometry": {"type": "Point", "coordinates": [-110.789315, 33.003588]}}
{"type": "Feature", "properties": {"id": "", "unit": "", "number": "213", "street": "E HILLSIDE DR", "city": "HAYDEN", "district": "", "region": "AZ", "postcode": "85135", "hash": "d3d553724c1ccfb5"}, "geometry": {"type": "Point", "coordinates": [-110.7894759, 33.0037581]}}
{"type": "Feature", "properties": {"id": "", "unit": "", "number": "218", "street": "E HILLSIDE DR", "city": "HAYDEN", "district": "", "region": "AZ", "postcode": "85135", "hash": "e0f6954dd1220375"}, "geometry": {"type": "Point", "coordinates": [-110.7893758, 33.0041289]}}
{"type": "Feature", "properties": {"id": "", "unit": "", "number": "521", "street": "N SAN PEDRO RD", "city": "HAYDEN", "district": "", "region": "AZ", "postcode": "85135", "hash": "6389ef8837b3b9d2"}, "geometry": {"type": "Point", "coordinates": [-110.7902409, 33.0040728]}}
{"type": "Feature", "properties": {"id": "", "unit": "", "number": "524", "street": "N SAN PEDRO RD", "city": "HAYDEN", "district": "", "region": "AZ", "postcode": "85135", "hash": "4680468aae89497b"}, "geometry": {"type": "Point", "coordinates": [-110.7900581, 33.0040334]}}
{"type": "Feature", "properties": {"id": "", "unit": "", "number": "533", "street": "N SAN PEDRO RD", "city": "HAYDEN", "district": "", "region": "AZ", "postcode": "85135", "hash": "64f635a7946eaab7"}, "geometry": {"type": "Point", "coordinates": [-110.7900698, 33.0043103]}}
{"type": "Feature", "properties": {"id": "", "unit": "", "number": "100", "street": "N MOUNTAIN VW", "city": "HAYDEN", "district": "", "region": "AZ", "postcode": "85135", "hash": "082619651a98de4b"}, "geometry": {"type": "Point", "coordinates": [-110.7756249, 32.9887134]}}
{"type": "Feature", "properties": {"id": "", "unit": "", "number": "521", "street": "W AZ HIGHWAY 177", "city": "HAYDEN", "district": "", "region": "AZ", "postcode": "85135", "hash": "2f479e1c4c3b5557"}, "geometry": {"type": "Point", "coordinates": [-110.7755099, 32.9875892]}}
{"type": "Feature", "properties": {"id": "", "unit": "", "number": "534", "street": "W AZ HIGHWAY 177", "city": "HAYDEN", "district": "", "region": "AZ", "postcode": "85135", "hash": "e5dfae542c8df034"}, "geometry": {"type": "Point", "coordinates": [-110.7757666, 32.9880616]}}
{"type": "Feature", "properties": {"id": "", "unit": "", "number": "573", "street": "W AZ HIGHWAY 177", "city": "HAYDEN", "district": "", "region": "AZ", "postcode": "85135", "hash": "d637e731e84e9798"}, "geometry": {"type": "Point", "coordinates": [-110.7764749, 32.9876841]}}
{"type": "Feature", "properties": {"id": "", "unit": "", "number": "597", "street": "W AZ HIGHWAY 177", "city": "HAYDEN", "district": "", "region": "AZ", "postcode": "85135", "hash": "fdd0ee27fc01ca1b"}, "geometry": {"type": "Point", "coordinates": [-110.7769973, 32.9880017]}}
{"type": "Feature", "properties": {"id": "", "unit": "", "number": "607", "street": "W AZ HIGHWAY 177", "city": "HAYDEN", "district": "", "region": "AZ", "postcode": "85135", "hash": "9f6b0498a7054125"}, "geometry": {"type": "Point", "coordinates": [-110.7772402, 32.9881201]}}
{"type": "Feature", "properties": {"id": "", "unit": "", "number": "621", "street": "W AZ HIGHWAY 177", "city": "HAYDEN", "district": "", "region": "AZ", "postcode": "85135", "hash": "7d6b694daf93db17"}, "geometry": {"type": "Point", "coordinates": [-110.7774829, 32.9882758]}}
{"type": "Feature", "properties": {"id": "", "unit": "", "number": "637", "street": "W AZ HIGHWAY 177", "city": "HAYDEN", "district": "", "region": "AZ", "postcode": "85135", "hash": "b8b544d5a366bb97"}, "geometry": {"type": "Point", "coordinates": [-110.7777329, 32.988506]}}
{"type": "Feature", "properties": {"id": "", "unit": "", "number": "679", "street": "W AZ HIGHWAY 177", "city": "HAYDEN", "district": "", "region": "AZ", "postcode": "85135", "hash": "9d33cbeaf3cb1e84"}, "geometry": {"type": "Point", "coordinates": [-110.7782844, 32.9889603]}}
{"type": "Feature", "properties": {"id": "", "unit": "", "number": "721", "street": "W AZ HIGHWAY 177", "city": "HAYDEN", "district": "", "region": "AZ", "postcode": "85135", "hash": "67ab3532b6ef7cbd"}, "geometry": {"type": "Point", "coordinates": [-110.778799, 32.9894581]}}
{"type": "Feature", "properties": {"id": "", "unit": "", "number": "692", "street": "W AZ HIGHWAY 177", "city": "HAYDEN", "district": "", "region": "AZ", "postcode": "85135", "hash": "060e80695d3de556"}, "geometry": {"type": "Point", "coordinates": [-110.778077, 32.9894009]}}
{"type": "Feature", "properties": {"id": "", "unit": "", "number": "676", "street": "W AZ HIGHWAY 177", "city": "HAYDEN", "district": "", "region": "AZ", "postcode": "85135", "hash": "489eb5c5bfff6f32"}, "geometry": {"type": "Point", "coordinates": [-110.7778859, 32.9892018]}}
{"type": "Feature", "properties": {"id": "", "unit": "", "number": "660", "street": "W AZ HIGHWAY 177", "city": "HAYDEN", "district": "", "region": "AZ", "postcode": "85135", "hash": "0ded65b5fc561414"}, "geometry": {"type": "Point", "coordinates": [-110.7776652, 32.9890462]}}
{"type": "Feature", "properties": {"id": "", "unit": "", "number": "648", "street": "W AZ HIGHWAY 177", "city": "HAYDEN", "district": "", "region": "AZ", "postcode": "85135", "hash": "456a135ded77975e"}, "geometry": {"type": "Point", "coordinates": [-110.7774518, 32.9889278]}}
{"type": "Feature", "properties": {"id": "", "unit": "", "number": "189", "street": "N MOUNTAIN VW", "city": "HAYDEN", "district": "", "region": "AZ", "postcode": "85135", "hash": "58ff00332c33ad0b"}, "geometry": {"type": "Point", "coordinates": [-110.7751156, 32.9890665]}}
{"type": "Feature", "properties": {"id": "", "unit": "", "number": "201", "street": "N MOUNTAIN VW", "city": "HAYDEN", "district": "", "region": "AZ", "postcode": "85135", "hash": "caf2061c20fe778b"}, "geometry": {"type": "Point", "coordinates": [-110.7751151, 32.9892465]}}
{"type": "Feature", "properties": {"id": "", "unit": "", "number": "215", "street": "N MOUNTAIN VW", "city": "HAYDEN", "district": "", "region": "AZ", "postcode": "85135", "hash": "ab10661ad3698d19"}, "geometry": {"type": "Point", "coordinates": [-110.7751221, 32.9894204]}}
{"type": "Feature", "properties": {"id": "", "unit": "", "number": "227", "street": "N MOUNTAIN VW", "city": "HAYDEN", "district": "", "region": "AZ", "postcode": "85135", "hash": "63c36e75ccb5b047"}, "geometry": {"type": "Point", "coordinates": [-110.7751364, 32.9896005]}}
{"type": "Feature", "properties": {"id": "", "unit": "", "number": "239", "street": "N MOUNTAIN VW", "city": "HAYDEN", "district": "", "region": "AZ", "postcode": "85135", "hash": "65581bad090dfaf4"}, "geometry": {"type": "Point", "coordinates": [-110.7751285, 32.9897744]}}
{"type": "Feature", "properties": {"hash": "08ea94351f85397a", "number": "2195", "street": "MALAHINI", "unit": "", "city": "Lake Havasu City", "district": "MOHAVE", "region": "AZ", "postcode": "86404", "id": ""}, "geometry": {"type": "Point", "coordinates": [-114.3438983, 34.5192971]}}
{"type": "Feature", "properties": {"hash": "daefeed7e1d465e5", "number": "1345", "street": "AVALON", "unit": "", "city": "Lake Havasu City", "district": "MOHAVE", "region": "AZ", "postcode": "86404", "id": ""}, "geometry": {"type": "Point", "coordinates": [-114.3321348, 34.5165031]}}
{"type": "Feature", "properties": {"hash": "ebb9037a1bb9b18e", "number": "1487", "street": "BEEFEATER", "unit": "", "city": "Lake Havasu City", "district": "MOHAVE", "region": "AZ", "postcode": "86404", "id": ""}, "geometry": {"type": "Point", "coordinates": [-114.3462474, 34.5166259]}}
{"type": "Feature", "properties": {"hash": "dcb4d9f915f77afc", "number": "1425", "street": "PATRICIAN", "unit": "", "city": "Lake Havasu City", "district": "MOHAVE", "region": "AZ", "postcode": "86404", "id": ""}, "geometry": {"type": "Point", "coordinates": [-114.3435928, 34.5160513]}}
{"type": "Feature", "properties": {"hash": "1353e360b3a3859e", "number": "1495", "street": "AVALON", "unit": "", "city": "Lake Havasu City", "district": "MOHAVE", "region": "AZ", "postcode": "86404", "id": ""}, "geometry": {"type": "Point", "coordinates": [-114.3356619, 34.5189223]}}
{"type": "Feature", "properties": {"hash": "5629ed35f81975e4", "number": "2346", "street": "MANDALAY", "unit": "", "city": "Lake Havasu City", "district": "MOHAVE", "region": "AZ", "postcode": "86404", "id": ""}, "geometry": {"type": "Point", "coordinates": [-114.3371566, 34.5152302]}}
{"type": "Feature", "properties": {"hash": "3fd30118c194afd6", "number": "1489", "street": "BEEFEATER", "unit": "", "city": "Lake Havasu City", "district": "MOHAVE", "region": "AZ", "postcode": "86404", "id": ""}, "geometry": {"type": "Point", "coordinates": [-114.3459582, 34.5166235]}}
{"type": "Feature", "properties": {"hash": "5e12bf3dcc3d2bf6", "number": "2375", "street": "PALO VERDE NORTH", "unit": "", "city": "Lake Havasu City", "district": "MOHAVE", "region": "AZ", "postcode": "86404", "id": ""}, "geometry": {"type": "Point", "coordinates": [-114.336024, 34.5152184]}}
{"type": "Feature", "properties": {"hash": "9ccf0fc74a9c2a09", "number": "1470", "street": "TANQUERAY", "unit": "", "city": "Lake Havasu City", "district": "MOHAVE", "region": "AZ", "postcode": "86404", "id": ""}, "geometry": {"type": "Point", "coordinates": [-114.3482134, 34.5159192]}}
{"type": "Feature", "properties": {"hash": "385d6e1007781fee", "number": "2065", "street": "PALO VERDE NORTH", "unit": "", "city": "Lake Havasu City", "district": "MOHAVE", "region": "AZ", "postcode": "86404", "id": ""}, "geometry": {"type": "Point", "coordinates": [-114.3483354, 34.5175628]}}
{"type": "Feature", "properties": {"hash": "aecd22f236809da9", "number": "2216", "street": "PALO VERDE NORTH", "unit": "", "city": "Lake Havasu City", "district": "MOHAVE", "region": "AZ", "postcode": "86404", "id": ""}, "geometry": {"type": "Point", "coordinates": [-114.3421742, 34.516963]}}
{"type": "Feature", "properties": {"hash": "4e4ec725e35165a5", "number": "2135", "street": "LAKE HAVASU", "unit": "", "city": "Lake Havasu City", "district": "MOHAVE", "region": "AZ", "postcode": "86404", "id": ""}, "geometry": {"type": "Point", "coordinates": [-114.3463882, 34.5195586]}}
{"type": "Feature", "properties": {"hash": "1da93c9563c59e72", "number": "1375", "street": "TANQUERAY", "unit": "", "city": "Lake Havasu City", "district": "MOHAVE", "region": "AZ", "postcode": "86404", "id": ""}, "geometry": {"type": "Point", "coordinates": [-114.348807, 34.513738]}}
{"type": "Feature", "properties": {"hash": "d8c2923e2335eeff", "number": "1445", "street": "NAUTILUS", "unit": "", "city": "Lake Havasu City", "district": "MOHAVE", "region": "AZ", "postcode": "86404", "id": ""}, "geometry": {"type": "Point", "coordinates": [-114.3457131, 34.5155277]}}
{"type": "Feature", "properties": {"hash": "3f551a05daa5bbce", "number": "2325", "street": "REGATTA", "unit": "", "city": "Lake Havasu City", "district": "MOHAVE", "region": "AZ", "postcode": "86404", "id": ""}, "geometry": {"type": "Point", "coordinates": [-114.3408429, 34.5200612]}}
{"type": "Feature", "properties": {"hash": "7a1ff08ae5bd6e12", "number": "1605", "street": "AVALON", "unit": "", "city": "Lake Havasu City", "district": "MOHAVE", "region": "AZ", "postcode": "86404", "id": ""}, "geometry": {"type": "Point", "coordinates": [-114.3376245, 34.5213342]}}
{"type": "Feature", "properties": {"hash": "b414effb610071f3", "number": "2319", "street": "PORPOISE", "unit": "", "city": "Lake Havasu City", "district": "MOHAVE", "region": "AZ", "postcode": "86404", "id": ""}, "geometry": {"type": "Point", "coordinates": [-114.3391959, 34.5173598]}}
{"type": "Feature", "properties": {"hash": "09e0af4b51da3f20", "number": "1445", "street": "LAKE HAVASU NORTH", "unit": "", "city": "Lake Havasu City", "district": "MOHAVE", "region": "AZ", "postcode": "86404", "id": ""}, "geometry": {"type": "Point", "coordinates": [-114.3477923, 34.5154948]}}
{"type": "Feature", "properties": {"hash": "054de030a313374e", "number": "1675", "street": "AVALON", "unit": "", "city": "Lake Havasu City", "district": "MOHAVE", "region": "AZ", "postcode": "86404", "id": ""}, "geometry": {"type": "Point", "coordinates": [-114.3401362, 34.522637]}}
{"type": "Feature", "properties": {"hash": "0d5dae69715fa144", "number": "2185", "street": "MALAHINI", "unit": "", "city": "Lake Havasu City", "district": "MOHAVE", "region": "AZ", "postcode": "86404", "id": ""}, "geometry": {"type": "Point", "coordinates": [-114.3442637, 34.5192447]}}
{"type": "Feature", "properties": {"hash": "70a4d6ed3f31fd70", "number": "2270", "street": "HILLSIDE", "unit": "", "city": "Lake Havasu City", "district": "MOHAVE", "region": "AZ", "postcode": "86404", "id": ""}, "geometry": {"type": "Point", "coordinates": [-114.34047, 34.5153902]}}
{"type": "Feature", "properties": {"hash": "5fc6afe2df2f2d8d", "number": "2280", "street": "MALAHINI", "unit": "", "city": "Lake Havasu City", "district": "MOHAVE", "region": "AZ", "postcode": "86404", "id": ""}, "geometry": {"type": "Point", "coordinates": [-114.3411611, 34.5185512]}}
{"type": "Feature", "properties": {"hash": "f2e8eb047eec456d", "number": "2125", "street": "BOMBAY", "unit": "", "city": "Lake Havasu City", "district": "MOHAVE", "region": "AZ", "postcode": "86404", "id": ""}, "geometry": {"type": "Point", "coordinates": [-114.3436105, 34.5124085]}}
{"type": "Feature", "properties": {"hash": "09a407a2abb22b81", "number": "2370", "street": "INVERNESS", "unit": "", "city": "Lake Havasu City", "district": "MOHAVE", "region": "AZ", "postcode": "86404", "id": ""}, "geometry": {"type": "Point", "coordinates": [-114.3365568, 34.5163137]}}
{"type": "Feature", "properties": {"hash": "397aa793311c5472", "number": "2220", "street": "INTERCEPTOR", "unit": "", "city": "Lake Havasu City", "district": "MOHAVE", "region": "AZ", "postcode": "86404", "id": ""}, "geometry": {"type": "Point", "coordinates": [-114.3435696, 34.5196179]}}
{"type": "Feature", "properties": {"hash": "7e90e3827b53b9a3", "number": "1395", "street": "LAKE HAVASU NORTH", "unit": "", "city": "Lake Havasu City", "district": "MOHAVE", "region": "AZ", "postcode": "86404", "id": ""}, "geometry": {"type": "Point", "coordinates": [-114.3477835, 34.5143963]}}
{"type": "Feature", "properties": {"hash": "2003031fe08b7fcf", "number": "2475", "street": "MANDALAY", "unit": "", "city": "Lake Havasu City", "district": "MOHAVE", "region": "AZ", "postcode": "86404", "id": ""}, "geometry": {"type": "Point", "coordinates": [-114.3333073, 34.5167195]}}
{"type": "Feature", "properties": {"hash": "4214caa2ee1bb50f", "number": "1667", "street": "RIVERBELLE", "unit": "", "city": "Lake Havasu City", "district": "MOHAVE", "region": "AZ", "postcode": "86404", "id": ""}, "geometry": {"type": "Point", "coordinates": [-114.3404588, 34.521281]}}
{"type": "Feature", "properties": {"hash": "1bb617d050d7cd70", "number": "1236", "street": "LAKE HAVASU NORTH", "unit": "", "city": "Lake Havasu City", "district": "MOHAVE", "region": "AZ", "postcode": "86404", "id": ""}, "geometry": {"type": "Point", "coordinates": [-114.3469375, 34.5104187]}}
{"type": "Feature", "properties": {"hash": "f4b1daaf8456f814", "number": "2375", "street": "FLAGSHIP", "unit": "", "city": "Lake Havasu City", "district": "MOHAVE", "region": "AZ", "postcode": "86404", "id": ""}, "geometry": {"type": "Point", "coordinates": [-114.3395211, 34.5211907]}}
{"type": "Feature", "properties": {"hash": "2a645274b1f91005", "number": "1545", "street": "AVALON", "unit": "", "city": "Lake Havasu City", "district": "MOHAVE", "region": "AZ", "postcode": "86404", "id": ""}, "geometry": {"type": "Point", "coordinates": [-114.3365751, 34.5200076]}}
{"type": "Feature", "properties": {"hash": "c79250824eea0232", "number": "1290", "street": "BOMBAY", "unit": "", "city": "Lake Havasu City", "district": "MOHAVE", "region": "AZ", "postcode": "86404", "id": ""}, "geometry": {"type": "Point", "coordinates": [-114.342045, 34.5125539]}}
{"type": "Feature", "properties": {"hash": "911ce057727fe636", "number": "2075", "street": "BOMBAY", "unit": "", "city": "Lake Havasu City", "district": "MOHAVE", "region": "AZ", "postcode": "86404", "id": ""}, "geometry": {"type": "Point", "coordinates": [-114.3451145, 34.5119123]}}
{"type": "Feature", "properties": {"hash": "2c9be953c475d610", "number": "1515", "street": "LAKE HAVASU NORTH", "unit": "", "city": "Lake Havasu City", "district": "MOHAVE", "region": "AZ", "postcode": "86404", "id": ""}, "geometry": {"type": "Point", "coordinates": [-114.3478488, 34.5179373]}}
{"type": "Feature", "properties": {"hash": "c28c146f997d1127", "number": "1645", "street": "AVALON", "unit": "", "city": "Lake Havasu City", "district": "MOHAVE", "region": "AZ", "postcode": "86404", "id": ""}, "geometry": {"type": "Point", "coordinates": [-114.338609, 34.5220723]}}
{"type": "Feature", "properties": {"hash": "70860b58e53eb7be", "number": "1320", "street": "TANQUERAY", "unit": "", "city": "Lake Havasu City", "district": "MOHAVE", "region": "AZ", "postcode": "86404", "id": ""}, "geometry": {"type": "Point", "coordinates": [-114.3482776, 34.5121728]}}
{"type": "Feature", "properties": {"hash": "0c38eeae57261246", "number": "2371", "street": "MALAHINI", "unit": "", "city": "Lake Havasu City", "district": "MOHAVE", "region": "AZ", "postcode": "86404", "id": ""}, "geometry": {"type": "Point", "coordinates": [-114.3388585, 34.5192928]}}
{"type": "Feature", "properties": {"hash": "68513d3d1c8fa3ad", "number": "2210", "street": "MALAHINI", "unit": "", "city": "Lake Havasu City", "district": "MOHAVE", "region": "AZ", "postcode": "86404", "id": ""}, "geometry": {"type": "Point", "coordinates": [-114.3430494, 34.5187937]}}
{"type": "Feature", "properties": {"hash": "b146ecde13222aa9", "number": "1235", "street": "LAKE HAVASU", "unit": "", "city": "Lake Havasu City", "district": "MOHAVE", "region": "AZ", "postcode": "86404", "id": ""}, "geometry": {"type": "Point", "coordinates": [-114.3482196, 34.5100262]}}
{"type": "Feature", "properties": {"hash": "6c3821c8898947fa", "number": "2135", "street": "LAKE HAVASU", "unit": "", "city": "Lake Havasu City", "district": "MOHAVE", "region": "AZ", "postcode": "86404", "id": ""}, "geometry": {"type": "Point", "coordinates": [-114.3469623, 34.5204249]}}
{"type": "Feature", "properties": {"hash": "265fb413c56276f9", "number": "1340", "street": "TANQUERAY", "unit": "", "city": "Lake Havasu City", "district": "MOHAVE", "region": "AZ", "postcode": "86404", "id": ""}, "geometry": {"type": "Point", "coordinates": [-114.3481999, 34.5129287]}}
{"type": "Feature", "properties": {"hash": "eeb0ede5ef775bed", "number": "2396", "street": "MALAHINI", "unit": "", "city": "Lake Havasu City", "district": "MOHAVE", "region": "AZ", "postcode": "86404", "id": ""}, "geometry": {"type": "Point", "coordinates": [-114.337678, 34.5195908]}}
{"type": "Feature", "properties": {"hash": "7cdeb48740f698f6", "number": "2355", "street": "SWIFT", "unit": "", "city": "Lake Havasu City", "district": "MOHAVE", "region": "AZ", "postcode": "86404", "id": ""}, "geometry": {"type": "Point", "coordinates": [-114.3385232, 34.5184321]}}
{"type": "Feature", "properties": {"hash": "cc5fff44e6a1ea12", "number": "2050", "street": "HILLSIDE", "unit": "", "city": "Lake Havasu City", "district": "MOHAVE", "region": "AZ", "postcode": "86404", "id": ""}, "geometry": {"type": "Point", "coordinates": [-114.3457212, 34.5128767]}}
{"type": "Feature", "properties": {"hash": "08f83abdde1fb2c6", "number": "1420", "street": "LAKE HAVASU NORTH", "unit": "", "city": "Lake Havasu City", "district": "MOHAVE", "region": "AZ", "postcode": "86404", "id": ""}, "geometry": {"type": "Point", "coordinates": [-114.3471398, 34.5151133]}}
{"type": "Feature", "properties": {"hash": "2df2a7f73e18277f", "number": "2310", "street": "SWIFT", "unit": "", "city": "Lake Havasu City", "district": "MOHAVE", "region": "AZ", "postcode": "86404", "id": ""}, "geometry": {"type": "Point", "coordinates": [-114.3395208, 34.517679]}}
{"type": "Feature", "properties": {"hash": "066281dc321f8b45", "number": "1315", "street": "BOMBAY", "unit": "", "city": "Lake Havasu City", "district": "MOHAVE", "region": "AZ", "postcode": "86404", "id": ""}, "geometry": {"type": "Point", "coordinates": [-114.341686, 34.5127269]}}
{"type": "Feature", "properties": {"hash": "600dc6c5ac294530", "number": "1669", "street": "AVALON", "unit": "", "city": "Lake Havasu City", "district": "MOHAVE", "region": "AZ", "postcode": "86404", "id": ""}, "geometry": {"type": "Point", "coordinates": [-114.3398688, 34.5225398]}}
{"type": "Feature", "properties": {"hash": "5a2ec3b145a654b6", "number": "1570", "street": "NEPTUNE", "unit": "", "city": "Lake Havasu City", "district": "MOHAVE", "region": "AZ", "postcode": "86404", "id": ""}, "geometry": {"type": "Point", "coordinates": [-114.3442498, 34.5194772]}}
{"type": "Feature", "properties": {"hash": "97946474ff9e5e95", "number": "1385", "street": "LAKE HAVASU NORTH", "unit": "", "city": "Lake Havasu City", "district": "MOHAVE", "region": "AZ", "postcode": "86404", "id": ""}, "geometry": {"type": "Point", "coordinates": [-114.3477823, 34.5141765]}}
