{"type": "Feature", "properties": {"hash": "a53baa88678b5d4d", "number": "510", "street": "E 10TH ST", "unit": "", "city": "BAKERSFIELD", "district": "KERN", "region": "CA", "postcode": "93307", "id": ""}, "geometry": {"type": "Point", "coordinates": [-118.9975451, 35.3667025]}}
{"type": "Feature", "properties": {"hash": "c6658f80ed353c14", "number": "513", "street": "E 10TH ST", "unit": "", "city": "BAKERSFIELD", "district": "KERN", "region": "CA", "postcode": "93307", "id": ""}, "geometry": {"type": "Point", "coordinates": [-118.9973873, 35.3662921]}}
{"type": "Feature", "properties": {"hash": "4cf7eed0b61bc653", "number": "513 1/2", "street": "E 10TH ST", "unit": "", "city": "BAKERSFIELD", "district": "KERN", "region": "CA", "postcode": "93307", "id": ""}, "geometry": {"type": "Point", "coordinates": [-118.9973804, 35.3661154]}}
{"type": "Feature", "properties": {"hash": "327f365b2deb554a", "number": "515", "street": "E 10TH ST", "unit": "", "city": "BAKERSFIELD", "district": "KERN", "region": "CA", "postcode": "93307", "id": ""}, "geometry": {"type": "Point", "coordinates": [-118.9972618, 35.366278]}}
{"type": "Feature", "properties": {"hash": "3fc944c0a56ad06a", "number": "515 1/2", "street": "E 10TH ST", "unit": "", "city": "BAKERSFIELD", "district": "KERN", "region": "CA", "postcode": "93307", "id": ""}, "geometry": {"type": "Point", "coordinates": [-118.9972635, 35.3661017]}}
{"type": "Feature", "properties": {"hash": "6a80170d39dc46bb", "number": "530", "street": "E 10TH ST", "unit": "", "city": "BAKERSFIELD", "district": "KERN", "region": "CA", "postcode": "93307", "id": ""}, "geometry": {"type": "Point", "coordinates": [-118.9972512, 35.3667037]}}
{"type": "Feature", "properties": {"hash": "a0e05e990b90c0d0", "number": "600", "street": "E 10TH ST", "unit": "", "city": "BAKERSFIELD", "district": "KERN", "region": "CA", "postcode": "93307", "id": ""}, "geometry": {"type": "Point", "coordinates": [-118.9969347, 35.3667049]}}
{"type": "Feature", "properties": {"hash": "9aa21e40b9e03278", "number": "601", "street": "E 10TH ST", "unit": "", "city": "BAKERSFIELD", "district": "KERN", "region": "CA", "postcode": "93307", "id": ""}, "geometry": {"type": "Point", "coordinates": [-118.9968596, 35.3663852]}}
{"type": "Feature", "properties": {"hash": "df7b2dfb68f5bafb", "number": "601", "street": "E 10TH ST", "unit": "A", "city": "BAKERSFIELD", "district": "KERN", "region": "CA", "postcode": "93307", "id": ""}, "geometry": {"type": "Point", "coordinates": [-118.9969114, 35.3662969]}}
{"type": "Feature", "properties": {"hash": "38a5c63eca708279", "number": "601", "street": "E 10TH ST", "unit": "B", "city": "BAKERSFIELD", "district": "KERN", "region": "CA", "postcode": "93307", "id": ""}, "geometry": {"type": "Point", "coordinates": [-118.9968086, 35.3662969]}}
{"type": "Feature", "properties": {"hash": "0dd410676fac532e", "number": "610", "street": "E 10TH ST", "unit": "", "city": "BAKERSFIELD", "district": "KERN", "region": "CA", "postcode": "93307", "id": ""}, "geometry": {"type": "Point", "coordinates": [-118.9967133, 35.3667058]}}
{"type": "Feature", "properties": {"hash": "269dde812cded7e1", "number": "612", "street": "E 10TH ST", "unit": "", "city": "BAKERSFIELD", "district": "KERN", "region": "CA", "postcode": "93307", "id": ""}, "geometry": {"type": "Point", "coordinates": [-118.996557, 35.3667064]}}
{"type": "Feature", "properties": {"hash": "136cd278fc9ed117", "number": "631", "street": "PICKERELL AVE", "unit": "", "city": "CORCORAN", "district": "", "region": "CA", "postcode": "93212", "id": ""}, "geometry": {"type": "Point", "coordinates": [-119.5539562, 36.1043894]}}
{"type": "Feature", "properties": {"hash": "677e2204419d9525", "number": "2719", "street": "SHERMAN AVE", "unit": "", "city": "CORCORAN", "district": "", "region": "CA", "postcode": "93212", "id": ""}, "geometry": {"type": "Point", "coordinates": [-119.5859899, 36.093801]}}
{"type": "Feature", "properties": {"hash": "2be90cbfaeda1be5", "number": "2600", "street": "OLYMPIC AVE", "unit": "UNIT 1", "city": "CORCORAN", "district": "", "region": "CA", "postcode": "93212", "id": ""}, "geometry": {"type": "Point", "coordinates": [-119.5853009, 36.097183]}}
{"type": "Feature", "properties": {"hash": "d4fefd9764fd475d", "number": "2626", "street": "GABLE AVE", "unit": "", "city": "CORCORAN", "district": "", "region": "CA", "postcode": "93212", "id": ""}, "geometry": {"type": "Point", "coordinates": [-119.5839013, 36.107801]}}
{"type": "Feature", "properties": {"hash": "d82bd659d2836ded", "number": "1040", "street": "BIRCH AVE", "unit": "", "city": "CORCORAN", "district": "", "region": "CA", "postcode": "93212", "id": ""}, "geometry": {"type": "Point", "coordinates": [-119.560732, 36.0858903]}}
{"type": "Feature", "properties": {"hash": "cae335186c5d3f4a", "number": "615", "street": "HALE AVE", "unit": "", "city": "CORCORAN", "district": "", "region": "CA", "postcode": "93212", "id": ""}, "geometry": {"type": "Point", "coordinates": [-119.565147, 36.1044634]}}
{"type": "Feature", "properties": {"hash": "5816db0432f9bd17", "number": "1225", "street": "BRANUM ST", "unit": "", "city": "CORCORAN", "district": "", "region": "CA", "postcode": "93212", "id": ""}, "geometry": {"type": "Point", "coordinates": [-119.5837687, 36.0954967]}}
{"type": "Feature", "properties": {"hash": "39cefa5e2d51ae18", "number": "1120", "street": "HANNA AVE", "unit": "", "city": "CORCORAN", "district": "", "region": "CA", "postcode": "93212", "id": ""}, "geometry": {"type": "Point", "coordinates": [-119.5620367, 36.0999086]}}
{"type": "Feature", "properties": {"hash": "14bacab0078259e4", "number": "1801", "street": "JOSEPHINE AVE", "unit": "", "city": "CORCORAN", "district": "", "region": "CA", "postcode": "93212", "id": ""}, "geometry": {"type": "Point", "coordinates": [-119.5694907, 36.0906591]}}
{"type": "Feature", "properties": {"hash": "ff30d32a117d6ec8", "number": "1809", "street": "JOSEPHINE AVE", "unit": "", "city": "CORCORAN", "district": "", "region": "CA", "postcode": "93212", "id": ""}, "geometry": {"type": "Point", "coordinates": [-119.5694931, 36.0904896]}}
{"type": "Feature", "properties": {"hash": "9bbc17a6b766393d", "number": "1813", "street": "JOSEPHINE AVE", "unit": "", "city": "CORCORAN", "district": "", "region": "CA", "postcode": "93212", "id": ""}, "geometry": {"type": "Point", "coordinates": [-119.5694967, 36.0904039]}}
{"type": "Feature", "properties": {"hash": "bf9341a0653ce5d0", "number": "1937", "street": "DOGWOOD CT", "unit": "", "city": "CORCORAN", "district": "", "region": "CA", "postcode": "93212", "id": ""}, "geometry": {"type": "Point", "coordinates": [-119.5607524, 36.0874107]}}
{"type": "Feature", "properties": {"hash": "5473534608923f0c", "number": "205", "street": "Kingsley Street", "unit": "", "city": "Bridgeport", "district": "", "region": "CA", "postcode": "93517", "id": ""}, "geometry": {"type": "Point", "coordinates": [-119.2289233, 38.2546272]}}
{"type": "Feature", "properties": {"hash": "f705e3e95ae0f539", "number": "892", "street": "White Mountain Estates Road", "unit": "", "city": "White Mountain Estates", "district": "", "region": "CA", "postcode": "93512", "id": ""}, "geometry": {"type": "Point", "coordinates": [-118.3405691, 37.4918205]}}
{"type": "Feature", "properties": {"hash": "1ad9b22244a6776a", "number": "887", "street": "White Mountain Estates Road", "unit": "", "city": "White Mountain Estates", "district": "", "region": "CA", "postcode": "93512", "id": ""}, "geometry": {"type": "Point", "coordinates": [-118.3418471, 37.4918249]}}
{"type": "Feature", "properties": {"hash": "ea1cfde2e9107a86", "number": "2046", "street": "Old Mammoth Road", "unit": "3", "city": "Mammoth Lakes", "district": "", "region": "CA", "postcode": "93546", "id": ""}, "geometry": {"type": "Point", "coordinates": [-118.9860454, 37.6285757]}}
{"type": "Feature", "properties": {"hash": "1d0eb4b150e6219f", "number": "2046", "street": "Old Mammoth Road", "unit": "2", "city": "Mammoth Lakes", "district": "", "region": "CA", "postcode": "93546", "id": ""}, "geometry": {"type": "Point", "coordinates": [-118.9861424, 37.6285425]}}
{"type": "Feature", "properties": {"hash": "e6766c8acdbe3034", "number": "2046", "street": "Old Mammoth Road", "unit": "1", "city": "Mammoth Lakes", "district": "", "region": "CA", "postcode": "93546", "id": ""}, "geometry": {"type": "Point", "coordinates": [-118.986049, 37.6285369]}}
{"type": "Feature", "properties": {"hash": "0e3b7d96febad742", "number": "1989", "street": "Old Mammoth Road", "unit": "A", "city": "Mammoth Lakes", "district": "", "region": "CA", "postcode": "93546", "id": ""}, "geometry": {"type": "Point", "coordinates": [-118.9848932, 37.6282215]}}
{"type": "Feature", "properties": {"hash": "a98dc230f9279cf2", "number": "170", "street": "Woodmen Street", "unit": "1", "city": "Mammoth Lakes", "district": "", "region": "CA", "postcode": "93546", "id": ""}, "geometry": {"type": "Point", "coordinates": [-118.9880086, 37.6257529]}}
{"type": "Feature", "properties": {"hash": "440640895ca778d5", "number": "200", "street": "Azimuth Drive", "unit": "10", "city": "Mammoth Lakes", "district": "", "region": "CA", "postcode": "93546", "id": ""}, "geometry": {"type": "Point", "coordinates": [-118.9692617, 37.6388013]}}
{"type": "Feature", "properties": {"hash": "2eb742c859523345", "number": "200", "street": "Azimuth Drive", "unit": "11", "city": "Mammoth Lakes", "district": "", "region": "CA", "postcode": "93546", "id": ""}, "geometry": {"type": "Point", "coordinates": [-118.9694851, 37.6387904]}}
{"type": "Feature", "properties": {"hash": "37cb51913118fb30", "number": "1989", "street": "Old Mammoth Road", "unit": "C", "city": "Mammoth Lakes", "district": "", "region": "CA", "postcode": "93546", "id": ""}, "geometry": {"type": "Point", "coordinates": [-118.9848029, 37.6280741]}}
{"type": "Feature", "properties": {"hash": "dc6ee90f193bfd34", "number": "1989", "street": "Old Mammoth Road", "unit": "B", "city": "Mammoth Lakes", "district": "", "region": "CA", "postcode": "93546", "id": ""}, "geometry": {"type": "Point", "coordinates": [-118.9848592, 37.6280703]}}
{"type": "Feature", "properties": {"hash": "52159b4fe83be384", "number": "19700", "street": "VICTORIA DRIVE", "unit": "", "city": "Grass Valley", "district": "", "region": "CA", "postcode": "95949", "id": "011670007000"}, "geometry": {"type": "Point", "coordinates": [-121.0391163, 39.0889549]}}
{"type": "Feature", "properties": {"hash": "0b14391040b2d7a6", "number": "15452", "street": "KINGSBURY CIRCLE", "unit": "", "city": "Grass Valley", "district": "", "region": "CA", "postcode": "95949", "id": "023560012000"}, "geometry": {"type": "Point", "coordinates": [-121.0405474, 39.1457578]}}
{"type": "Feature", "properties": {"hash": "5bb48afda476390f", "number": "601", "street": "LONG STREET", "unit": "", "city": "Nevada City", "district": "", "region": "CA", "postcode": "95959", "id": "005490038000"}, "geometry": {"type": "Point", "coordinates": [-121.0155914, 39.254303]}}
{"type": "Feature", "properties": {"hash": "9dc232ac37c07867", "number": "12445", "street": "BANNER LAVA CAP ROAD", "unit": "", "city": "Nevada City", "district": "", "region": "CA", "postcode": "95959", "id": "037312007000"}, "geometry": {"type": "Point", "coordinates": [-120.99086, 39.2399767]}}
{"type": "Feature", "properties": {"hash": "3a1f77cad4fd340d", "number": "126", "street": "JACKRABBIT ROAD", "unit": "", "city": "Grass Valley", "district": "", "region": "CA", "postcode": "95945", "id": "035640002000"}, "geometry": {"type": "Point", "coordinates": [-121.0326374, 39.2330695]}}
{"type": "Feature", "properties": {"hash": "c8d8f554a2013fcc", "number": "10041", "street": "DONNER TRAIL ROAD", "unit": "", "city": "Truckee", "district": "", "region": "CA", "postcode": "96161", "id": "018600010000"}, "geometry": {"type": "Point", "coordinates": [-120.2130106, 39.3265759]}}
{"type": "Feature", "properties": {"hash": "b041fa7e0e52196d", "number": "11570", "street": "DONNER PASS ROAD", "unit": "", "city": "Truckee", "district": "", "region": "CA", "postcode": "96161", "id": "018600010000"}, "geometry": {"type": "Point", "coordinates": [-120.2130106, 39.3265759]}}
{"type": "Feature", "properties": {"hash": "36cc0c0cc265fd4a", "number": "16891", "street": "RED DOG ROAD", "unit": "", "city": "Nevada City", "district": "", "region": "CA", "postcode": "95959", "id": "038491009000"}, "geometry": {"type": "Point", "coordinates": [-120.9199715, 39.229934]}}
{"type": "Feature", "properties": {"hash": "9031479e2d87168d", "number": "14305", "street": "TYROL ROAD", "unit": "", "city": "Truckee", "district": "", "region": "CA", "postcode": "96161", "id": "044160003000"}, "geometry": {"type": "Point", "coordinates": [-120.2433552, 39.3565783]}}
{"type": "Feature", "properties": {"hash": "e0d235f5de9c3294", "number": "23216", "street": "SOILI ROAD", "unit": "", "city": "Grass Valley", "district": "", "region": "CA", "postcode": "95949", "id": "054210032000"}, "geometry": {"type": "Point", "coordinates": [-121.187905, 39.0893732]}}
{"type": "Feature", "properties": {"hash": "6d221533d28a50c0", "number": "13926", "street": "RAMSHORN STREET", "unit": "", "city": "Truckee", "district": "", "region": "CA", "postcode": "96161", "id": "044320005000"}, "geometry": {"type": "Point", "coordinates": [-120.2389941, 39.3457588]}}
{"type": "Feature", "properties": {"hash": "bbfe9b486c29fe2b", "number": "509", "street": "SOUTH AUBURN STREET", "unit": "", "city": "Grass Valley", "district": "", "region": "CA", "postcode": "95945", "id": "029190055000"}, "geometry": {"type": "Point", "coordinates": [-121.0617044, 39.2097748]}}
{"type": "Feature", "properties": {"id": "010859209", "unit": "", "number": "1857", "street": "MADERA AVE", "city": "ONTARIO", "district": "", "region": "CA", "postcode": "91764", "hash": "1cec5bc8d50a01a0"}, "geometry": {"type": "Point", "coordinates": [-117.6192105, 34.0918798]}}
{"type": "Feature", "properties": {"id": "010859208", "unit": "", "number": "1856", "street": "MADERA AVE", "city": "ONTARIO", "district": "", "region": "CA", "postcode": "91764", "hash": "05bc13911424d641"}, "geometry": {"type": "Point", "coordinates": [-117.618705, 34.0918786]}}
{"type": "Feature", "properties": {"id": "010859201", "unit": "", "number": "1857", "street": "MARIN AVE", "city": "ONTARIO", "district": "", "region": "CA", "postcode": "00000", "hash": "36242a979b6c3096"}, "geometry": {"type": "Point", "coordinates": [-117.6183636, 34.0918677]}}
{"type": "Feature", "properties": {"id": "010859124", "unit": "", "number": "1856", "street": "MARIN AVE", "city": "ONTARIO", "district": "", "region": "CA", "postcode": "91764", "hash": "be9c9ff36a060596"}, "geometry": {"type": "Point", "coordinates": [-117.6178391, 34.0918618]}}
{"type": "Feature", "properties": {"id": "010848105", "unit": "", "number": "1668", "street": "E 8TH ST", "city": "ONTARIO", "district": "", "region": "CA", "postcode": "91764", "hash": "285e60ab588a867d"}, "geometry": {"type": "Point", "coordinates": [-117.6174715, 34.0918045]}}
{"type": "Feature", "properties": {"id": "010848129", "unit": "", "number": "0", "street": "8TH ST", "city": "ONTARIO", "district": "", "region": "CA", "postcode": "91764", "hash": "63d0625e008a69f0"}, "geometry": {"type": "Point", "coordinates": [-117.6170237, 34.0918699]}}
{"type": "Feature", "properties": {"id": "010848128", "unit": "", "number": "1722", "street": "E EIGHTH ST", "city": "ONTARIO", "district": "", "region": "CA", "postcode": "91764", "hash": "534221ca1e392bff"}, "geometry": {"type": "Point", "coordinates": [-117.6165059, 34.0912928]}}
{"type": "Feature", "properties": {"id": "010862101", "unit": "", "number": "1855", "street": "N ORANGE AVE", "city": "ONTARIO", "district": "", "region": "CA", "postcode": "91764", "hash": "438bc86884969165"}, "geometry": {"type": "Point", "coordinates": [-117.6153031, 34.0918658]}}
{"type": "Feature", "properties": {"id": "010862227", "unit": "", "number": "1856", "street": "N ORANGE AVE", "city": "ONTARIO", "district": "", "region": "CA", "postcode": "91762", "hash": "39c8be497727fd13"}, "geometry": {"type": "Point", "coordinates": [-117.6147077, 34.0918638]}}
{"type": "Feature", "properties": {"id": "010862210", "unit": "", "number": "1855", "street": "N PLACER AVE", "city": "ONTARIO", "district": "", "region": "CA", "postcode": "91764", "hash": "0502c38797f74d29"}, "geometry": {"type": "Point", "coordinates": [-117.6143342, 34.0918687]}}
{"type": "Feature", "properties": {"id": "010862209", "unit": "", "number": "1856", "street": "N PLACER AVE", "city": "ONTARIO", "district": "", "region": "CA", "postcode": "91761", "hash": "52065d245be93fed"}, "geometry": {"type": "Point", "coordinates": [-117.6137617, 34.0918666]}}
{"type": "Feature", "properties": {"id": "010862238", "unit": "", "number": "1855", "street": "SACRAMENTO AVE", "city": "ONTARIO", "district": "", "region": "CA", "postcode": "91764", "hash": "41956e4bdacb3b2b"}, "geometry": {"type": "Point", "coordinates": [-117.613385, 34.0918648]}}
{"type": "Feature", "properties": {"hash": "58e89cdcb0cc0b49", "number": "2806", "street": "GOBAT AVE", "unit": "", "city": "San Diego", "district": "", "region": "CA", "postcode": "92122", "id": "6700311100"}, "geometry": {"type": "Point", "coordinates": [-117.225948, 32.8483595]}}
{"type": "Feature", "properties": {"hash": "4685c93f0d20220f", "number": "619", "street": "GOETSCHL ST", "unit": "", "city": "San Diego", "district": "", "region": "CA", "postcode": "92114", "id": "5495220400"}, "geometry": {"type": "Point", "coordinates": [-117.0635938, 32.6994667]}}
{"type": "Feature", "properties": {"hash": "f135e92d6e529a1a", "number": "771", "street": "GOETSCHL ST", "unit": "", "city": "San Diego", "district": "", "region": "CA", "postcode": "92114", "id": "5495322200"}, "geometry": {"type": "Point", "coordinates": [-117.0637482, 32.6978923]}}
{"type": "Feature", "properties": {"hash": "da58a499e437c080", "number": "786", "street": "GOETSCHL ST", "unit": "", "city": "San Diego", "district": "", "region": "CA", "postcode": "92114", "id": "5495323700"}, "geometry": {"type": "Point", "coordinates": [-117.0641339, 32.6977589]}}
{"type": "Feature", "properties": {"hash": "db14dc8766bd9aeb", "number": "10445", "street": "MAST BLVD", "unit": "", "city": "Santee", "district": "", "region": "CA", "postcode": "92071", "id": "3812003700"}, "geometry": {"type": "Point", "coordinates": [-116.9694599, 32.8538318]}}
{"type": "Feature", "properties": {"hash": "02d2f86ebe6db3f8", "number": "9425", "street": "MAST BLVD", "unit": "", "city": "Santee", "district": "", "region": "CA", "postcode": "92071", "id": "3801630400"}, "geometry": {"type": "Point", "coordinates": [-116.9968478, 32.8520441]}}
{"type": "Feature", "properties": {"hash": "83a12cd437c8e56f", "number": "9252", "street": "MAST BLVD", "unit": "3", "city": "Santee", "district": "", "region": "CA", "postcode": "92071", "id": "3800312103"}, "geometry": {"type": "Point", "coordinates": [-117.0006012, 32.8510293]}}
{"type": "Feature", "properties": {"hash": "bcf822086cb8fd64", "number": "9228", "street": "MAST BLVD", "unit": "33", "city": "Santee", "district": "", "region": "CA", "postcode": "92071", "id": "3800312133"}, "geometry": {"type": "Point", "coordinates": [-117.0006012, 32.8510293]}}
{"type": "Feature", "properties": {"hash": "d1e813d052addc55", "number": "9799", "street": "MAST BLVD", "unit": "", "city": "Santee", "district": "", "region": "CA", "postcode": "92071", "id": "3805802800"}, "geometry": {"type": "Point", "coordinates": [-116.9846326, 32.8547989]}}
{"type": "Feature", "properties": {"hash": "c7c59e9c03ee691b", "number": "10251", "street": "MAST BLVD", "unit": "A-S", "city": "Santee", "district": "", "region": "CA", "postcode": "92071", "id": "3810322800"}, "geometry": {"type": "Point", "coordinates": [-116.9737084, 32.8547342]}}
{"type": "Feature", "properties": {"hash": "242957ae216fb951", "number": "2501", "street": "GOETZE ST", "unit": "", "city": "San Diego", "district": "", "region": "CA", "postcode": "92139", "id": "5881720700"}, "geometry": {"type": "Point", "coordinates": [-117.0541362, 32.6772185]}}
{"type": "Feature", "properties": {"hash": "ca220f1b74a58581", "number": "2502", "street": "GOETZE ST", "unit": "", "city": "San Diego", "district": "", "region": "CA", "postcode": "92139", "id": "5881730300"}, "geometry": {"type": "Point", "coordinates": [-117.0545179, 32.6771519]}}
{"type": "Feature", "properties": {"hash": "fe270fd1f9373c92", "number": "6766", "street": "SUNRIVER LANE", "unit": "", "city": "Vallejo", "district": "", "region": "CA", "postcode": "94591", "id": "0081671210"}, "geometry": {"type": "Point", "coordinates": [-122.1997473, 38.1268465]}}
{"type": "Feature", "properties": {"hash": "851b6d5c3c03d1d8", "number": "229", "street": "TOLEDO COURT", "unit": "", "city": "Vallejo", "district": "", "region": "CA", "postcode": "94591", "id": "0072281390"}, "geometry": {"type": "Point", "coordinates": [-122.2078044, 38.0977553]}}
{"type": "Feature", "properties": {"hash": "1ef74e688276903f", "number": "148", "street": "SKYWAY", "unit": "", "city": "Vallejo", "district": "", "region": "CA", "postcode": "94591", "id": "0069244050"}, "geometry": {"type": "Point", "coordinates": [-122.2261626, 38.115005]}}
{"type": "Feature", "properties": {"hash": "dea9946fc68dba31", "number": "102", "street": "CAROUSEL DRIVE", "unit": "", "city": "Vallejo", "district": "", "region": "CA", "postcode": "94589", "id": "0068502110"}, "geometry": {"type": "Point", "coordinates": [-122.2252943, 38.1451785]}}
{"type": "Feature", "properties": {"hash": "9981caca147b7081", "number": "159", "street": "ERIN DRIVE", "unit": "", "city": "Vallejo", "district": "", "region": "CA", "postcode": "94589", "id": "0068274160"}, "geometry": {"type": "Point", "coordinates": [-122.2368103, 38.1539266]}}
{"type": "Feature", "properties": {"hash": "bba15fe58e0814d7", "number": "1701", "street": "GATEWAY DRIVE", "unit": "", "city": "Vallejo", "district": "", "region": "CA", "postcode": "94589", "id": "0068533050"}, "geometry": {"type": "Point", "coordinates": [-122.2222682, 38.143626]}}
{"type": "Feature", "properties": {"hash": "2db51bf7fe481c2c", "number": "614", "street": "FALCON DRIVE", "unit": "", "city": "Vallejo", "district": "", "region": "CA", "postcode": "94589", "id": "0068051310"}, "geometry": {"type": "Point", "coordinates": [-122.2513018, 38.1503663]}}
{"type": "Feature", "properties": {"hash": "e9b89a72ed14a4c7", "number": "463", "street": "WHITNEY AVENUE", "unit": "", "city": "Vallejo", "district": "", "region": "CA", "postcode": "94589", "id": "0068451060"}, "geometry": {"type": "Point", "coordinates": [-122.240118, 38.1454611]}}
{"type": "Feature", "properties": {"hash": "4d81b788be950057", "number": "6461", "street": "EAGLE RIDGE DRIVE", "unit": "", "city": "Vallejo", "district": "", "region": "CA", "postcode": "94591", "id": "0081681130"}, "geometry": {"type": "Point", "coordinates": [-122.19582, 38.1275858]}}
{"type": "Feature", "properties": {"hash": "00b9a691bbfd4794", "number": "1301", "street": "MAGAZINE STREET", "unit": "", "city": "Vallejo", "district": "", "region": "CA", "postcode": "94591", "id": "0075044200"}, "geometry": {"type": "Point", "coordinates": [-122.2284025, 38.0855059]}}
{"type": "Feature", "properties": {"hash": "a5c97a1c1d761753", "number": "1000", "street": "GRANT STREET", "unit": "", "city": "Benicia", "district": "", "region": "CA", "postcode": "94510", "id": "0080150170"}, "geometry": {"type": "Point", "coordinates": [-122.1367587, 38.0456096]}}
{"type": "Feature", "properties": {"hash": "facf8d191421ec5d", "number": "9018", "street": "CAMBRIDGE CIRCLE", "unit": "", "city": "Vallejo", "district": "", "region": "CA", "postcode": "94591", "id": "0183064060"}, "geometry": {"type": "Point", "coordinates": [-122.2080166, 38.1337339]}}
{"type": "Feature", "properties": {"hash": "b3ec01769b4334e0", "number": "11985", "street": "North Township Road", "unit": "", "city": "Live Oak", "district": "Sutter County", "region": "CA", "postcode": "95953", "id": ""}, "geometry": {"type": "Point", "coordinates": [-121.6869471, 39.3045881]}}
{"type": "Feature", "properties": {"hash": "da7f0b75d24717c8", "number": "11995", "street": "North Township Road", "unit": "", "city": "Live Oak", "district": "Sutter County", "region": "CA", "postcode": "95953", "id": ""}, "geometry": {"type": "Point", "coordinates": [-121.6869425, 39.3049054]}}
{"type": "Feature", "properties": {"hash": "fa2c8028d6fa1dd5", "number": "11909", "street": "Highway 99", "unit": "", "city": "Gridley", "district": "Sutter County", "region": "CA", "postcode": "95948", "id": ""}, "geometry": {"type": "Point", "coordinates": [-121.6718759, 39.3042584]}}
{"type": "Feature", "properties": {"hash": "aeb97f3a9a60168a", "number": "3079", "street": "Riviera Road", "unit": "", "city": "Gridley", "district": "Sutter County", "region": "CA", "postcode": "95948", "id": ""}, "geometry": {"type": "Point", "coordinates": [-121.6704936, 39.3018894]}}
{"type": "Feature", "properties": {"hash": "d5f9d7dc0677695a", "number": "2989", "street": "Riviera Road", "unit": "", "city": "Gridley", "district": "Sutter County", "region": "CA", "postcode": "95948", "id": ""}, "geometry": {"type": "Point", "coordinates": [-121.6689041, 39.3018494]}}
{"type": "Feature", "properties": {"hash": "15af409dcd1425cf", "number": "11738", "street": "Robinson Road", "unit": "", "city": "Gridley", "district": "Sutter County", "region": "CA", "postcode": "95948", "id": ""}, "geometry": {"type": "Point", "coordinates": [-121.6672136, 39.3020733]}}
{"type": "Feature", "properties": {"hash": "2d6b1df1d548e8d0", "number": "2851", "street": "Riviera Road", "unit": "", "city": "Gridley", "district": "Sutter County", "region": "CA", "postcode": "95948", "id": ""}, "geometry": {"type": "Point", "coordinates": [-121.6663529, 39.3017632]}}
{"type": "Feature", "properties": {"hash": "a8ddf0b3c432538d", "number": "2695", "street": "Riviera Road", "unit": "", "city": "Gridley", "district": "Sutter County", "region": "CA", "postcode": "95948", "id": ""}, "geometry": {"type": "Point", "coordinates": [-121.6635691, 39.3019123]}}
{"type": "Feature", "properties": {"hash": "18323ea870b1298a", "number": "11820", "street": "Larkin Road", "unit": "", "city": "Gridley", "district": "Sutter County", "region": "CA", "postcode": "95948", "id": ""}, "geometry": {"type": "Point", "coordinates": [-121.6603289, 39.3018921]}}
{"type": "Feature", "properties": {"hash": "823dbd832d1e8a36", "number": "12058", "street": "Larkin Road", "unit": "", "city": "Gridley", "district": "Sutter County", "region": "CA", "postcode": "95948", "id": ""}, "geometry": {"type": "Point", "coordinates": [-121.6604419, 39.3051338]}}
{"type": "Feature", "properties": {"hash": "3f198e376cae8cf2", "number": "12007", "street": "Metteer Road", "unit": "", "city": "Live Oak", "district": "Sutter County", "region": "CA", "postcode": "95953", "id": ""}, "geometry": {"type": "Point", "coordinates": [-121.6451108, 39.3048074]}}
{"type": "Feature", "properties": {"hash": "590036ba61428df7", "number": "11761", "street": "Metteer Road", "unit": "", "city": "Live Oak", "district": "Sutter County", "region": "CA", "postcode": "95953", "id": ""}, "geometry": {"type": "Point", "coordinates": [-121.6430075, 39.3028411]}}
