{"type": "Feature", "properties": {"hash": "04c2f3946ccda592", "number": "1172", "street": "VALLEY LN", "unit": "", "city": "UNINCORPORATED", "district": "BOCO", "region": "CO", "postcode": "80302", "id": ""}, "geometry": {"type": "Point", "coordinates": [-105.3069137, 40.0847576]}}
{"type": "Feature", "properties": {"hash": "6edeb464b1a00bb9", "number": "4493", "street": "PALI WAY", "unit": "", "city": "UNINCORPORATED", "district": "BOCO", "region": "CO", "postcode": "80301", "id": ""}, "geometry": {"type": "Point", "coordinates": [-105.1835843, 40.0564029]}}
{"type": "Feature", "properties": {"hash": "db7ab11f1d850127", "number": "1131", "street": "PINE ST", "unit": "", "city": "UNINCORPORATED", "district": "BOCO", "region": "CO", "postcode": "80302", "id": ""}, "geometry": {"type": "Point", "coordinates": [-105.4142401, 40.0633961]}}
{"type": "Feature", "properties": {"hash": "4c60e95dd2982ebc", "number": "228", "street": "ALPINE WAY", "unit": "", "city": "UNINCORPORATED", "district": "BOCO", "region": "CO", "postcode": "80304", "id": ""}, "geometry": {"type": "Point", "coordinates": [-105.3203095, 40.0445687]}}
{"type": "Feature", "properties": {"hash": "2aa8d304176c9a6a", "number": "122", "street": "GROOVER DR", "unit": "", "city": "UNINCORPORATED", "district": "BOCO", "region": "CO", "postcode": "80540", "id": ""}, "geometry": {"type": "Point", "coordinates": [-105.2841013, 40.2315614]}}
{"type": "Feature", "properties": {"hash": "767941e4a28d8eb1", "number": "873", "street": "TIMBER LN", "unit": "", "city": "UNINCORPORATED", "district": "BOCO", "region": "CO", "postcode": "80304", "id": ""}, "geometry": {"type": "Point", "coordinates": [-105.3089001, 40.0442879]}}
{"type": "Feature", "properties": {"hash": "d3edc407fd900e0b", "number": "1381", "street": "CARIBOU RD", "unit": "", "city": "UNINCORPORATED", "district": "BOCO", "region": "CO", "postcode": "80466", "id": ""}, "geometry": {"type": "Point", "coordinates": [-105.5383649, 39.9666814]}}
{"type": "Feature", "properties": {"hash": "7c35d0140d3c2489", "number": "175", "street": "RIDGE RD", "unit": "", "city": "UNINCORPORATED", "district": "BOCO", "region": "CO", "postcode": "80481", "id": ""}, "geometry": {"type": "Point", "coordinates": [-105.4428661, 40.1120594]}}
{"type": "Feature", "properties": {"hash": "cee257a0375cd053", "number": "3036", "street": "RIDGE RD", "unit": "", "city": "UNINCORPORATED", "district": "BOCO", "region": "CO", "postcode": "80466", "id": ""}, "geometry": {"type": "Point", "coordinates": [-105.4593633, 39.9824469]}}
{"type": "Feature", "properties": {"hash": "8071ce04d1941061", "number": "955", "street": "RIDGE RD", "unit": "", "city": "UNINCORPORATED", "district": "BOCO", "region": "CO", "postcode": "80466", "id": ""}, "geometry": {"type": "Point", "coordinates": [-105.491145, 39.9743632]}}
{"type": "Feature", "properties": {"hash": "054546d2535f1f10", "number": "411", "street": "QUARTZ WAY", "unit": "", "city": "UNINCORPORATED", "district": "BOCO", "region": "CO", "postcode": "80540", "id": ""}, "geometry": {"type": "Point", "coordinates": [-105.2801301, 40.2005086]}}
{"type": "Feature", "properties": {"hash": "156f0fca375785aa", "number": "25", "street": "2ND AVE", "unit": "", "city": "UNINCORPORATED", "district": "BOCO", "region": "CO", "postcode": "80510", "id": ""}, "geometry": {"type": "Point", "coordinates": [-105.5248919, 40.193539]}}
{"type": "Feature", "properties": {"hash": "6fe11acb6ea5b0b9", "number": "821", "street": "POPE DR", "unit": "", "city": "ERIE", "district": "BOCO", "region": "CO", "postcode": "80516", "id": ""}, "geometry": {"type": "Point", "coordinates": [-105.0798004, 40.0329206]}}
{"type": "Feature", "properties": {"hash": "9b469261c8014da5", "number": "2386", "street": "SANTA FE DR", "unit": "A", "city": "LONGMONT", "district": "BOCO", "region": "CO", "postcode": "80504", "id": ""}, "geometry": {"type": "Point", "coordinates": [-105.0763844, 40.2015215]}}
{"type": "Feature", "properties": {"hash": "5cd6671c36287585", "number": "120", "street": "BETASSO RD", "unit": "", "city": "UNINCORPORATED", "district": "BOCO", "region": "CO", "postcode": "80302", "id": ""}, "geometry": {"type": "Point", "coordinates": [-105.3488212, 40.0136618]}}
{"type": "Feature", "properties": {"hash": "a33644c79111c748", "number": "61", "street": "BETASSO RD", "unit": "", "city": "UNINCORPORATED", "district": "BOCO", "region": "CO", "postcode": "80302", "id": ""}, "geometry": {"type": "Point", "coordinates": [-105.3513824, 40.0143333]}}
{"type": "Feature", "properties": {"hash": "adcaf2a299226f21", "number": "1250", "street": "ACHY BACK LN", "unit": "", "city": "CANON CITY", "district": "", "region": "CO", "postcode": "81212", "id": ""}, "geometry": {"type": "Point", "coordinates": [-105.4053771, 38.6514255]}}
{"type": "Feature", "properties": {"hash": "b51b4668107cdfb8", "number": "2221", "street": "ACHY BACK LN", "unit": "", "city": "CANON CITY", "district": "", "region": "CO", "postcode": "81212", "id": ""}, "geometry": {"type": "Point", "coordinates": [-105.3878708, 38.648459]}}
{"type": "Feature", "properties": {"hash": "dad1917b277ad1d2", "number": "1820", "street": "ALPINE RANCH CIR", "unit": "", "city": "CANON CITY", "district": "", "region": "CO", "postcode": "81212", "id": ""}, "geometry": {"type": "Point", "coordinates": [-105.4597566, 38.6968562]}}
{"type": "Feature", "properties": {"hash": "26c63b38c7664b85", "number": "401", "street": "ALPINE RANCH CIR", "unit": "", "city": "CANON CITY", "district": "", "region": "CO", "postcode": "81212", "id": ""}, "geometry": {"type": "Point", "coordinates": [-105.4623836, 38.6845051]}}
{"type": "Feature", "properties": {"hash": "87e1820409acb1b0", "number": "969", "street": "ALPINE RANCH CIR", "unit": "", "city": "CANON CITY", "district": "", "region": "CO", "postcode": "81212", "id": ""}, "geometry": {"type": "Point", "coordinates": [-105.467347, 38.694902]}}
{"type": "Feature", "properties": {"hash": "de14fa3cbc66de8d", "number": "350", "street": "ALPINE RANCH CIR", "unit": "", "city": "CANON CITY", "district": "", "region": "CO", "postcode": "81212", "id": ""}, "geometry": {"type": "Point", "coordinates": [-105.4599235, 38.6861047]}}
{"type": "Feature", "properties": {"hash": "e3a9452a8bc879f7", "number": "365", "street": "ACHY BACK LN", "unit": "", "city": "CANON CITY", "district": "", "region": "CO", "postcode": "81212", "id": ""}, "geometry": {"type": "Point", "coordinates": [-105.4123242, 38.6527092]}}
{"type": "Feature", "properties": {"hash": "f9fd83b10ebf2be2", "number": "3003", "street": "N 5TH ST", "unit": "", "city": "CANON CITY", "district": "", "region": "CO", "postcode": "81212", "id": ""}, "geometry": {"type": "Point", "coordinates": [-105.2471396, 38.4688862]}}
{"type": "Feature", "properties": {"hash": "c90fd0dfadc11e30", "number": "3005", "street": "N 5TH ST", "unit": "", "city": "CANON CITY", "district": "", "region": "CO", "postcode": "81212", "id": ""}, "geometry": {"type": "Point", "coordinates": [-105.2471452, 38.4690915]}}
{"type": "Feature", "properties": {"hash": "356d86aa21990680", "number": "2703", "street": "N 5TH ST", "unit": "", "city": "CANON CITY", "district": "", "region": "CO", "postcode": "81212", "id": ""}, "geometry": {"type": "Point", "coordinates": [-105.2468851, 38.4651054]}}
{"type": "Feature", "properties": {"hash": "5c98c4ea099c506d", "number": "3000", "street": "N 5TH ST", "unit": "", "city": "CANON CITY", "district": "", "region": "CO", "postcode": "81212", "id": ""}, "geometry": {"type": "Point", "coordinates": [-105.2464779, 38.4686879]}}
{"type": "Feature", "properties": {"hash": "95d4774ea88d227c", "number": "3002", "street": "N 5TH ST", "unit": "", "city": "CANON CITY", "district": "", "region": "CO", "postcode": "81212", "id": ""}, "geometry": {"type": "Point", "coordinates": [-105.2464875, 38.4689077]}}
{"type": "Feature", "properties": {"hash": "6bbb1b15774663e5", "number": "3004", "street": "N 5TH ST", "unit": "", "city": "CANON CITY", "district": "", "region": "CO", "postcode": "81212", "id": ""}, "geometry": {"type": "Point", "coordinates": [-105.2464963, 38.4691069]}}
{"type": "Feature", "properties": {"hash": "c7bcadead7f6dea7", "number": "3006", "street": "N 5TH ST", "unit": "", "city": "CANON CITY", "district": "", "region": "CO", "postcode": "81212", "id": ""}, "geometry": {"type": "Point", "coordinates": [-105.2465062, 38.4693156]}}
{"type": "Feature", "properties": {"hash": "d4b59e400f81f14a", "number": "3008", "street": "N 5TH ST", "unit": "", "city": "CANON CITY", "district": "", "region": "CO", "postcode": "81212", "id": ""}, "geometry": {"type": "Point", "coordinates": [-105.2465159, 38.469536]}}
{"type": "Feature", "properties": {"hash": "cbccfcd47857ddf9", "number": "3010", "street": "N 5TH ST", "unit": "", "city": "CANON CITY", "district": "", "region": "CO", "postcode": "81212", "id": ""}, "geometry": {"type": "Point", "coordinates": [-105.2465258, 38.4697558]}}
{"type": "Feature", "properties": {"hash": "0fb163315d1feb3d", "number": "1851", "street": "AERIE CT", "unit": "", "city": "FRUITA", "district": "", "region": "CO", "postcode": "81521", "id": ""}, "geometry": {"type": "Point", "coordinates": [-108.7100421, 39.2009365]}}
{"type": "Feature", "properties": {"hash": "cc0604175c2a8e07", "number": "1850", "street": "AERIE CT", "unit": "", "city": "FRUITA", "district": "", "region": "CO", "postcode": "81521", "id": ""}, "geometry": {"type": "Point", "coordinates": [-108.7100215, 39.2021275]}}
{"type": "Feature", "properties": {"hash": "465363c63bbbdd7a", "number": "402", "street": "BIRCHWOOD ST", "unit": "", "city": "FRUITA", "district": "", "region": "CO", "postcode": "81521", "id": ""}, "geometry": {"type": "Point", "coordinates": [-108.7462936, 39.1644913]}}
{"type": "Feature", "properties": {"hash": "2065b46fc41b7d09", "number": "595", "street": "BIRCHWOOD CT", "unit": "", "city": "FRUITA", "district": "", "region": "CO", "postcode": "81521", "id": ""}, "geometry": {"type": "Point", "coordinates": [-108.7458246, 39.1678474]}}
{"type": "Feature", "properties": {"hash": "ec3ec95eac3f1127", "number": "1143", "street": "E  CAROLINA AVE", "unit": "", "city": "FRUITA", "district": "", "region": "CO", "postcode": "81521", "id": ""}, "geometry": {"type": "Point", "coordinates": [-108.7179714, 39.1565048]}}
{"type": "Feature", "properties": {"hash": "19173612e2471303", "number": "1101", "street": "E  CAROLINA AVE", "unit": "", "city": "FRUITA", "district": "", "region": "CO", "postcode": "81521", "id": ""}, "geometry": {"type": "Point", "coordinates": [-108.7193925, 39.1567338]}}
{"type": "Feature", "properties": {"hash": "ce9b5ccc290dc251", "number": "1123", "street": "E  CAROLINA AVE", "unit": "", "city": "FRUITA", "district": "", "region": "CO", "postcode": "81521", "id": ""}, "geometry": {"type": "Point", "coordinates": [-108.7187052, 39.1567243]}}
{"type": "Feature", "properties": {"hash": "1624033a991d19a9", "number": "1103", "street": "E  CAROLINA AVE", "unit": "", "city": "FRUITA", "district": "", "region": "CO", "postcode": "81521", "id": ""}, "geometry": {"type": "Point", "coordinates": [-108.71939, 39.1569484]}}
{"type": "Feature", "properties": {"hash": "b311b2238f507d7e", "number": "1145", "street": "E  CAROLINA AVE", "unit": "", "city": "FRUITA", "district": "", "region": "CO", "postcode": "81521", "id": ""}, "geometry": {"type": "Point", "coordinates": [-108.7179472, 39.156923]}}
{"type": "Feature", "properties": {"hash": "63bdace37ae7c7a0", "number": "1129", "street": "E  CAROLINA AVE", "unit": "", "city": "FRUITA", "district": "", "region": "CO", "postcode": "81521", "id": ""}, "geometry": {"type": "Point", "coordinates": [-108.7187023, 39.1569425]}}
{"type": "Feature", "properties": {"hash": "7a058d50c174bd3b", "number": "1159", "street": "E  CAROLINA AVE", "unit": "", "city": "FRUITA", "district": "", "region": "CO", "postcode": "81521", "id": ""}, "geometry": {"type": "Point", "coordinates": [-108.7176882, 39.1569256]}}
{"type": "Feature", "properties": {"hash": "154e93bdc9ed623b", "number": "1137", "street": "E  CAROLINA AVE", "unit": "", "city": "FRUITA", "district": "", "region": "CO", "postcode": "81521", "id": ""}, "geometry": {"type": "Point", "coordinates": [-108.7182234, 39.1569374]}}
{"type": "Feature", "properties": {"hash": "6c13b0f634b32819", "number": "1146", "street": "E  CAROLINA AVE", "unit": "", "city": "FRUITA", "district": "", "region": "CO", "postcode": "81521", "id": ""}, "geometry": {"type": "Point", "coordinates": [-108.7179546, 39.1556269]}}
{"type": "Feature", "properties": {"hash": "a932576f344dae3f", "number": "1128", "street": "E  CAROLINA AVE", "unit": "", "city": "FRUITA", "district": "", "region": "CO", "postcode": "81521", "id": ""}, "geometry": {"type": "Point", "coordinates": [-108.7186355, 39.155873]}}
{"type": "Feature", "properties": {"hash": "8b66d7360943c767", "number": "1142", "street": "E  CAROLINA AVE", "unit": "", "city": "FRUITA", "district": "", "region": "CO", "postcode": "81521", "id": ""}, "geometry": {"type": "Point", "coordinates": [-108.7179064, 39.1560097]}}
{"type": "Feature", "properties": {"hash": "514a2a23a704e62f", "number": "1124", "street": "E  CAROLINA AVE", "unit": "", "city": "FRUITA", "district": "", "region": "CO", "postcode": "81521", "id": ""}, "geometry": {"type": "Point", "coordinates": [-108.718681, 39.1560565]}}
{"type": "Feature", "properties": {"hash": "3bed396fa2e7ff54", "number": "22829", "street": "Road 18", "unit": "", "city": "Yellow Jacket", "district": "", "region": "CO", "postcode": "81335", "id": ""}, "geometry": {"type": "Point", "coordinates": [-108.7200562, 37.5418188]}}
{"type": "Feature", "properties": {"hash": "e47d7c226b8810cd", "number": "22471", "street": "Road 18", "unit": "", "city": "Yellow Jacket", "district": "", "region": "CO", "postcode": "81335", "id": ""}, "geometry": {"type": "Point", "coordinates": [-108.7201926, 37.5364256]}}
{"type": "Feature", "properties": {"hash": "dd69a19675d0bc3a", "number": "19661", "street": "Road S", "unit": "", "city": "Cortez", "district": "", "region": "CO", "postcode": "81321", "id": ""}, "geometry": {"type": "Point", "coordinates": [-108.6895324, 37.4443176]}}
{"type": "Feature", "properties": {"hash": "aa7360fb98d3805f", "number": "21050", "street": "Road U", "unit": "", "city": "Cortez", "district": "", "region": "CO", "postcode": "81321", "id": ""}, "geometry": {"type": "Point", "coordinates": [-108.6641367, 37.4702159]}}
{"type": "Feature", "properties": {"hash": "83292ace442e0c39", "number": "9740", "street": "Road 43", "unit": "", "city": "Mancos", "district": "", "region": "CO", "postcode": "81328", "id": ""}, "geometry": {"type": "Point", "coordinates": [-108.2612169, 37.3526187]}}
{"type": "Feature", "properties": {"hash": "b5570b291342a557", "number": "26039", "street": "Hwy 491", "unit": "", "city": "Pleasant View", "district": "", "region": "CO", "postcode": "81331", "id": ""}, "geometry": {"type": "Point", "coordinates": [-108.7656646, 37.58883]}}
{"type": "Feature", "properties": {"hash": "3a5d2862dd12db1c", "number": "45500", "street": "Road J.4", "unit": "", "city": "Mancos", "district": "", "region": "CO", "postcode": "81328", "id": ""}, "geometry": {"type": "Point", "coordinates": [-108.221087, 37.3469917]}}
{"type": "Feature", "properties": {"hash": "127a2d1bb3bf54fd", "number": "23405", "street": "Road T", "unit": "", "city": "Dolores", "district": "", "region": "CO", "postcode": "81323", "id": ""}, "geometry": {"type": "Point", "coordinates": [-108.619956, 37.4576016]}}
{"type": "Feature", "properties": {"hash": "517dbac6ce3e00f3", "number": "11521", "street": "Road 33.25", "unit": "", "city": "Mancos", "district": "", "region": "CO", "postcode": "81328", "id": ""}, "geometry": {"type": "Point", "coordinates": [-108.4389374, 37.3784627]}}
{"type": "Feature", "properties": {"hash": "fbb8292c4f2647b9", "number": "14120", "street": "Road 26", "unit": "", "city": "Dolores", "district": "", "region": "CO", "postcode": "81323", "id": ""}, "geometry": {"type": "Point", "coordinates": [-108.5687556, 37.4172924]}}
{"type": "Feature", "properties": {"hash": "8ab6bd03b362785f", "number": "27405", "street": "Road 40", "unit": "", "city": "Dolores", "district": "", "region": "CO", "postcode": "81323", "id": ""}, "geometry": {"type": "Point", "coordinates": [-108.303109, 37.608479]}}
{"type": "Feature", "properties": {"hash": "c011b62aaf71d0b5", "number": "27295", "street": "Road 40", "unit": "", "city": "Dolores", "district": "", "region": "CO", "postcode": "81323", "id": ""}, "geometry": {"type": "Point", "coordinates": [-108.3107889, 37.6066164]}}
{"type": "Feature", "properties": {"hash": "6e08df889f166af2", "number": "26299", "street": "Road 40", "unit": "", "city": "Dolores", "district": "", "region": "CO", "postcode": "81323", "id": ""}, "geometry": {"type": "Point", "coordinates": [-108.319594, 37.5938951]}}
{"type": "Feature", "properties": {"hash": "bb92f220c7391941", "number": "35450", "street": "Road P.4", "unit": "", "city": "Mancos", "district": "", "region": "CO", "postcode": "81328", "id": ""}, "geometry": {"type": "Point", "coordinates": [-108.4005756, 37.4226277]}}
{"type": "Feature", "properties": {"hash": "879f572596c3a708", "number": "35400", "street": "Road P.3", "unit": "", "city": "Mancos", "district": "", "region": "CO", "postcode": "81328", "id": ""}, "geometry": {"type": "Point", "coordinates": [-108.4029656, 37.4201293]}}
{"type": "Feature", "properties": {"hash": "13e21acae4e5d5a4", "number": "22350", "street": "Road D.6", "unit": "", "city": "Cortez", "district": "", "region": "CO", "postcode": "81321", "id": ""}, "geometry": {"type": "Point", "coordinates": [-108.6390903, 37.276624]}}
{"type": "Feature", "properties": {"hash": "fc9d709f9227828d", "number": "1406", "street": "W  17TH ST", "unit": "", "city": "PUEBLO", "district": "", "region": "CO", "postcode": "81003", "id": ""}, "geometry": {"type": "Point", "coordinates": [-104.6266271, 38.2820145]}}
{"type": "Feature", "properties": {"hash": "a4a7c608119c77e7", "number": "411", "street": "E  2ND ST", "unit": "", "city": "PUEBLO", "district": "", "region": "CO", "postcode": "81003", "id": ""}, "geometry": {"type": "Point", "coordinates": [-104.6019114, 38.2691346]}}
{"type": "Feature", "properties": {"hash": "9aa2ac0b066fde5b", "number": "3010", "street": "W  26TH ST", "unit": "", "city": "PUEBLO", "district": "", "region": "CO", "postcode": "81003", "id": ""}, "geometry": {"type": "Point", "coordinates": [-104.6448673, 38.2932748]}}
{"type": "Feature", "properties": {"hash": "29346163546786e9", "number": "2902", "street": "W  25TH ST", "unit": "", "city": "PUEBLO", "district": "", "region": "CO", "postcode": "81003", "id": ""}, "geometry": {"type": "Point", "coordinates": [-104.6432266, 38.2919695]}}
{"type": "Feature", "properties": {"hash": "9ea7484395f55e17", "number": "825", "street": "MIDTOWN CIRCLE DR", "unit": "", "city": "PUEBLO", "district": "", "region": "CO", "postcode": "81003", "id": ""}, "geometry": {"type": "Point", "coordinates": [-104.6218648, 38.2739453]}}
{"type": "Feature", "properties": {"hash": "48fb5f680b653d9a", "number": "1919", "street": "W  20TH ST", "unit": "", "city": "PUEBLO", "district": "", "region": "CO", "postcode": "81003", "id": ""}, "geometry": {"type": "Point", "coordinates": [-104.6394563, 38.285762]}}
{"type": "Feature", "properties": {"hash": "347538262a95d6f9", "number": "4120", "street": "NATURE CENTER RD", "unit": "", "city": "PUEBLO", "district": "", "region": "CO", "postcode": "81003", "id": ""}, "geometry": {"type": "Point", "coordinates": [-104.6653449, 38.2753952]}}
{"type": "Feature", "properties": {"hash": "707956eab5e35b6b", "number": "4130", "street": "NATURE CENTER RD", "unit": "", "city": "PUEBLO", "district": "", "region": "CO", "postcode": "81003", "id": ""}, "geometry": {"type": "Point", "coordinates": [-104.6669109, 38.2746212]}}
{"type": "Feature", "properties": {"hash": "34cec2cc44d72ca9", "number": "3630", "street": "W  12TH ST", "unit": "", "city": "PUEBLO", "district": "", "region": "CO", "postcode": "81003", "id": ""}, "geometry": {"type": "Point", "coordinates": [-104.6689722, 38.2776986]}}
{"type": "Feature", "properties": {"hash": "25a11e2f115d1a99", "number": "3912", "street": "W  11TH ST", "unit": "", "city": "PUEBLO", "district": "", "region": "CO", "postcode": "81003", "id": ""}, "geometry": {"type": "Point", "coordinates": [-104.6738613, 38.2766343]}}
{"type": "Feature", "properties": {"hash": "35a64cac3d5c16d8", "number": "4150", "street": "W  11TH ST", "unit": "", "city": "PUEBLO", "district": "", "region": "CO", "postcode": "81003", "id": ""}, "geometry": {"type": "Point", "coordinates": [-104.6675198, 38.2767547]}}
{"type": "Feature", "properties": {"hash": "4a073c6546581b23", "number": "4100", "street": "NATURE CENTER RD", "unit": "", "city": "PUEBLO", "district": "", "region": "CO", "postcode": "81003", "id": ""}, "geometry": {"type": "Point", "coordinates": [-104.6640265, 38.2745332]}}
{"type": "Feature", "properties": {"hash": "5615a15139cfedd3", "number": "2900", "street": "W  29TH ST", "unit": "", "city": "PUEBLO", "district": "", "region": "CO", "postcode": "81008", "id": ""}, "geometry": {"type": "Point", "coordinates": [-104.6470544, 38.2980182]}}
{"type": "Feature", "properties": {"hash": "070a2383c3143f68", "number": "3005", "street": "W  28TH ST", "unit": "", "city": "PUEBLO", "district": "", "region": "CO", "postcode": "81003", "id": ""}, "geometry": {"type": "Point", "coordinates": [-104.6451756, 38.2964845]}}
{"type": "Feature", "properties": {"hash": "c4504cca32fbe0e5", "number": "1631", "street": "FRANCISCO ST", "unit": "", "city": "PUEBLO", "district": "", "region": "CO", "postcode": "81003", "id": ""}, "geometry": {"type": "Point", "coordinates": [-104.6240134, 38.2823962]}}
{"type": "Feature", "properties": {"hash": "43e185836d86c9f8", "number": "1306", "street": "W  17TH ST", "unit": "", "city": "PUEBLO", "district": "", "region": "CO", "postcode": "81003", "id": ""}, "geometry": {"type": "Point", "coordinates": [-104.6258321, 38.2822278]}}
{"type": "Feature", "properties": {"hash": "91248b4f07cd0a5f", "number": "418", "street": "PTARMIGAN ST", "unit": "", "city": "SEVERANCE", "district": "WELD", "region": "CO", "postcode": "80550", "id": ""}, "geometry": {"type": "Point", "coordinates": [-104.8628697, 40.5163772]}}
{"type": "Feature", "properties": {"hash": "981bee4cd1f86cbe", "number": "413", "street": "PTARMIGAN ST", "unit": "", "city": "SEVERANCE", "district": "WELD", "region": "CO", "postcode": "80550", "id": ""}, "geometry": {"type": "Point", "coordinates": [-104.8633959, 40.5165869]}}
{"type": "Feature", "properties": {"hash": "fcd64cbbaecf4e0e", "number": "417", "street": "PTARMIGAN ST", "unit": "", "city": "SEVERANCE", "district": "WELD", "region": "CO", "postcode": "80550", "id": ""}, "geometry": {"type": "Point", "coordinates": [-104.8635119, 40.5163813]}}
{"type": "Feature", "properties": {"hash": "01817a349fba8dcc", "number": "421", "street": "PTARMIGAN ST", "unit": "", "city": "SEVERANCE", "district": "WELD", "region": "CO", "postcode": "80550", "id": ""}, "geometry": {"type": "Point", "coordinates": [-104.8635623, 40.5161842]}}
{"type": "Feature", "properties": {"hash": "bb329bd66db7d01d", "number": "422", "street": "PTARMIGAN ST", "unit": "", "city": "SEVERANCE", "district": "WELD", "region": "CO", "postcode": "80550", "id": ""}, "geometry": {"type": "Point", "coordinates": [-104.8629373, 40.5162014]}}
{"type": "Feature", "properties": {"hash": "4bc9fb35794bd0df", "number": "605", "street": "PONDEROSA DR", "unit": "", "city": "SEVERANCE", "district": "WELD", "region": "CO", "postcode": "80550", "id": ""}, "geometry": {"type": "Point", "coordinates": [-104.8625813, 40.5162529]}}
{"type": "Feature", "properties": {"hash": "1dbb7a057294f085", "number": "601", "street": "PONDEROSA DR", "unit": "", "city": "SEVERANCE", "district": "WELD", "region": "CO", "postcode": "80550", "id": ""}, "geometry": {"type": "Point", "coordinates": [-104.8623321, 40.5162735]}}
{"type": "Feature", "properties": {"hash": "e1d2df4ce0e074ab", "number": "414", "street": "PTARMIGAN ST", "unit": "", "city": "SEVERANCE", "district": "WELD", "region": "CO", "postcode": "80550", "id": ""}, "geometry": {"type": "Point", "coordinates": [-104.8624897, 40.5168197]}}
{"type": "Feature", "properties": {"hash": "f05fe753e8370bc3", "number": "410", "street": "PTARMIGAN ST", "unit": "", "city": "SEVERANCE", "district": "WELD", "region": "CO", "postcode": "80550", "id": ""}, "geometry": {"type": "Point", "coordinates": [-104.862402, 40.5169877]}}
{"type": "Feature", "properties": {"hash": "9eb49a97b0a6b9a3", "number": "406", "street": "PTARMIGAN ST", "unit": "", "city": "SEVERANCE", "district": "WELD", "region": "CO", "postcode": "80550", "id": ""}, "geometry": {"type": "Point", "coordinates": [-104.8623351, 40.5172217]}}
{"type": "Feature", "properties": {"hash": "2964c574d7ab4058", "number": "402", "street": "PTARMIGAN ST", "unit": "", "city": "SEVERANCE", "district": "WELD", "region": "CO", "postcode": "80550", "id": ""}, "geometry": {"type": "Point", "coordinates": [-104.8623223, 40.5174395]}}
{"type": "Feature", "properties": {"hash": "b246922a6936f592", "number": "322", "street": "PTARMIGAN ST", "unit": "", "city": "SEVERANCE", "district": "WELD", "region": "CO", "postcode": "80550", "id": ""}, "geometry": {"type": "Point", "coordinates": [-104.86232, 40.517682]}}
{"type": "Feature", "properties": {"hash": "fb5b92c9200b883f", "number": "318", "street": "PTARMIGAN ST", "unit": "", "city": "SEVERANCE", "district": "WELD", "region": "CO", "postcode": "80550", "id": ""}, "geometry": {"type": "Point", "coordinates": [-104.8623344, 40.5178712]}}
{"type": "Feature", "properties": {"hash": "ec38d67b9b626a43", "number": "700", "street": "PONDEROSA DR", "unit": "", "city": "SEVERANCE", "district": "WELD", "region": "CO", "postcode": "80550", "id": ""}, "geometry": {"type": "Point", "coordinates": [-104.8650276, 40.5178504]}}
{"type": "Feature", "properties": {"hash": "bcc45945a1532167", "number": "706", "street": "FINCH DR", "unit": "", "city": "SEVERANCE", "district": "WELD", "region": "CO", "postcode": "80550", "id": ""}, "geometry": {"type": "Point", "coordinates": [-104.8642985, 40.5188771]}}
{"type": "Feature", "properties": {"hash": "937e8b21ccdd920a", "number": "704", "street": "FINCH DR", "unit": "", "city": "SEVERANCE", "district": "WELD", "region": "CO", "postcode": "80550", "id": ""}, "geometry": {"type": "Point", "coordinates": [-104.8641927, 40.518872]}}
