{"type": "Feature", "properties": {"hash": "2ffa93664bbea9ce", "number": "435", "street": "FEATHER DR", "unit": "", "city": "NEWARK", "district": "", "region": "DE", "postcode": "19702.0", "id": ""}, "geometry": {"type": "Point", "coordinates": [-75.6820778, 39.6239681]}}
{"type": "Feature", "properties": {"hash": "3bbaeb244aaae3c0", "number": "13", "street": "PROSPECT AVE", "unit": "", "city": "NEWARK", "district": "", "region": "DE", "postcode": "19711.0", "id": ""}, "geometry": {"type": "Point", "coordinates": [-75.753914, 39.6866403]}}
{"type": "Feature", "properties": {"hash": "cfdad7f178eb9884", "number": "4005", "street": "MILL CREEK RD", "unit": "", "city": "HOCKESSIN", "district": "", "region": "DE", "postcode": "19707.0", "id": ""}, "geometry": {"type": "Point", "coordinates": [-75.6863223, 39.7717349]}}
{"type": "Feature", "properties": {"hash": "dbb09d7de6d338e2", "number": "2509", "street": "ST JAMES CHURCH RD", "unit": "", "city": "WILMINGTON", "district": "", "region": "DE", "postcode": "19808.0", "id": ""}, "geometry": {"type": "Point", "coordinates": [-75.6710062, 39.7223364]}}
{"type": "Feature", "properties": {"hash": "823731d179898fc8", "number": "7", "street": "STANDIFORD CT", "unit": "", "city": "WILMINGTON", "district": "", "region": "DE", "postcode": "19804.0", "id": ""}, "geometry": {"type": "Point", "coordinates": [-75.6242826, 39.7160607]}}
{"type": "Feature", "properties": {"hash": "dba9d1c19f511d9e", "number": "550", "street": "S   DUPONT HWY", "unit": "APT 3P", "city": "NEW CASTLE", "district": "", "region": "DE", "postcode": "19720.0", "id": ""}, "geometry": {"type": "Point", "coordinates": [-75.6226904, 39.6422989]}}
{"type": "Feature", "properties": {"hash": "87db3cc77f4f7de2", "number": "1042", "street": "N   DUPONT ST", "unit": "", "city": "WILMINGTON", "district": "", "region": "DE", "postcode": "19805.0", "id": ""}, "geometry": {"type": "Point", "coordinates": [-75.5652392, 39.7536644]}}
{"type": "Feature", "properties": {"hash": "1ef4f0dc10d5ae74", "number": "137", "street": "BUNGALOW AVE", "unit": "", "city": "WILMINGTON", "district": "", "region": "DE", "postcode": "19805.0", "id": ""}, "geometry": {"type": "Point", "coordinates": [-75.6019124, 39.7359794]}}
{"type": "Feature", "properties": {"hash": "ffa18ecac6283234", "number": "407", "street": "ACADEMY ST", "unit": "", "city": "NEWARK", "district": "", "region": "DE", "postcode": "19717.0", "id": ""}, "geometry": {"type": "Point", "coordinates": [-75.7488172, 39.6756603]}}
{"type": "Feature", "properties": {"hash": "74919a48d4b7ddc9", "number": "26", "street": "BASTILLE LOOP", "unit": "", "city": "NEWARK", "district": "", "region": "DE", "postcode": "19702.0", "id": ""}, "geometry": {"type": "Point", "coordinates": [-75.7829869, 39.602128]}}
{"type": "Feature", "properties": {"hash": "a6810b3d7d7bed89", "number": "208", "street": "LINDA LN", "unit": "", "city": "BEAR", "district": "", "region": "DE", "postcode": "19701.0", "id": ""}, "geometry": {"type": "Point", "coordinates": [-75.739306, 39.5909729]}}
{"type": "Feature", "properties": {"hash": "8c3d713fbd761f52", "number": "2711", "street": "W   6TH ST", "unit": "", "city": "WILMINGTON", "district": "", "region": "DE", "postcode": "19805.0", "id": ""}, "geometry": {"type": "Point", "coordinates": [-75.5796452, 39.7541251]}}
{"type": "Feature", "properties": {"hash": "c59dbef0e12e154f", "number": "8201", "street": "GOVERNOR PRINTZ BLVD", "unit": "", "city": "CLAYMONT", "district": "", "region": "DE", "postcode": "19703.0", "id": ""}, "geometry": {"type": "Point", "coordinates": [-75.4607226, 39.7941621]}}
{"type": "Feature", "properties": {"hash": "9008aafb10be1775", "number": "311", "street": "SHAI CIR", "unit": "", "city": "BEAR", "district": "", "region": "DE", "postcode": "19701.0", "id": ""}, "geometry": {"type": "Point", "coordinates": [-75.7337353, 39.5946291]}}
{"type": "Feature", "properties": {"hash": "d5f5d97fdbac43d5", "number": "249", "street": "ACORN DR", "unit": "", "city": "MIDDLETOWN", "district": "", "region": "DE", "postcode": "19709.0", "id": ""}, "geometry": {"type": "Point", "coordinates": [-75.6283438, 39.499387]}}
{"type": "Feature", "properties": {"hash": "8d1e541c97519ff0", "number": "5509", "street": "LIMERIC CIR", "unit": "APT 14", "city": "WILMINGTON", "district": "", "region": "DE", "postcode": "19808.0", "id": ""}, "geometry": {"type": "Point", "coordinates": [-75.6961541, 39.7265322]}}
{"type": "Feature", "properties": {"hash": "884023bceb875284", "number": "31", "street": "BAYLIS ST", "unit": "", "city": "NEW CASTLE", "district": "", "region": "DE", "postcode": "19720.0", "id": ""}, "geometry": {"type": "Point", "coordinates": [-75.6244999, 39.6538879]}}
{"type": "Feature", "properties": {"hash": "65a29eb5f5a3b347", "number": "85", "street": "BUNKER HILL RD", "unit": "", "city": "NEW CASTLE", "district": "", "region": "DE", "postcode": "19720.0", "id": ""}, "geometry": {"type": "Point", "coordinates": [-75.5909756, 39.6700361]}}
{"type": "Feature", "properties": {"hash": "eb6f681eaeaca5cf", "number": "96", "street": "VERSAILLES CT", "unit": "", "city": "NEWARK", "district": "", "region": "DE", "postcode": "19702.0", "id": ""}, "geometry": {"type": "Point", "coordinates": [-75.7817614, 39.6058313]}}
{"type": "Feature", "properties": {"hash": "80573d2fbb5685e7", "number": "2621", "street": "DRAYTON DR", "unit": "", "city": "WILMINGTON", "district": "", "region": "DE", "postcode": "19808.0", "id": ""}, "geometry": {"type": "Point", "coordinates": [-75.6777464, 39.7222038]}}
{"type": "Feature", "properties": {"hash": "6ca468940fe2f266", "number": "151", "street": "PARKER DR", "unit": "", "city": "MIDDLETOWN", "district": "", "region": "DE", "postcode": "19709.0", "id": ""}, "geometry": {"type": "Point", "coordinates": [-75.6610929, 39.5342043]}}
{"type": "Feature", "properties": {"hash": "6defaaef870ca3c3", "number": "17", "street": "FANWOOD DR", "unit": "", "city": "NEW CASTLE", "district": "", "region": "DE", "postcode": "19720.0", "id": ""}, "geometry": {"type": "Point", "coordinates": [-75.6429449, 39.6592276]}}
{"type": "Feature", "properties": {"hash": "2a199f7aace05060", "number": "1370", "street": "LOREWOOD GROVE RD", "unit": "", "city": "MIDDLETOWN", "district": "", "region": "DE", "postcode": "19709.0", "id": ""}, "geometry": {"type": "Point", "coordinates": [-75.7098103, 39.5317752]}}
{"type": "Feature", "properties": {"hash": "019c11a9b6074e5d", "number": "1158", "street": "BEAR CORBITT RD", "unit": "", "city": "BEAR", "district": "", "region": "DE", "postcode": "19701.0", "id": ""}, "geometry": {"type": "Point", "coordinates": [-75.6620955, 39.625661]}}
{"type": "Feature", "properties": {"hash": "4e83985ddf8ec43e", "number": "3611", "street": "OLD CAPITOL TRL", "unit": "UNIT E3", "city": "WILMINGTON", "district": "", "region": "DE", "postcode": "19808.0", "id": ""}, "geometry": {"type": "Point", "coordinates": [-75.6339766, 39.7301888]}}
{"type": "Feature", "properties": {"hash": "eb8d0e333e94f989", "number": "36", "street": "N   CANNON DR", "unit": "", "city": "WILMINGTON", "district": "", "region": "DE", "postcode": "19809.0", "id": ""}, "geometry": {"type": "Point", "coordinates": [-75.5019607, 39.7584579]}}
{"type": "Feature", "properties": {"hash": "e45732320237e256", "number": "428", "street": "ROSENBERGER DR", "unit": "", "city": "MIDDLETOWN", "district": "", "region": "DE", "postcode": "19709.0", "id": ""}, "geometry": {"type": "Point", "coordinates": [-75.7013793, 39.4917129]}}
{"type": "Feature", "properties": {"hash": "64a8cab17d7561b6", "number": "171", "street": "PIANO DR", "unit": "", "city": "NEWARK", "district": "", "region": "DE", "postcode": "19713.0", "id": ""}, "geometry": {"type": "Point", "coordinates": [-75.6937906, 39.6858466]}}
{"type": "Feature", "properties": {"hash": "a6432c52023d1b71", "number": "20", "street": "OLD FARM RD", "unit": "", "city": "NEWARK", "district": "", "region": "DE", "postcode": "19711.0", "id": ""}, "geometry": {"type": "Point", "coordinates": [-75.7291777, 39.7438506]}}
{"type": "Feature", "properties": {"hash": "01acfc78e512f0ae", "number": "926", "street": "KIRKWOOD ST", "unit": "", "city": "WILMINGTON", "district": "", "region": "DE", "postcode": "19801.0", "id": ""}, "geometry": {"type": "Point", "coordinates": [-75.5410954, 39.7423702]}}
{"type": "Feature", "properties": {"hash": "5a83ac908fca943b", "number": "4298", "street": "DUPONT PKY", "unit": "", "city": "TOWNSEND", "district": "", "region": "DE", "postcode": "19734.0", "id": ""}, "geometry": {"type": "Point", "coordinates": [-75.6643044, 39.3775302]}}
{"type": "Feature", "properties": {"hash": "2f38691b1c559a0a", "number": "101", "street": "WESTERN AVE", "unit": "", "city": "WILMINGTON", "district": "", "region": "DE", "postcode": "19805.0", "id": ""}, "geometry": {"type": "Point", "coordinates": [-75.5921879, 39.7385823]}}
{"type": "Feature", "properties": {"hash": "d9abad54cc63a3ea", "number": "7", "street": "GLEN BERNE DR", "unit": "", "city": "WILMINGTON", "district": "", "region": "DE", "postcode": "19804.0", "id": ""}, "geometry": {"type": "Point", "coordinates": [-75.6300079, 39.7166915]}}
{"type": "Feature", "properties": {"hash": "5c8ee8e829c89e35", "number": "505", "street": "STAMFORD DR", "unit": "", "city": "NEWARK", "district": "", "region": "DE", "postcode": "19711.0", "id": ""}, "geometry": {"type": "Point", "coordinates": [-75.7668902, 39.6958881]}}
{"type": "Feature", "properties": {"hash": "4e370e921af931d0", "number": "2712", "street": "ENTERPRISE ST", "unit": "", "city": "WILMINGTON", "district": "", "region": "DE", "postcode": "19802.0", "id": ""}, "geometry": {"type": "Point", "coordinates": [-75.5354434, 39.7563375]}}
{"type": "Feature", "properties": {"hash": "14a1d55d2d74d7b7", "number": "42", "street": "CHESWOLD BLVD", "unit": "APT 2B", "city": "NEWARK", "district": "", "region": "DE", "postcode": "19713.0", "id": ""}, "geometry": {"type": "Point", "coordinates": [-75.6864565, 39.6865908]}}
{"type": "Feature", "properties": {"hash": "b78e044cc90359ae", "number": "108", "street": "BELL CT", "unit": "", "city": "BEAR", "district": "", "region": "DE", "postcode": "19701.0", "id": ""}, "geometry": {"type": "Point", "coordinates": [-75.6663925, 39.6529409]}}
{"type": "Feature", "properties": {"hash": "3e7005cf62a9b9d7", "number": "221", "street": "N   JACKSON ST", "unit": "", "city": "WILMINGTON", "district": "", "region": "DE", "postcode": "19805.0", "id": ""}, "geometry": {"type": "Point", "coordinates": [-75.561938, 39.7432412]}}
{"type": "Feature", "properties": {"hash": "3076e159920df51f", "number": "404", "street": "TOPSFIELD RD", "unit": "", "city": "HOCKESSIN", "district": "", "region": "DE", "postcode": "19707.0", "id": ""}, "geometry": {"type": "Point", "coordinates": [-75.6764524, 39.7644895]}}
{"type": "Feature", "properties": {"hash": "7615508f5f19210e", "number": "203", "street": "BRIGHTON AVE", "unit": "APT B", "city": "WILMINGTON", "district": "", "region": "DE", "postcode": "19805.0", "id": ""}, "geometry": {"type": "Point", "coordinates": [-75.6092501, 39.7357542]}}
{"type": "Feature", "properties": {"hash": "cb0944f0b50a05c2", "number": "112", "street": "ATTIC CT", "unit": "", "city": "WILMINGTON", "district": "", "region": "DE", "postcode": "19808.0", "id": ""}, "geometry": {"type": "Point", "coordinates": [-75.7002754, 39.7435973]}}
{"type": "Feature", "properties": {"hash": "53f02aaed2dc64b8", "number": "137", "street": "CORNWELL DR", "unit": "", "city": "BEAR", "district": "", "region": "DE", "postcode": "19701.0", "id": ""}, "geometry": {"type": "Point", "coordinates": [-75.689361, 39.568625]}}
{"type": "Feature", "properties": {"hash": "986cc3fb4f581c3a", "number": "116", "street": "CLEARBROOK CT", "unit": "", "city": "CLAYMONT", "district": "", "region": "DE", "postcode": "19703.0", "id": ""}, "geometry": {"type": "Point", "coordinates": [-75.4592401, 39.8136616]}}
{"type": "Feature", "properties": {"hash": "4e0e8bbdc14774b3", "number": "119", "street": "REDDEN LN", "unit": "", "city": "MIDDLETOWN", "district": "", "region": "DE", "postcode": "19709.0", "id": ""}, "geometry": {"type": "Point", "coordinates": [-75.7159115, 39.4593967]}}
{"type": "Feature", "properties": {"hash": "a4d7a276adb496ec", "number": "1108", "street": "SANDBURG PL", "unit": "", "city": "NEWARK", "district": "", "region": "DE", "postcode": "19702.0", "id": ""}, "geometry": {"type": "Point", "coordinates": [-75.6627576, 39.6389432]}}
{"type": "Feature", "properties": {"hash": "76e096cd67269c29", "number": "27", "street": "ALBE DR", "unit": "B", "city": "NEWARK", "district": "", "region": "DE", "postcode": "19702.0", "id": ""}, "geometry": {"type": "Point", "coordinates": [-75.7143598, 39.6488244]}}
{"type": "Feature", "properties": {"hash": "87b69fc47490efb1", "number": "2646", "street": "GRENDON DR", "unit": "", "city": "WILMINGTON", "district": "", "region": "DE", "postcode": "19808.0", "id": ""}, "geometry": {"type": "Point", "coordinates": [-75.6783533, 39.7243187]}}
{"type": "Feature", "properties": {"hash": "d3875c1d82635ce1", "number": "2901", "street": "FERRIS RD", "unit": "", "city": "WILMINGTON", "district": "", "region": "DE", "postcode": "19805.0", "id": ""}, "geometry": {"type": "Point", "coordinates": [-75.6196335, 39.7394322]}}
{"type": "Feature", "properties": {"hash": "69905c5997246ea1", "number": "752", "street": "MARIAN DR", "unit": "", "city": "MIDDLETOWN", "district": "", "region": "DE", "postcode": "19709.0", "id": ""}, "geometry": {"type": "Point", "coordinates": [-75.7288155, 39.4545181]}}
{"type": "Feature", "properties": {"hash": "2b891c379907b220", "number": "3409", "street": "SOCIETY DR", "unit": "", "city": "CLAYMONT", "district": "", "region": "DE", "postcode": "19703.0", "id": ""}, "geometry": {"type": "Point", "coordinates": [-75.4593563, 39.8202225]}}
{"type": "Feature", "properties": {"hash": "07cb54f582a7cb3e", "number": "130", "street": "WEBB LN", "unit": "", "city": "NEWARK", "district": "", "region": "DE", "postcode": "19716.0", "id": ""}, "geometry": {"type": "Point", "coordinates": [-75.7357108, 39.6683113]}}
{"type": "Feature", "properties": {"hash": "8fbb560832cc834e", "number": "2216", "street": "LAMOTTE ST", "unit": "", "city": "WILMINGTON", "district": "", "region": "DE", "postcode": "19802.0", "id": ""}, "geometry": {"type": "Point", "coordinates": [-75.5375579, 39.7516447]}}
{"type": "Feature", "properties": {"hash": "b1ea600d94a2ab6b", "number": "932", "street": "PARKSIDE BLVD", "unit": "", "city": "CLAYMONT", "district": "", "region": "DE", "postcode": "19703.0", "id": ""}, "geometry": {"type": "Point", "coordinates": [-75.4801384, 39.7992574]}}
{"type": "Feature", "properties": {"hash": "f8c59c625fdb7355", "number": "115", "street": "S   SIXTH ST", "unit": "", "city": "ODESSA", "district": "", "region": "DE", "postcode": "19730.0", "id": ""}, "geometry": {"type": "Point", "coordinates": [-75.6633322, 39.4562488]}}
{"type": "Feature", "properties": {"hash": "183e023fb11f6716", "number": "130", "street": "CONCORD MALL", "unit": "", "city": "WILMINGTON", "district": "", "region": "DE", "postcode": "19803.0", "id": ""}, "geometry": {"type": "Point", "coordinates": [-75.5433616, 39.8240442]}}
{"type": "Feature", "properties": {"hash": "bb0b75541e55d2b7", "number": "33", "street": "KILLANE ST", "unit": "", "city": "BEAR", "district": "", "region": "DE", "postcode": "19701.0", "id": ""}, "geometry": {"type": "Point", "coordinates": [-75.6963631, 39.6104907]}}
{"type": "Feature", "properties": {"hash": "6df7cbf95f625969", "number": "83", "street": "SCOTTFIELD DR", "unit": "", "city": "NEWARK", "district": "", "region": "DE", "postcode": "19713.0", "id": ""}, "geometry": {"type": "Point", "coordinates": [-75.7234308, 39.6611322]}}
{"type": "Feature", "properties": {"hash": "4b13bbb21da75bcf", "number": "66", "street": "MONTROSE DR", "unit": "", "city": "NEWARK", "district": "", "region": "DE", "postcode": "19713.0", "id": ""}, "geometry": {"type": "Point", "coordinates": [-75.7231469, 39.6703271]}}
{"type": "Feature", "properties": {"hash": "c22a98a7a39d851d", "number": "0", "street": "BRISTOL LN", "unit": "", "city": "NEWARK", "district": "", "region": "DE", "postcode": "19711.0", "id": ""}, "geometry": {"type": "Point", "coordinates": [-75.725604, 39.7507763]}}
{"type": "Feature", "properties": {"hash": "8221e2904638360c", "number": "38", "street": "N   MERRIMENT DR", "unit": "", "city": "NEWARK", "district": "", "region": "DE", "postcode": "19702.0", "id": ""}, "geometry": {"type": "Point", "coordinates": [-75.6663652, 39.6421359]}}
{"type": "Feature", "properties": {"hash": "763a0aa3cebfb8ae", "number": "3", "street": "KINROSS CT", "unit": "", "city": "NEWARK", "district": "", "region": "DE", "postcode": "19711.0", "id": ""}, "geometry": {"type": "Point", "coordinates": [-75.7822306, 39.6736481]}}
{"type": "Feature", "properties": {"hash": "f4250123c53465fd", "number": "9", "street": "KRISTIN RD", "unit": "", "city": "NEW CASTLE", "district": "", "region": "DE", "postcode": "19720.0", "id": ""}, "geometry": {"type": "Point", "coordinates": [-75.5601117, 39.6822891]}}
{"type": "Feature", "properties": {"hash": "36b17a88671c0f77", "number": "1024", "street": "KENDALL RD", "unit": "", "city": "WILMINGTON", "district": "", "region": "DE", "postcode": "19805.0", "id": ""}, "geometry": {"type": "Point", "coordinates": [-75.6158275, 39.745776]}}
{"type": "Feature", "properties": {"hash": "622f0308257e1951", "number": "315", "street": "W   23RD ST", "unit": "", "city": "WILMINGTON", "district": "", "region": "DE", "postcode": "19802.0", "id": ""}, "geometry": {"type": "Point", "coordinates": [-75.5407834, 39.7565247]}}
{"type": "Feature", "properties": {"hash": "85a087e0234421d0", "number": "5", "street": "E   FORTY FIRST ST", "unit": "", "city": "WILMINGTON", "district": "", "region": "DE", "postcode": "19802.0", "id": ""}, "geometry": {"type": "Point", "coordinates": [-75.521674, 39.7602395]}}
{"type": "Feature", "properties": {"hash": "495fa30d530a0c45", "number": "112", "street": "CREEKSIDE CT", "unit": "", "city": "NEWARK", "district": "", "region": "DE", "postcode": "19702.0", "id": ""}, "geometry": {"type": "Point", "coordinates": [-75.6947987, 39.635646]}}
{"type": "Feature", "properties": {"hash": "71beea2fd98ef2d3", "number": "1314", "street": "CYNWYD CLUB DR", "unit": "APT 11", "city": "WILMINGTON", "district": "", "region": "DE", "postcode": "19808.0", "id": ""}, "geometry": {"type": "Point", "coordinates": [-75.6649583, 39.7318492]}}
{"type": "Feature", "properties": {"hash": "91dad6c2f0db96d1", "number": "8601", "street": "PARK CT", "unit": "", "city": "WILMINGTON", "district": "", "region": "DE", "postcode": "19802.0", "id": ""}, "geometry": {"type": "Point", "coordinates": [-75.5126634, 39.7600492]}}
{"type": "Feature", "properties": {"hash": "c7ca41ed404ff2d0", "number": "578", "street": "WHISPERING TRL", "unit": "", "city": "MIDDLETOWN", "district": "", "region": "DE", "postcode": "19709.0", "id": ""}, "geometry": {"type": "Point", "coordinates": [-75.7266095, 39.4666154]}}
{"type": "Feature", "properties": {"hash": "ac455ac533ebaacd", "number": "604", "street": "ASTER CT", "unit": "", "city": "BEAR", "district": "", "region": "DE", "postcode": "19701.0", "id": ""}, "geometry": {"type": "Point", "coordinates": [-75.684067, 39.5924174]}}
{"type": "Feature", "properties": {"hash": "de0b7a770c370f1b", "number": "2602", "street": "ROBERTS LN", "unit": "", "city": "WILMINGTON", "district": "", "region": "DE", "postcode": "19810.0", "id": ""}, "geometry": {"type": "Point", "coordinates": [-75.5217778, 39.8262034]}}
{"type": "Feature", "properties": {"hash": "460b9a4dcdebdd42", "number": "2118", "street": "CAROL DR", "unit": "", "city": "WILMINGTON", "district": "", "region": "DE", "postcode": "19808.0", "id": ""}, "geometry": {"type": "Point", "coordinates": [-75.6820443, 39.7073184]}}
{"type": "Feature", "properties": {"hash": "9ddd3497ee7374aa", "number": "1672", "street": "BRACKENVILLE RD", "unit": "", "city": "HOCKESSIN", "district": "", "region": "DE", "postcode": "19707.0", "id": ""}, "geometry": {"type": "Point", "coordinates": [-75.6958105, 39.7728379]}}
{"type": "Feature", "properties": {"hash": "f3e1886e3f1d24d4", "number": "20", "street": "GLENRICH AVE", "unit": "APT 1", "city": "WILMINGTON", "district": "", "region": "DE", "postcode": "19804.0", "id": ""}, "geometry": {"type": "Point", "coordinates": [-75.5855197, 39.7318214]}}
{"type": "Feature", "properties": {"hash": "53aa9b1f339c754c", "number": "769", "street": "PLUMTREE LN", "unit": "", "city": "CLAYMONT", "district": "", "region": "DE", "postcode": "19703.0", "id": ""}, "geometry": {"type": "Point", "coordinates": [-75.4653684, 39.8165643]}}
{"type": "Feature", "properties": {"hash": "f0053ca38039bf06", "number": "219", "street": "CALLOW PL", "unit": "", "city": "NEW CASTLE", "district": "", "region": "DE", "postcode": "19720.0", "id": ""}, "geometry": {"type": "Point", "coordinates": [-75.6121757, 39.641736]}}
{"type": "Feature", "properties": {"hash": "cede7087bc72c59d", "number": "408", "street": "N   JAMES ST", "unit": "APT 6", "city": "WILMINGTON", "district": "", "region": "DE", "postcode": "19804.0", "id": ""}, "geometry": {"type": "Point", "coordinates": [-75.6116101, 39.7187735]}}
{"type": "Feature", "properties": {"hash": "8faa7c0bec5ca783", "number": "2628", "street": "DARBY DR", "unit": "", "city": "WILMINGTON", "district": "", "region": "DE", "postcode": "19808.0", "id": ""}, "geometry": {"type": "Point", "coordinates": [-75.6537221, 39.7402561]}}
{"type": "Feature", "properties": {"hash": "c23963ca50b9132a", "number": "111", "street": "HARBOR DR", "unit": "APT 7", "city": "CLAYMONT", "district": "", "region": "DE", "postcode": "19703.0", "id": ""}, "geometry": {"type": "Point", "coordinates": [-75.4597132, 39.7948862]}}
{"type": "Feature", "properties": {"hash": "e3bcffdae36f7ac1", "number": "100", "street": "BALTIMORE AVE", "unit": "", "city": "WILMINGTON", "district": "", "region": "DE", "postcode": "19805.0", "id": ""}, "geometry": {"type": "Point", "coordinates": [-75.5888223, 39.7391685]}}
{"type": "Feature", "properties": {"hash": "587e39177783131a", "number": "5", "street": "MACDUFF CT", "unit": "", "city": "NEWARK", "district": "", "region": "DE", "postcode": "19711.0", "id": ""}, "geometry": {"type": "Point", "coordinates": [-75.782607, 39.6742802]}}
{"type": "Feature", "properties": {"hash": "919fdf7aa4588105", "number": "2", "street": "HOLLY OAK DR", "unit": "", "city": "NEWARK", "district": "", "region": "DE", "postcode": "19713.0", "id": ""}, "geometry": {"type": "Point", "coordinates": [-75.7854507, 39.6460812]}}
{"type": "Feature", "properties": {"hash": "2935fddde27f83a5", "number": "19", "street": "ROCKLAND CT", "unit": "", "city": "WILMINGTON", "district": "", "region": "DE", "postcode": "19810.0", "id": ""}, "geometry": {"type": "Point", "coordinates": [-75.4665843, 39.8216678]}}
{"type": "Feature", "properties": {"hash": "2631a248c7bb1dad", "number": "184", "street": "S   OXFORD DR", "unit": "", "city": "NEWARK", "district": "", "region": "DE", "postcode": "19702.0", "id": ""}, "geometry": {"type": "Point", "coordinates": [-75.6940084, 39.622756]}}
{"type": "Feature", "properties": {"hash": "7075b3ff22985562", "number": "1", "street": "STONE BROOK CIR", "unit": "", "city": "HOCKESSIN", "district": "", "region": "DE", "postcode": "19707.0", "id": ""}, "geometry": {"type": "Point", "coordinates": [-75.6894122, 39.7582722]}}
{"type": "Feature", "properties": {"hash": "05c4b1dff57bdcfb", "number": "10", "street": "MEGHAN LN", "unit": "", "city": "BEAR", "district": "", "region": "DE", "postcode": "19701.0", "id": ""}, "geometry": {"type": "Point", "coordinates": [-75.7603086, 39.56101]}}
{"type": "Feature", "properties": {"hash": "f36e54abc418042b", "number": "105", "street": "WEST AVE", "unit": "", "city": "NEW CASTLE", "district": "", "region": "DE", "postcode": "19720.0", "id": ""}, "geometry": {"type": "Point", "coordinates": [-75.5445268, 39.7042345]}}
{"type": "Feature", "properties": {"hash": "5094c5c45bcb3243", "number": "110", "street": "TOWNE ESTATES DR", "unit": "UNIT O2", "city": "WILMINGTON", "district": "", "region": "DE", "postcode": "19805.0", "id": ""}, "geometry": {"type": "Point", "coordinates": [-75.569617, 39.7433756]}}
{"type": "Feature", "properties": {"hash": "703461a7323613ec", "number": "2016", "street": "NAAMANS RD", "unit": "UNIT D10", "city": "WILMINGTON", "district": "", "region": "DE", "postcode": "19810.0", "id": ""}, "geometry": {"type": "Point", "coordinates": [-75.4958803, 39.8233545]}}
{"type": "Feature", "properties": {"hash": "599a66a96def4560", "number": "32", "street": "HOBART DR", "unit": "BLDG B", "city": "NEWARK", "district": "", "region": "DE", "postcode": "19713.0", "id": ""}, "geometry": {"type": "Point", "coordinates": [-75.722247, 39.6787703]}}
{"type": "Feature", "properties": {"hash": "7bb4febbec465de0", "number": "105", "street": "CROSS AVE", "unit": "", "city": "NEW CASTLE", "district": "", "region": "DE", "postcode": "19720.0", "id": ""}, "geometry": {"type": "Point", "coordinates": [-75.5573801, 39.6934939]}}
{"type": "Feature", "properties": {"hash": "9d1b1a98fe907c25", "number": "614", "street": "NORTHSIDE DR", "unit": "", "city": "WILMINGTON", "district": "", "region": "DE", "postcode": "19809.0", "id": ""}, "geometry": {"type": "Point", "coordinates": [-75.5084788, 39.7752569]}}
{"type": "Feature", "properties": {"hash": "5945cacca98f3b3a", "number": "5423", "street": "GOLFVIEW DR", "unit": "C3", "city": "WILMINGTON", "district": "", "region": "DE", "postcode": "19808.0", "id": ""}, "geometry": {"type": "Point", "coordinates": [-75.6944285, 39.7268499]}}
{"type": "Feature", "properties": {"hash": "ad7159e7fdc04fdb", "number": "2642", "street": "DRAYTON DR", "unit": "", "city": "WILMINGTON", "district": "", "region": "DE", "postcode": "19808.0", "id": ""}, "geometry": {"type": "Point", "coordinates": [-75.679587, 39.7231493]}}
{"type": "Feature", "properties": {"hash": "26d203c85d18d0d0", "number": "126", "street": "BUTTONWOOD AVE", "unit": "", "city": "NEW CASTLE", "district": "", "region": "DE", "postcode": "19720.0", "id": ""}, "geometry": {"type": "Point", "coordinates": [-75.5497101, 39.6788861]}}
{"type": "Feature", "properties": {"hash": "7f35fd07fe71bc31", "number": "505", "street": "W   7TH ST", "unit": "", "city": "WILMINGTON", "district": "", "region": "DE", "postcode": "19801.0", "id": ""}, "geometry": {"type": "Point", "coordinates": [-75.553862, 39.7445466]}}
{"type": "Feature", "properties": {"hash": "5e24c5e0dd25b4ac", "number": "5979", "street": "SUMMIT BRIDGE RD", "unit": "", "city": "TOWNSEND", "district": "", "region": "DE", "postcode": "19734.0", "id": ""}, "geometry": {"type": "Point", "coordinates": [-75.6856683, 39.3991402]}}
{"type": "Feature", "properties": {"hash": "1c8e8aeb185519ca", "number": "550", "street": "S   DUPONT HWY", "unit": "APT 45L", "city": "NEW CASTLE", "district": "", "region": "DE", "postcode": "19720.0", "id": ""}, "geometry": {"type": "Point", "coordinates": [-75.6211806, 39.6392858]}}
{"type": "Feature", "properties": {"hash": "f1e486f8e509ad7e", "number": "2601", "street": "KIRKWOOD HWY", "unit": "", "city": "WILMINGTON", "district": "", "region": "DE", "postcode": "19805.0", "id": ""}, "geometry": {"type": "Point", "coordinates": [-75.6142583, 39.7381901]}}
{"type": "Feature", "properties": {"hash": "bca306b023be3ef9", "number": "0", "street": "MARSH RD", "unit": "", "city": "WILMINGTON", "district": "", "region": "DE", "postcode": "19802.0", "id": ""}, "geometry": {"type": "Point", "coordinates": [-75.5286286, 39.743938]}}
