{"type": "Feature", "properties": {"hash": "a3297ca824f0f6fe", "number": "1", "street": "WEST  UNIVERSITY AVENUE", "unit": "", "city": "GAINESVILLE", "district": "ALACHUA", "region": "FL", "postcode": "32601", "id": ""}, "geometry": {"type": "Point", "coordinates": [-82.325203, 29.6517986]}}
{"type": "Feature", "properties": {"hash": "2c86f3d35c821f77", "number": "1", "street": "SOUTHWEST  91ST STREET", "unit": "", "city": "GAINESVILLE", "district": "ALACHUA", "region": "FL", "postcode": "32607", "id": ""}, "geometry": {"type": "Point", "coordinates": [-82.438669, 29.6524728]}}
{"type": "Feature", "properties": {"hash": "e60e551c4079b32d", "number": "1", "street": "SOUTHEAST  14TH STREET", "unit": "", "city": "GAINESVILLE", "district": "ALACHUA", "region": "FL", "postcode": "32641", "id": ""}, "geometry": {"type": "Point", "coordinates": [-82.3071459, 29.6517559]}}
{"type": "Feature", "properties": {"hash": "f8175ca747f14354", "number": "1", "street": "SOUTHEAST  26TH STREET", "unit": "", "city": "GAINESVILLE", "district": "ALACHUA", "region": "FL", "postcode": "32641", "id": ""}, "geometry": {"type": "Point", "coordinates": [-82.2902797, 29.6516448]}}
{"type": "Feature", "properties": {"hash": "971b7a3cbf75136f", "number": "1", "street": "NORTHWEST  10TH AVENUE", "unit": "", "city": "GAINESVILLE", "district": "ALACHUA", "region": "FL", "postcode": "32601", "id": ""}, "geometry": {"type": "Point", "coordinates": [-82.3249285, 29.660819]}}
{"type": "Feature", "properties": {"hash": "274be550fb9d7a5c", "number": "1", "street": "SOUTHEAST  26TH TERRACE", "unit": "", "city": "GAINESVILLE", "district": "ALACHUA", "region": "FL", "postcode": "32641", "id": ""}, "geometry": {"type": "Point", "coordinates": [-82.2896056, 29.6516587]}}
{"type": "Feature", "properties": {"hash": "7a9c1fdade7e9832", "number": "1", "street": "NORTHWEST  91ST STREET", "unit": "", "city": "GAINESVILLE", "district": "ALACHUA", "region": "FL", "postcode": "32607", "id": ""}, "geometry": {"type": "Point", "coordinates": [-82.4381186, 29.6527858]}}
{"type": "Feature", "properties": {"hash": "1f015014982d2e55", "number": "1", "street": "NORTHWEST  13TH STREET", "unit": "", "city": "GAINESVILLE", "district": "ALACHUA", "region": "FL", "postcode": "32601", "id": ""}, "geometry": {"type": "Point", "coordinates": [-82.339198, 29.6522681]}}
{"type": "Feature", "properties": {"hash": "75397bd7bda17325", "number": "2", "street": "SOUTHEAST  26TH STREET", "unit": "", "city": "GAINESVILLE", "district": "ALACHUA", "region": "FL", "postcode": "32641", "id": ""}, "geometry": {"type": "Point", "coordinates": [-82.2906926, 29.6516536]}}
{"type": "Feature", "properties": {"hash": "454b899d77ea0473", "number": "2", "street": "SOUTHEAST  26TH TERRACE", "unit": "", "city": "GAINESVILLE", "district": "ALACHUA", "region": "FL", "postcode": "32641", "id": ""}, "geometry": {"type": "Point", "coordinates": [-82.2900274, 29.6516334]}}
{"type": "Feature", "properties": {"hash": "70b347653d79a4fe", "number": "2", "street": "EAST  UNIVERSITY AVENUE", "unit": "", "city": "GAINESVILLE", "district": "ALACHUA", "region": "FL", "postcode": "32601", "id": ""}, "geometry": {"type": "Point", "coordinates": [-82.3248568, 29.6521021]}}
{"type": "Feature", "properties": {"hash": "a565cb57b67868e6", "number": "2", "street": "NORTHWEST  16TH AVENUE", "unit": "", "city": "GAINESVILLE", "district": "ALACHUA", "region": "FL", "postcode": "32609", "id": ""}, "geometry": {"type": "Point", "coordinates": [-82.3247185, 29.66691]}}
{"type": "Feature", "properties": {"hash": "b6ab7b9aea8ebed7", "number": "2", "street": "NORTHWEST  101ST COURT", "unit": "", "city": "GAINESVILLE", "district": "ALACHUA", "region": "FL", "postcode": "32607", "id": ""}, "geometry": {"type": "Point", "coordinates": [-82.4511699, 29.6527842]}}
{"type": "Feature", "properties": {"hash": "93ee8b22cc91f560", "number": "2", "street": "NORTHWEST  29TH STREET", "unit": "", "city": "GAINESVILLE", "district": "ALACHUA", "region": "FL", "postcode": "32607", "id": ""}, "geometry": {"type": "Point", "coordinates": [-82.3666188, 29.6525123]}}
{"type": "Feature", "properties": {"hash": "2fdde9f5e7af3ab6", "number": "2", "street": "WEST  UNIVERSITY AVENUE", "unit": "", "city": "GAINESVILLE", "district": "ALACHUA", "region": "FL", "postcode": "32601", "id": ""}, "geometry": {"type": "Point", "coordinates": [-82.3252334, 29.6521406]}}
{"type": "Feature", "properties": {"hash": "9fbd3ce8055ce988", "number": "3", "street": "SOUTHWEST  24TH STREET", "unit": "", "city": "GAINESVILLE", "district": "ALACHUA", "region": "FL", "postcode": "32607", "id": ""}, "geometry": {"type": "Point", "coordinates": [-82.3593203, 29.6520395]}}
{"type": "Feature", "properties": {"id": "", "unit": "", "number": "5", "street": "W MEDINAH DR", "city": "HOMOSASSA", "district": "", "region": "FL", "postcode": "34446", "hash": "01757d300c534085"}, "geometry": {"type": "Point", "coordinates": [-82.5314259, 28.7353698]}}
{"type": "Feature", "properties": {"id": "", "unit": "", "number": "47", "street": "GOLFVIEW CT", "city": "HOMOSASSA", "district": "", "region": "FL", "postcode": "34446", "hash": "64182c81f70f5702"}, "geometry": {"type": "Point", "coordinates": [-82.545457, 28.7467719]}}
{"type": "Feature", "properties": {"id": "", "unit": "", "number": "4472", "street": "W GLEN ST", "city": "LECANTO", "district": "", "region": "FL", "postcode": "34461", "hash": "c9382eb90b85aa05"}, "geometry": {"type": "Point", "coordinates": [-82.5078117, 28.7837144]}}
{"type": "Feature", "properties": {"id": "", "unit": "", "number": "6994", "street": "S FINALE PT", "city": "HOMOSASSA", "district": "", "region": "FL", "postcode": "34446", "hash": "ed062f63c99a5756"}, "geometry": {"type": "Point", "coordinates": [-82.5343636, 28.7605448]}}
{"type": "Feature", "properties": {"id": "", "unit": "", "number": "3200", "street": "N TURKEY OAK DR", "city": "CRYSTAL RIVER", "district": "", "region": "FL", "postcode": "34428", "hash": "5d993cf970e90a74"}, "geometry": {"type": "Point", "coordinates": [-82.5703311, 28.9095652]}}
{"type": "Feature", "properties": {"id": "", "unit": "", "number": "6094", "street": "E KING LN", "city": "INVERNESS", "district": "", "region": "FL", "postcode": "34452", "hash": "666623f6a65d55c3"}, "geometry": {"type": "Point", "coordinates": [-82.3336499, 28.8023978]}}
{"type": "Feature", "properties": {"id": "", "unit": "", "number": "6094", "street": "E KING LN", "city": "INVERNESS", "district": "", "region": "FL", "postcode": "34452", "hash": "e6980845a3268d40"}, "geometry": {"type": "Point", "coordinates": [-82.3334027, 28.8024019]}}
{"type": "Feature", "properties": {"id": "", "unit": "219", "number": "2621", "street": "S PEBBLE BROOK DR", "city": "HOMOSASSA", "district": "", "region": "FL", "postcode": "34448", "hash": "3ed4cca8c65ecdfc"}, "geometry": {"type": "Point", "coordinates": [-82.5696604, 28.8237075]}}
{"type": "Feature", "properties": {"id": "", "unit": "", "number": "5598", "street": "E TURKEY TRAIL DR", "city": "HERNANDO", "district": "", "region": "FL", "postcode": "34442", "hash": "4d090abe45316f29"}, "geometry": {"type": "Point", "coordinates": [-82.3416682, 28.9741421]}}
{"type": "Feature", "properties": {"id": "", "unit": "", "number": "6594", "street": "E CHANNEL DR", "city": "HERNANDO", "district": "", "region": "FL", "postcode": "34442", "hash": "2212c0e161d2c474"}, "geometry": {"type": "Point", "coordinates": [-82.325044, 28.9634085]}}
{"type": "Feature", "properties": {"id": "", "unit": "", "number": "304", "street": "W CHASE ST", "city": "HERNANDO", "district": "", "region": "FL", "postcode": "34442", "hash": "003a2c0e289a7010"}, "geometry": {"type": "Point", "coordinates": [-82.4397379, 28.8823458]}}
{"type": "Feature", "properties": {"id": "", "unit": "", "number": "7208", "street": "W SASSER ST", "city": "HOMOSASSA", "district": "", "region": "FL", "postcode": "34446", "hash": "83fca1f49aa6548c"}, "geometry": {"type": "Point", "coordinates": [-82.5534498, 28.7852576]}}
{"type": "Feature", "properties": {"id": "", "unit": "", "number": "10200", "street": "W LARCHWOOD ST", "city": "HOMOSASSA", "district": "", "region": "FL", "postcode": "34448", "hash": "16f9c8dec9f18455"}, "geometry": {"type": "Point", "coordinates": [-82.6029884, 28.7776162]}}
{"type": "Feature", "properties": {"id": "", "unit": "", "number": "8", "street": "CUPANIA CT", "city": "HOMOSASSA", "district": "", "region": "FL", "postcode": "34446", "hash": "cd70473635437d00"}, "geometry": {"type": "Point", "coordinates": [-82.5234989, 28.7507692]}}
{"type": "Feature", "properties": {"id": "", "unit": "", "number": "11428", "street": "W CLUBVIEW DR", "city": "HOMOSASSA", "district": "", "region": "FL", "postcode": "34448", "hash": "104a7415fb27837a"}, "geometry": {"type": "Point", "coordinates": [-82.6228518, 28.7872503]}}
{"type": "Feature", "properties": {"id": "", "unit": "", "number": "11490", "street": "W CLUBVIEW DR", "city": "HOMOSASSA", "district": "", "region": "FL", "postcode": "34448", "hash": "a460eb2b52a37cb3"}, "geometry": {"type": "Point", "coordinates": [-82.6238365, 28.7859039]}}
{"type": "Feature", "properties": {"id": "", "unit": "", "number": "6613", "street": "CANAL AVE", "city": "BUNNELL", "district": "", "region": "FL", "postcode": "32110", "hash": "2828dc3ea89dab32"}, "geometry": {"type": "Point", "coordinates": [-81.4231039, 29.4645333]}}
{"type": "Feature", "properties": {"id": "", "unit": "", "number": "2197", "street": "WATER OAK RD", "city": "BUNNELL", "district": "", "region": "FL", "postcode": "32110", "hash": "732bf77a20c05508"}, "geometry": {"type": "Point", "coordinates": [-81.424952, 29.4526823]}}
{"type": "Feature", "properties": {"id": "", "unit": "", "number": "1908", "street": "BAYBERRY ST", "city": "BUNNELL", "district": "", "region": "FL", "postcode": "32110", "hash": "ec32f6795892bda6"}, "geometry": {"type": "Point", "coordinates": [-81.4240609, 29.4539489]}}
{"type": "Feature", "properties": {"id": "", "unit": "", "number": "1631", "street": "BAYBERRY ST", "city": "BUNNELL", "district": "", "region": "FL", "postcode": "32110", "hash": "91bb95f1a6f76ecf"}, "geometry": {"type": "Point", "coordinates": [-81.4230841, 29.4576322]}}
{"type": "Feature", "properties": {"id": "", "unit": "", "number": "1345", "street": "BAYBERRY ST", "city": "BUNNELL", "district": "", "region": "FL", "postcode": "32110", "hash": "a311eb30d3552dd6"}, "geometry": {"type": "Point", "coordinates": [-81.4229625, 29.461856]}}
{"type": "Feature", "properties": {"id": "", "unit": "", "number": "1117", "street": "ASH ST", "city": "BUNNELL", "district": "", "region": "FL", "postcode": "32110", "hash": "8351f4e508f7067b"}, "geometry": {"type": "Point", "coordinates": [-81.4189192, 29.4647249]}}
{"type": "Feature", "properties": {"id": "", "unit": "", "number": "1083", "street": "BIRCH ST", "city": "BUNNELL", "district": "", "region": "FL", "postcode": "32110", "hash": "487fd18bff6a26b0"}, "geometry": {"type": "Point", "coordinates": [-81.4148843, 29.4652583]}}
{"type": "Feature", "properties": {"id": "", "unit": "", "number": "5871", "street": "CANAL AVE", "city": "BUNNELL", "district": "", "region": "FL", "postcode": "32110", "hash": "11b67054c15aa38f"}, "geometry": {"type": "Point", "coordinates": [-81.4117656, 29.4662739]}}
{"type": "Feature", "properties": {"id": "", "unit": "", "number": "1112", "street": "COTTONWOOD ST", "city": "BUNNELL", "district": "", "region": "FL", "postcode": "32110", "hash": "34d03e480fa9986d"}, "geometry": {"type": "Point", "coordinates": [-81.4076102, 29.464991]}}
{"type": "Feature", "properties": {"id": "", "unit": "", "number": "5814", "street": "MAHOGANY BLVD", "city": "BUNNELL", "district": "", "region": "FL", "postcode": "32110", "hash": "7f96e8547df5086a"}, "geometry": {"type": "Point", "coordinates": [-81.4109039, 29.4600557]}}
{"type": "Feature", "properties": {"id": "", "unit": "", "number": "1636", "street": "GUAVA LN", "city": "BUNNELL", "district": "", "region": "FL", "postcode": "32110", "hash": "275d19c75468b1c4"}, "geometry": {"type": "Point", "coordinates": [-81.4200062, 29.4573042]}}
{"type": "Feature", "properties": {"id": "", "unit": "", "number": "1698", "street": "HOLLY LN", "city": "BUNNELL", "district": "", "region": "FL", "postcode": "32110", "hash": "8eec666c96e090c9"}, "geometry": {"type": "Point", "coordinates": [-81.4179276, 29.456442]}}
{"type": "Feature", "properties": {"id": "", "unit": "", "number": "1963", "street": "HOLLY LN", "city": "BUNNELL", "district": "", "region": "FL", "postcode": "32110", "hash": "a99cc4d10d6e5bc0"}, "geometry": {"type": "Point", "coordinates": [-81.4167736, 29.4526221]}}
{"type": "Feature", "properties": {"id": "", "unit": "", "number": "1823", "street": "LAUREL AVE", "city": "BUNNELL", "district": "", "region": "FL", "postcode": "32110", "hash": "8c1fe66e069c6f0a"}, "geometry": {"type": "Point", "coordinates": [-81.4148739, 29.4547355]}}
{"type": "Feature", "properties": {"id": "", "unit": "", "number": "1572", "street": "LEMON ST", "city": "BUNNELL", "district": "", "region": "FL", "postcode": "32110", "hash": "c346461603fd2997"}, "geometry": {"type": "Point", "coordinates": [-81.4086091, 29.4584801]}}
{"type": "Feature", "properties": {"id": "", "unit": "", "number": "2", "street": "FLARESTONE CT", "city": "PALM COAST", "district": "", "region": "FL", "postcode": "32137", "hash": "bbd2b234ac81903b"}, "geometry": {"type": "Point", "coordinates": [-81.2133363, 29.578671]}}
{"type": "Feature", "properties": {"hash": "3de6c36b2f05809e", "number": "22225", "street": "CROOM RD", "unit": "", "city": "BROOKSVILLE", "district": "", "region": "FL", "postcode": "34601", "id": ""}, "geometry": {"type": "Point", "coordinates": [-82.3657192, 28.5717761]}}
{"type": "Feature", "properties": {"hash": "8c557007f6ff6fa8", "number": "22271", "street": "CROOM RD", "unit": "", "city": "BROOKSVILLE", "district": "", "region": "FL", "postcode": "34601", "id": ""}, "geometry": {"type": "Point", "coordinates": [-82.3640476, 28.5713423]}}
{"type": "Feature", "properties": {"hash": "7e49a52d8968a092", "number": "22227", "street": "CROOM RD", "unit": "", "city": "BROOKSVILLE", "district": "", "region": "FL", "postcode": "34601", "id": ""}, "geometry": {"type": "Point", "coordinates": [-82.3655971, 28.5713394]}}
{"type": "Feature", "properties": {"hash": "de1908ba95addaf4", "number": "9322", "street": "WHEYSTONE DR", "unit": "", "city": "WEBSTER", "district": "", "region": "FL", "postcode": "33597", "id": ""}, "geometry": {"type": "Point", "coordinates": [-82.1783387, 28.5639597]}}
{"type": "Feature", "properties": {"hash": "60147e71ea806e4b", "number": "34219", "street": "MINERAL STONE DR", "unit": "", "city": "WEBSTER", "district": "", "region": "FL", "postcode": "33597", "id": ""}, "geometry": {"type": "Point", "coordinates": [-82.1796076, 28.5599929]}}
{"type": "Feature", "properties": {"hash": "e081c5c7bfd8a543", "number": "25065", "street": "POWELL RD", "unit": "", "city": "BROOKSVILLE", "district": "", "region": "FL", "postcode": "34602", "id": ""}, "geometry": {"type": "Point", "coordinates": [-82.3254065, 28.5011681]}}
{"type": "Feature", "properties": {"hash": "0059a2ac5cddb1ec", "number": "3107", "street": "CLOUDCROFT AVE", "unit": "", "city": "SPRING HILL", "district": "", "region": "FL", "postcode": "34609", "id": ""}, "geometry": {"type": "Point", "coordinates": [-82.499191, 28.47547]}}
{"type": "Feature", "properties": {"hash": "79d61067a43be672", "number": "6807", "street": "E RICHARD DR", "unit": "", "city": "WEEKI WACHEE", "district": "", "region": "FL", "postcode": "34607", "id": ""}, "geometry": {"type": "Point", "coordinates": [-82.6116519, 28.5303751]}}
{"type": "Feature", "properties": {"hash": "5e12fdf0e19067f4", "number": "7053", "street": "LANDOVER BLVD", "unit": "", "city": "SPRING HILL", "district": "", "region": "FL", "postcode": "34608", "id": ""}, "geometry": {"type": "Point", "coordinates": [-82.5159387, 28.5306613]}}
{"type": "Feature", "properties": {"hash": "662d70d340c9f611", "number": "11075", "street": "HEATHROW AVE", "unit": "", "city": "SPRING HILL", "district": "", "region": "FL", "postcode": "34609", "id": ""}, "geometry": {"type": "Point", "coordinates": [-82.5416015, 28.4397619]}}
{"type": "Feature", "properties": {"hash": "69db4a60bd0e8536", "number": "11103", "street": "HEATHROW AVE", "unit": "", "city": "SPRING HILL", "district": "", "region": "FL", "postcode": "34609", "id": ""}, "geometry": {"type": "Point", "coordinates": [-82.5404432, 28.4397589]}}
{"type": "Feature", "properties": {"hash": "b00c1e3a346dcfb4", "number": "11071", "street": "HEATHROW AVE", "unit": "", "city": "SPRING HILL", "district": "", "region": "FL", "postcode": "34609", "id": ""}, "geometry": {"type": "Point", "coordinates": [-82.5417612, 28.4397255]}}
{"type": "Feature", "properties": {"hash": "bd41ce9852c94857", "number": "11251", "street": "HEATHROW AVE", "unit": "", "city": "SPRING HILL", "district": "", "region": "FL", "postcode": "34609", "id": ""}, "geometry": {"type": "Point", "coordinates": [-82.5354937, 28.4397455]}}
{"type": "Feature", "properties": {"hash": "9276f711f06a50d9", "number": "11107", "street": "HEATHROW AVE", "unit": "", "city": "SPRING HILL", "district": "", "region": "FL", "postcode": "34609", "id": ""}, "geometry": {"type": "Point", "coordinates": [-82.5402907, 28.4397269]}}
{"type": "Feature", "properties": {"hash": "ea9e646d877ab84e", "number": "11067", "street": "HEATHROW AVE", "unit": "", "city": "SPRING HILL", "district": "", "region": "FL", "postcode": "34609", "id": ""}, "geometry": {"type": "Point", "coordinates": [-82.5419187, 28.439685]}}
{"type": "Feature", "properties": {"hash": "cfa5da1d84153daf", "number": "3008", "street": "OVERVIEW LN", "unit": "", "city": "SPRING HILL", "district": "", "region": "FL", "postcode": "34608", "id": ""}, "geometry": {"type": "Point", "coordinates": [-82.5586788, 28.4752971]}}
{"type": "Feature", "properties": {"id": "", "unit": "252", "number": "570", "street": "57TH AVE W", "city": "BRADENTON", "district": "MANATEE", "region": "FL", "postcode": "34207", "hash": "f73c4e9a68ed4c9f"}, "geometry": {"type": "Point", "coordinates": [-82.5662678, 27.4400306]}}
{"type": "Feature", "properties": {"id": "", "unit": "1248", "number": "3333", "street": "26TH AVE E", "city": "BRADENTON", "district": "MANATEE", "region": "FL", "postcode": "34208", "hash": "1971fad1eadb6212"}, "geometry": {"type": "Point", "coordinates": [-82.5193004, 27.4805312]}}
{"type": "Feature", "properties": {"id": "", "unit": "", "number": "905", "street": "24TH AVE W", "city": "PALMETTO", "district": "MANATEE", "region": "FL", "postcode": "34221", "hash": "7e6c90cca770ad52"}, "geometry": {"type": "Point", "coordinates": [-82.5935917, 27.5203638]}}
{"type": "Feature", "properties": {"id": "", "unit": "", "number": "2581", "street": "WHITFIELD AVE", "city": "SARASOTA", "district": "MANATEE", "region": "FL", "postcode": "34243", "hash": "54204bd83bfc4868"}, "geometry": {"type": "Point", "coordinates": [-82.5316875, 27.4186946]}}
{"type": "Feature", "properties": {"id": "", "unit": "", "number": "415", "street": "32ND AVE E", "city": "BRADENTON", "district": "MANATEE", "region": "FL", "postcode": "34208", "hash": "466072709505882c"}, "geometry": {"type": "Point", "coordinates": [-82.5598466, 27.4717349]}}
{"type": "Feature", "properties": {"id": "", "unit": "12C", "number": "620", "street": "57TH AVE W", "city": "BRADENTON", "district": "MANATEE", "region": "FL", "postcode": "34207", "hash": "bd18eb3b79c9d454"}, "geometry": {"type": "Point", "coordinates": [-82.5731967, 27.4384894]}}
{"type": "Feature", "properties": {"id": "", "unit": "164", "number": "570", "street": "57TH AVE W", "city": "BRADENTON", "district": "MANATEE", "region": "FL", "postcode": "34207", "hash": "3e4ceddaa83d0bf1"}, "geometry": {"type": "Point", "coordinates": [-82.5666893, 27.4374487]}}
{"type": "Feature", "properties": {"id": "", "unit": "W9", "number": "603", "street": "63RD AVE W", "city": "BRADENTON", "district": "MANATEE", "region": "FL", "postcode": "34207", "hash": "8146a2d0262e78e4"}, "geometry": {"type": "Point", "coordinates": [-82.5696893, 27.4320864]}}
{"type": "Feature", "properties": {"id": "", "unit": "", "number": "5128", "street": "WINDMILL MANOR AVE", "city": "BRADENTON", "district": "MANATEE", "region": "FL", "postcode": "34203", "hash": "d609dd52d11e5904"}, "geometry": {"type": "Point", "coordinates": [-82.4960595, 27.440029]}}
{"type": "Feature", "properties": {"id": "", "unit": "503", "number": "2311", "street": "14TH AVE W", "city": "PALMETTO", "district": "MANATEE", "region": "FL", "postcode": "34221", "hash": "be540b0fae381ced"}, "geometry": {"type": "Point", "coordinates": [-82.5827323, 27.5345758]}}
{"type": "Feature", "properties": {"id": "", "unit": "5C", "number": "620", "street": "57TH AVE W", "city": "BRADENTON", "district": "MANATEE", "region": "FL", "postcode": "34207", "hash": "79eacc2b1849c131"}, "geometry": {"type": "Point", "coordinates": [-82.5732062, 27.4373396]}}
{"type": "Feature", "properties": {"id": "", "unit": "30C", "number": "620", "street": "57TH AVE W", "city": "BRADENTON", "district": "MANATEE", "region": "FL", "postcode": "34207", "hash": "23b91efe27392ab7"}, "geometry": {"type": "Point", "coordinates": [-82.5728067, 27.4399791]}}
{"type": "Feature", "properties": {"id": "", "unit": "", "number": "7710", "street": "115TH AVE E", "city": "PARRISH", "district": "MANATEE", "region": "FL", "postcode": "34219", "hash": "6fea7f9456f53200"}, "geometry": {"type": "Point", "coordinates": [-82.4423006, 27.5845404]}}
{"type": "Feature", "properties": {"id": "", "unit": "32", "number": "1015", "street": "12TH AVE W", "city": "PALMETTO", "district": "MANATEE", "region": "FL", "postcode": "34221", "hash": "8f6c3223b12edabf"}, "geometry": {"type": "Point", "coordinates": [-82.5789166, 27.5218643]}}
{"type": "Feature", "properties": {"id": "", "unit": "", "number": "7607", "street": "49TH AVE E", "city": "BRADENTON", "district": "MANATEE", "region": "FL", "postcode": "34203", "hash": "b811d376e0d3486f"}, "geometry": {"type": "Point", "coordinates": [-82.465869, 27.4522023]}}
{"type": "Feature", "properties": {"id": "", "unit": "", "number": "46", "street": "39TH AVE E", "city": "PALMETTO", "district": "MANATEE", "region": "FL", "postcode": "34221", "hash": "d6a91ce35c653551"}, "geometry": {"type": "Point", "coordinates": [-82.5251208, 27.5745116]}}
{"type": "Feature", "properties": {"hash": "f9b8159a8ac71f5d", "number": "4141", "street": "GULF OF MEXICO DR", "unit": "UNIT 34", "city": "Longboat Key", "district": "", "region": "FL", "postcode": "34228", "id": "AP_12182012_000016"}, "geometry": {"type": "Point", "coordinates": [-82.6415639, 27.3896477]}}
{"type": "Feature", "properties": {"hash": "4fa0607a591279bb", "number": "4141", "street": "GULF OF MEXICO DR", "unit": "UNIT 33", "city": "Longboat Key", "district": "", "region": "FL", "postcode": "34228", "id": "AP_12182012_000017"}, "geometry": {"type": "Point", "coordinates": [-82.6416344, 27.3896006]}}
{"type": "Feature", "properties": {"hash": "973206a447e14dff", "number": "4141", "street": "GULF OF MEXICO DR", "unit": "UNIT 32", "city": "Longboat Key", "district": "", "region": "FL", "postcode": "34228", "id": "AP_12182012_000018"}, "geometry": {"type": "Point", "coordinates": [-82.641734, 27.3895523]}}
{"type": "Feature", "properties": {"hash": "dcad13e533e49a37", "number": "4131", "street": "GULF OF MEXICO DR", "unit": "", "city": "Longboat Key", "district": "", "region": "FL", "postcode": "34228", "id": "AP_12182012_000019"}, "geometry": {"type": "Point", "coordinates": [-82.6414406, 27.3894814]}}
{"type": "Feature", "properties": {"hash": "8c021f1eaa763009", "number": "4141", "street": "GULF OF MEXICO DR", "unit": "UNIT 31", "city": "Longboat Key", "district": "", "region": "FL", "postcode": "34228", "id": "AP_12182012_000020"}, "geometry": {"type": "Point", "coordinates": [-82.641868, 27.3894754]}}
{"type": "Feature", "properties": {"hash": "565d8c97a6593146", "number": "4141", "street": "GULF OF MEXICO DR", "unit": "UNIT 30", "city": "Longboat Key", "district": "", "region": "FL", "postcode": "34228", "id": "AP_12182012_000021"}, "geometry": {"type": "Point", "coordinates": [-82.6419892, 27.3894007]}}
{"type": "Feature", "properties": {"hash": "75c346e15f889a72", "number": "4127", "street": "GULF OF MEXICO DR", "unit": "UNIT 302", "city": "Longboat Key", "district": "", "region": "FL", "postcode": "34228", "id": "AP_12182012_000022"}, "geometry": {"type": "Point", "coordinates": [-82.6416885, 27.3892946]}}
{"type": "Feature", "properties": {"hash": "354fa95a3a4d78a1", "number": "4127", "street": "GULF OF MEXICO DR", "unit": "UNIT 202", "city": "Longboat Key", "district": "", "region": "FL", "postcode": "34228", "id": "AP_12182012_000023"}, "geometry": {"type": "Point", "coordinates": [-82.6416885, 27.3892864]}}
{"type": "Feature", "properties": {"hash": "abb8878fc2352bd1", "number": "4127", "street": "GULF OF MEXICO DR", "unit": "UNIT 102", "city": "Longboat Key", "district": "", "region": "FL", "postcode": "34228", "id": "AP_12182012_000024"}, "geometry": {"type": "Point", "coordinates": [-82.6416884, 27.3892781]}}
{"type": "Feature", "properties": {"hash": "763d3a97dafac62c", "number": "4110", "street": "GULF OF MEXICO DR", "unit": "", "city": "Longboat Key", "district": "", "region": "FL", "postcode": "34228", "id": "AP_12182012_000026"}, "geometry": {"type": "Point", "coordinates": [-82.6403904, 27.3891649]}}
{"type": "Feature", "properties": {"hash": "a4d35c9ca762d3a5", "number": "4127", "street": "GULF OF MEXICO DR", "unit": "UNIT 301", "city": "Longboat Key", "district": "", "region": "FL", "postcode": "34228", "id": "AP_12182012_000027"}, "geometry": {"type": "Point", "coordinates": [-82.6416033, 27.3891525]}}
{"type": "Feature", "properties": {"hash": "b572a2844d550fab", "number": "4127", "street": "GULF OF MEXICO DR", "unit": "UNIT 201", "city": "Longboat Key", "district": "", "region": "FL", "postcode": "34228", "id": "AP_12182012_000028"}, "geometry": {"type": "Point", "coordinates": [-82.6416032, 27.3891442]}}
{"type": "Feature", "properties": {"hash": "5d1a9658d193fac7", "number": "4127", "street": "GULF OF MEXICO DR", "unit": "UNIT 101", "city": "Longboat Key", "district": "", "region": "FL", "postcode": "34228", "id": "AP_12182012_000029"}, "geometry": {"type": "Point", "coordinates": [-82.6416032, 27.389136]}}
{"type": "Feature", "properties": {"hash": "115034c795fc2d07", "number": "4129", "street": "GULF OF MEXICO DR", "unit": "", "city": "Longboat Key", "district": "", "region": "FL", "postcode": "34228", "id": "AP_12182012_000031"}, "geometry": {"type": "Point", "coordinates": [-82.6413778, 27.3890977]}}
{"type": "Feature", "properties": {"hash": "bd7c291e68bc41ee", "number": "4125", "street": "GULF OF MEXICO DR", "unit": "UNIT 303", "city": "Longboat Key", "district": "", "region": "FL", "postcode": "34228", "id": "AP_12182012_000032"}, "geometry": {"type": "Point", "coordinates": [-82.6414525, 27.3889189]}}
{"type": "Feature", "properties": {"hash": "c3814486f45201b4", "number": "4125", "street": "GULF OF MEXICO DR", "unit": "UNIT 202", "city": "Longboat Key", "district": "", "region": "FL", "postcode": "34228", "id": "AP_12182012_000033"}, "geometry": {"type": "Point", "coordinates": [-82.6414524, 27.3889107]}}
