{"type": "Feature", "properties": {"id": "", "unit": "", "number": "1268", "street": "AL ROBERTS RD", "city": "SENOIA", "district": "", "region": "GA", "postcode": "30276", "hash": "470e2e5212330963"}, "geometry": {"type": "Point", "coordinates": [-84.6167221, 33.2256378]}}
{"type": "Feature", "properties": {"id": "", "unit": "", "number": "50", "street": "HILL TOP CIR", "city": "GRANTVILLE", "district": "", "region": "GA", "postcode": "30220", "hash": "ad5af4f1dde43fe5"}, "geometry": {"type": "Point", "coordinates": [-84.8212204, 33.2395006]}}
{"type": "Feature", "properties": {"id": "", "unit": "", "number": "227", "street": "GLAZIER RD", "city": "SENOIA", "district": "", "region": "GA", "postcode": "30276", "hash": "6729cb4a03cbc24c"}, "geometry": {"type": "Point", "coordinates": [-84.5919421, 33.2279662]}}
{"type": "Feature", "properties": {"id": "", "unit": "", "number": "15", "street": "BILL ESTES RD", "city": "SENOIA", "district": "", "region": "GA", "postcode": "30276", "hash": "87b5558dd488cb59"}, "geometry": {"type": "Point", "coordinates": [-84.5773524, 33.2325356]}}
{"type": "Feature", "properties": {"id": "", "unit": "", "number": "1160", "street": "AL ROBERTS RD", "city": "SENOIA", "district": "", "region": "GA", "postcode": "30276", "hash": "352b063c9eebd46b"}, "geometry": {"type": "Point", "coordinates": [-84.6138296, 33.2221535]}}
{"type": "Feature", "properties": {"id": "", "unit": "", "number": "230", "street": "WAGON WHEEL TRL", "city": "SENOIA", "district": "", "region": "GA", "postcode": "30276", "hash": "054a16446b2edc90"}, "geometry": {"type": "Point", "coordinates": [-84.5815329, 33.2906094]}}
{"type": "Feature", "properties": {"id": "", "unit": "", "number": "146", "street": "GLAZIER FARMS DR", "city": "SENOIA", "district": "", "region": "GA", "postcode": "30276", "hash": "162b307f1dc6ac2c"}, "geometry": {"type": "Point", "coordinates": [-84.5970555, 33.2265655]}}
{"type": "Feature", "properties": {"id": "", "unit": "", "number": "315", "street": "WAGON WHEEL TRL", "city": "SENOIA", "district": "", "region": "GA", "postcode": "30276", "hash": "98e378133afaae00"}, "geometry": {"type": "Point", "coordinates": [-84.5828957, 33.288861]}}
{"type": "Feature", "properties": {"id": "", "unit": "", "number": "60", "street": "TINSLEY WAY", "city": "SENOIA", "district": "", "region": "GA", "postcode": "30276", "hash": "13d227ddfa5d1fda"}, "geometry": {"type": "Point", "coordinates": [-84.5395501, 33.2833297]}}
{"type": "Feature", "properties": {"id": "", "unit": "", "number": "1424", "street": "AL ROBERTS RD", "city": "SENOIA", "district": "", "region": "GA", "postcode": "30276", "hash": "5eb0160c37e6826f"}, "geometry": {"type": "Point", "coordinates": [-84.6165508, 33.228792]}}
{"type": "Feature", "properties": {"id": "", "unit": "", "number": "69", "street": "STAFFORD RD", "city": "GRANTVILLE", "district": "", "region": "GA", "postcode": "30220", "hash": "5071fed137442bbb"}, "geometry": {"type": "Point", "coordinates": [-84.8415658, 33.2282242]}}
{"type": "Feature", "properties": {"id": "", "unit": "", "number": "2", "street": "PELHAM CT", "city": "GRANTVILLE", "district": "", "region": "GA", "postcode": "30220", "hash": "8f49402f92174ed5"}, "geometry": {"type": "Point", "coordinates": [-84.8397589, 33.2280459]}}
{"type": "Feature", "properties": {"id": "", "unit": "", "number": "286", "street": "HIGHWAY 85", "city": "HARALSON", "district": "", "region": "GA", "postcode": "30276", "hash": "d8b2d91c0a293136"}, "geometry": {"type": "Point", "coordinates": [-84.5697644, 33.2277087]}}
{"type": "Feature", "properties": {"id": "", "unit": "", "number": "260", "street": "WAGON WHEEL TRL", "city": "SENOIA", "district": "", "region": "GA", "postcode": "30276", "hash": "4c9079eecb0f4c6c"}, "geometry": {"type": "Point", "coordinates": [-84.5815138, 33.2895158]}}
{"type": "Feature", "properties": {"hash": "1555204a1e03bb38", "number": "4880", "street": "Rock Hill Spring Court", "unit": "", "city": "ELLENWOOD", "district": "", "region": "GA", "postcode": "30294", "id": ""}, "geometry": {"type": "Point", "coordinates": [-84.2262579, 33.6442963]}}
{"type": "Feature", "properties": {"hash": "0635b7ace4733d41", "number": "3871", "street": "Busby Mill Court", "unit": "", "city": "ELLENWOOD", "district": "", "region": "GA", "postcode": "30294", "id": ""}, "geometry": {"type": "Point", "coordinates": [-84.2369458, 33.6440903]}}
{"type": "Feature", "properties": {"hash": "a484e3bfb08e78f6", "number": "4828", "street": "Chickadee Lane", "unit": "", "city": "ELLENWOOD", "district": "", "region": "GA", "postcode": "30294", "id": ""}, "geometry": {"type": "Point", "coordinates": [-84.2256974, 33.6346294]}}
{"type": "Feature", "properties": {"hash": "5a5715d9abcecd88", "number": "3816", "street": "Busby Mill Court", "unit": "", "city": "ELLENWOOD", "district": "", "region": "GA", "postcode": "30294", "id": ""}, "geometry": {"type": "Point", "coordinates": [-84.2382647, 33.6449531]}}
{"type": "Feature", "properties": {"hash": "562615334d05526c", "number": "4047", "street": "Lucas Lane", "unit": "", "city": "ELLENWOOD", "district": "", "region": "GA", "postcode": "30294", "id": ""}, "geometry": {"type": "Point", "coordinates": [-84.2244999, 33.6456225]}}
{"type": "Feature", "properties": {"hash": "10788865c46f98a6", "number": "4451", "street": "Cavitt Mill Court", "unit": "", "city": "ELLENWOOD", "district": "", "region": "GA", "postcode": "30294", "id": ""}, "geometry": {"type": "Point", "coordinates": [-84.236282, 33.6445219]}}
{"type": "Feature", "properties": {"hash": "cf90c1d855baca03", "number": "4428", "street": "Cavitt Mill Court", "unit": "", "city": "ELLENWOOD", "district": "", "region": "GA", "postcode": "30294", "id": ""}, "geometry": {"type": "Point", "coordinates": [-84.2358599, 33.6451203]}}
{"type": "Feature", "properties": {"hash": "abda7cefd043c59b", "number": "3762", "street": "Busby Mill Court", "unit": "", "city": "ELLENWOOD", "district": "", "region": "GA", "postcode": "30294", "id": ""}, "geometry": {"type": "Point", "coordinates": [-84.2383292, 33.6434284]}}
{"type": "Feature", "properties": {"hash": "e81514b466cc7470", "number": "4437", "street": "Cavitt Mill Court", "unit": "", "city": "ELLENWOOD", "district": "", "region": "GA", "postcode": "30294", "id": ""}, "geometry": {"type": "Point", "coordinates": [-84.2363763, 33.6449104]}}
{"type": "Feature", "properties": {"hash": "985d1a8cef82ccd2", "number": "4421", "street": "Cavitt Mill Court", "unit": "", "city": "ELLENWOOD", "district": "", "region": "GA", "postcode": "30294", "id": ""}, "geometry": {"type": "Point", "coordinates": [-84.236489, 33.6453286]}}
{"type": "Feature", "properties": {"hash": "b2451f2da7371066", "number": "4413", "street": "Cavitt Mill Court", "unit": "", "city": "ELLENWOOD", "district": "", "region": "GA", "postcode": "30294", "id": ""}, "geometry": {"type": "Point", "coordinates": [-84.2365559, 33.6455742]}}
{"type": "Feature", "properties": {"hash": "70cfbd893e3163ca", "number": "3976", "street": "Yellow Hammer Court", "unit": "", "city": "ELLENWOOD", "district": "", "region": "GA", "postcode": "30294", "id": ""}, "geometry": {"type": "Point", "coordinates": [-84.2250566, 33.6351542]}}
{"type": "Feature", "properties": {"hash": "90be39774c41997d", "number": "4810", "street": "Macy Way", "unit": "", "city": "ELLENWOOD", "district": "", "region": "GA", "postcode": "30294", "id": ""}, "geometry": {"type": "Point", "coordinates": [-84.2253574, 33.6451073]}}
{"type": "Feature", "properties": {"hash": "31f823ba30eb6f37", "number": "3941", "street": "Busby Mill Court", "unit": "", "city": "ELLENWOOD", "district": "", "region": "GA", "postcode": "30294", "id": ""}, "geometry": {"type": "Point", "coordinates": [-84.2350375, 33.6460602]}}
{"type": "Feature", "properties": {"id": "", "unit": "", "number": "477", "street": "BROOKS RD", "city": "BRK", "district": "", "region": "GA", "postcode": "30205", "hash": "8957adb84862c828"}, "geometry": {"type": "Point", "coordinates": [-84.4687544, 33.2589851]}}
{"type": "Feature", "properties": {"id": "", "unit": "", "number": "467", "street": "BROOKS RD", "city": "BRK", "district": "", "region": "GA", "postcode": "30205", "hash": "1d5ac4e50f074984"}, "geometry": {"type": "Point", "coordinates": [-84.4689986, 33.2603628]}}
{"type": "Feature", "properties": {"id": "", "unit": "", "number": "446", "street": "BROOKS RD", "city": "BRK", "district": "", "region": "GA", "postcode": "30205", "hash": "bdf03d5be9f1a384"}, "geometry": {"type": "Point", "coordinates": [-84.4639342, 33.2608244]}}
{"type": "Feature", "properties": {"id": "", "unit": "", "number": "449", "street": "BROOKS RD", "city": "BRK", "district": "", "region": "GA", "postcode": "30205", "hash": "90e7b8c7c432b43f"}, "geometry": {"type": "Point", "coordinates": [-84.4690482, 33.2612653]}}
{"type": "Feature", "properties": {"id": "", "unit": "", "number": "1547", "street": "HIGHWAY 85 CONNECTOR", "city": "BRK", "district": "", "region": "GA", "postcode": "30205", "hash": "1343058aefa77e79"}, "geometry": {"type": "Point", "coordinates": [-84.4912604, 33.2618568]}}
{"type": "Feature", "properties": {"id": "", "unit": "", "number": "442", "street": "BROOKS RD", "city": "BRK", "district": "", "region": "GA", "postcode": "30205", "hash": "f8993abfb60e66cd"}, "geometry": {"type": "Point", "coordinates": [-84.4660005, 33.2620137]}}
{"type": "Feature", "properties": {"id": "", "unit": "", "number": "441", "street": "BROOKS RD", "city": "BRK", "district": "", "region": "GA", "postcode": "30205", "hash": "a20a976e1d21cbee"}, "geometry": {"type": "Point", "coordinates": [-84.4693111, 33.2621903]}}
{"type": "Feature", "properties": {"id": "", "unit": "", "number": "430", "street": "BROOKS RD", "city": "BRK", "district": "", "region": "GA", "postcode": "30205", "hash": "65b03445d9774dee"}, "geometry": {"type": "Point", "coordinates": [-84.4658136, 33.2626807]}}
{"type": "Feature", "properties": {"id": "", "unit": "", "number": "422", "street": "BROOKS RD", "city": "BRK", "district": "", "region": "GA", "postcode": "30205", "hash": "ee918c807e69d4a7"}, "geometry": {"type": "Point", "coordinates": [-84.4656911, 33.2633683]}}
{"type": "Feature", "properties": {"id": "", "unit": "", "number": "415", "street": "BROOKS RD", "city": "BRK", "district": "", "region": "GA", "postcode": "30205", "hash": "ec9730d76455cba8"}, "geometry": {"type": "Point", "coordinates": [-84.4681255, 33.2630025]}}
{"type": "Feature", "properties": {"id": "", "unit": "", "number": "725", "street": "BANKSTOWN RD", "city": "BRK", "district": "", "region": "GA", "postcode": "30205", "hash": "06c248328dc6b0a7"}, "geometry": {"type": "Point", "coordinates": [-84.4922278, 33.2643953]}}
{"type": "Feature", "properties": {"id": "", "unit": "", "number": "715", "street": "BANKSTOWN RD", "city": "BRK", "district": "", "region": "GA", "postcode": "30205", "hash": "cadc12c64dc1f751"}, "geometry": {"type": "Point", "coordinates": [-84.4932614, 33.2650454]}}
{"type": "Feature", "properties": {"id": "", "unit": "", "number": "358", "street": "BROOKS RD", "city": "BRK", "district": "", "region": "GA", "postcode": "30205", "hash": "2f355183e5f319df"}, "geometry": {"type": "Point", "coordinates": [-84.4642574, 33.2666313]}}
{"type": "Feature", "properties": {"id": "", "unit": "", "number": "699", "street": "BANKSTOWN RD", "city": "BRK", "district": "", "region": "GA", "postcode": "30205", "hash": "e2bd8df44b520a8d"}, "geometry": {"type": "Point", "coordinates": [-84.4933996, 33.2664973]}}
{"type": "Feature", "properties": {"id": "", "unit": "", "number": "7541", "street": "Deer Creek Drive", "city": "Union City", "district": "", "region": "GA", "postcode": "30291", "hash": "3c17fa0d06efd681"}, "geometry": {"type": "Point", "coordinates": [-84.5625113, 33.5830823]}}
{"type": "Feature", "properties": {"id": "", "unit": "", "number": "4523", "street": "Ravenwood Place", "city": "Union City", "district": "", "region": "GA", "postcode": "30291", "hash": "5e10fcaf6410db67"}, "geometry": {"type": "Point", "coordinates": [-84.5734714, 33.6000204]}}
{"type": "Feature", "properties": {"id": "", "unit": "", "number": "5381", "street": "Rosewood Place", "city": "Union City", "district": "", "region": "GA", "postcode": "30213", "hash": "77a39d4ae0b4784b"}, "geometry": {"type": "Point", "coordinates": [-84.5986214, 33.6044942]}}
{"type": "Feature", "properties": {"id": "", "unit": "", "number": "2327", "street": "Delowe Drive", "city": "East Point", "district": "", "region": "GA", "postcode": "30344", "hash": "503563e708904542"}, "geometry": {"type": "Point", "coordinates": [-84.4575147, 33.6908315]}}
{"type": "Feature", "properties": {"id": "", "unit": "", "number": "483", "street": "Quailfoot Run", "city": "Fairburn", "district": "", "region": "GA", "postcode": "30213", "hash": "0556cd74097572cc"}, "geometry": {"type": "Point", "coordinates": [-84.6019603, 33.5798576]}}
{"type": "Feature", "properties": {"id": "", "unit": "", "number": "5825", "street": "Dodson Road", "city": "Union City", "district": "", "region": "GA", "postcode": "30213", "hash": "1103e09728fee368"}, "geometry": {"type": "Point", "coordinates": [-84.5835058, 33.5968231]}}
{"type": "Feature", "properties": {"id": "", "unit": "", "number": "8610", "street": "Wilkerson Mill Road", "city": "Chattahoochee Hills", "district": "", "region": "GA", "postcode": "30268", "hash": "35bd433f20997fd8"}, "geometry": {"type": "Point", "coordinates": [-84.6677356, 33.5508775]}}
{"type": "Feature", "properties": {"id": "", "unit": "", "number": "2485", "street": "Village Green Drive", "city": "Fairburn", "district": "", "region": "GA", "postcode": "30213", "hash": "7811334ced812c1c"}, "geometry": {"type": "Point", "coordinates": [-84.5946045, 33.5861468]}}
{"type": "Feature", "properties": {"id": "", "unit": "", "number": "6745", "street": "Tell Road", "city": "Fairburn", "district": "", "region": "GA", "postcode": "30213", "hash": "02d94caf008eedd6"}, "geometry": {"type": "Point", "coordinates": [-84.6095819, 33.575107]}}
{"type": "Feature", "properties": {"id": "", "unit": "", "number": "483", "street": "North Avenue", "city": "Hapeville", "district": "", "region": "GA", "postcode": "30354", "hash": "72f89592767e6a62"}, "geometry": {"type": "Point", "coordinates": [-84.4049425, 33.6654337]}}
{"type": "Feature", "properties": {"id": "", "unit": "", "number": "823", "street": "Virginia Avenue", "city": "Hapeville", "district": "", "region": "GA", "postcode": "30354", "hash": "35dbdde5fb13b319"}, "geometry": {"type": "Point", "coordinates": [-84.4163742, 33.6594132]}}
{"type": "Feature", "properties": {"id": "", "unit": "", "number": "596", "street": "Carlton Road", "city": "Palmetto", "district": "", "region": "GA", "postcode": "30268", "hash": "b86da10e1bbd23ed"}, "geometry": {"type": "Point", "coordinates": [-84.6776364, 33.5292847]}}
{"type": "Feature", "properties": {"id": "", "unit": "", "number": "413", "street": "North  Central Avenue", "city": "Hapeville", "district": "", "region": "GA", "postcode": "30354", "hash": "1ffebb5d61476563"}, "geometry": {"type": "Point", "coordinates": [-84.4024087, 33.6552281]}}
{"type": "Feature", "properties": {"id": "", "unit": "", "number": "3269", "street": "Wheeler Street", "city": "Hapeville", "district": "", "region": "GA", "postcode": "30354", "hash": "3eea61957946d3ea"}, "geometry": {"type": "Point", "coordinates": [-84.4042399, 33.664813]}}
{"type": "Feature", "properties": {"id": "", "unit": "", "number": "3026", "street": "REGAL PARK CT", "city": "DULUTH", "district": "", "region": "GA", "postcode": "30096", "hash": "b6649ee6283dde2b"}, "geometry": {"type": "Point", "coordinates": [-84.1549529, 33.98084]}}
{"type": "Feature", "properties": {"id": "", "unit": "", "number": "2662", "street": "ORIOLE LN", "city": "DULUTH", "district": "", "region": "GA", "postcode": "30096", "hash": "216468fa4bab1529"}, "geometry": {"type": "Point", "coordinates": [-84.1257908, 33.9805572]}}
{"type": "Feature", "properties": {"id": "", "unit": "", "number": "3362", "street": "BLUE JAY DR", "city": "DULUTH", "district": "", "region": "GA", "postcode": "30096", "hash": "c0cc5fd142dd059c"}, "geometry": {"type": "Point", "coordinates": [-84.1397059, 33.9807505]}}
{"type": "Feature", "properties": {"id": "", "unit": "", "number": "3207", "street": "MEADOW LARK DR", "city": "DULUTH", "district": "", "region": "GA", "postcode": "30096", "hash": "b75fd82c981fbc0a"}, "geometry": {"type": "Point", "coordinates": [-84.1317476, 33.9807053]}}
{"type": "Feature", "properties": {"id": "", "unit": "", "number": "3006", "street": "CARDINAL LAKE CIR", "city": "DULUTH", "district": "", "region": "GA", "postcode": "30096", "hash": "a8acc7015baf901c"}, "geometry": {"type": "Point", "coordinates": [-84.1367085, 33.9807154]}}
{"type": "Feature", "properties": {"id": "", "unit": "", "number": "3637", "street": "REGENCY PARK DR", "city": "DULUTH", "district": "", "region": "GA", "postcode": "30096", "hash": "f65641d66bbfddfe"}, "geometry": {"type": "Point", "coordinates": [-84.1528687, 33.9809844]}}
{"type": "Feature", "properties": {"id": "", "unit": "", "number": "2808", "street": "MOCKINGBIRD CIR", "city": "DULUTH", "district": "", "region": "GA", "postcode": "30096", "hash": "89f83ea7a58aab86"}, "geometry": {"type": "Point", "coordinates": [-84.1373285, 33.9808283]}}
{"type": "Feature", "properties": {"id": "", "unit": "", "number": "2921", "street": "CREEK DR", "city": "DULUTH", "district": "", "region": "GA", "postcode": "30096", "hash": "de36bafe024f650f"}, "geometry": {"type": "Point", "coordinates": [-84.1460301, 33.9808227]}}
{"type": "Feature", "properties": {"id": "", "unit": "", "number": "3128", "street": "ROBIN LN", "city": "DULUTH", "district": "", "region": "GA", "postcode": "30096", "hash": "76584d87edade0c1"}, "geometry": {"type": "Point", "coordinates": [-84.1299953, 33.9809288]}}
{"type": "Feature", "properties": {"id": "", "unit": "", "number": "2882", "street": "CREEK DR", "city": "DULUTH", "district": "", "region": "GA", "postcode": "30096", "hash": "f2ff339ac5d1550a"}, "geometry": {"type": "Point", "coordinates": [-84.1433447, 33.9808679]}}
{"type": "Feature", "properties": {"id": "", "unit": "", "number": "2892", "street": "CREEK DR", "city": "DULUTH", "district": "", "region": "GA", "postcode": "30096", "hash": "1f393ba04202ef6a"}, "geometry": {"type": "Point", "coordinates": [-84.1436322, 33.9808647]}}
{"type": "Feature", "properties": {"id": "", "unit": "", "number": "3586", "street": "LORI LN", "city": "DULUTH", "district": "", "region": "GA", "postcode": "30096", "hash": "445cc1625597c853"}, "geometry": {"type": "Point", "coordinates": [-84.1492283, 33.9811298]}}
{"type": "Feature", "properties": {"id": "", "unit": "", "number": "3197", "street": "MEADOW LARK DR", "city": "DULUTH", "district": "", "region": "GA", "postcode": "30096", "hash": "c2466ae65fb74edf"}, "geometry": {"type": "Point", "coordinates": [-84.132064, 33.981118]}}
{"type": "Feature", "properties": {"id": "", "unit": "", "number": "3342", "street": "BLUE JAY DR", "city": "DULUTH", "district": "", "region": "GA", "postcode": "30096", "hash": "4b9e56dad30f576f"}, "geometry": {"type": "Point", "coordinates": [-84.1389145, 33.9810815]}}
{"type": "Feature", "properties": {"hash": "527c92edf9340dc7", "number": "711", "street": "Fourth St", "unit": "", "city": "Augusta", "district": "", "region": "GA", "postcode": "30901", "id": ""}, "geometry": {"type": "Point", "coordinates": [-81.9594851, 33.4662773]}}
{"type": "Feature", "properties": {"hash": "6b867dbdb1a30064", "number": "2048", "street": "Battle Row", "unit": "Unit C", "city": "Augusta", "district": "", "region": "GA", "postcode": "30904", "id": ""}, "geometry": {"type": "Point", "coordinates": [-82.0045228, 33.4812668]}}
{"type": "Feature", "properties": {"hash": "3f8648018f4355d3", "number": "2048", "street": "Battle Row", "unit": "Unit D", "city": "Augusta", "district": "", "region": "GA", "postcode": "30904", "id": ""}, "geometry": {"type": "Point", "coordinates": [-82.0044487, 33.4812335]}}
{"type": "Feature", "properties": {"hash": "464a2e727638b44b", "number": "2048", "street": "Battle Row", "unit": "Unit A", "city": "Augusta", "district": "", "region": "GA", "postcode": "30904", "id": ""}, "geometry": {"type": "Point", "coordinates": [-82.0044148, 33.4810599]}}
{"type": "Feature", "properties": {"hash": "c3be471d5850f91c", "number": "2048", "street": "Battle Row", "unit": "Unit B", "city": "Augusta", "district": "", "region": "GA", "postcode": "30904", "id": ""}, "geometry": {"type": "Point", "coordinates": [-82.004365, 33.4810395]}}
{"type": "Feature", "properties": {"hash": "283a36bf5a2a9ec5", "number": "2627", "street": "Carrington Dr", "unit": "", "city": "Hephzibah", "district": "", "region": "GA", "postcode": "30815", "id": ""}, "geometry": {"type": "Point", "coordinates": [-82.0939764, 33.3723627]}}
{"type": "Feature", "properties": {"hash": "e4fe21ffd37ae2e6", "number": "4584", "street": "Peach Orchard Rd", "unit": "", "city": "Hephzibah", "district": "", "region": "GA", "postcode": "30815", "id": ""}, "geometry": {"type": "Point", "coordinates": [-82.0467341, 33.2835561]}}
{"type": "Feature", "properties": {"hash": "09282e0b8809083f", "number": "4580", "street": "Peach Orchard Rd", "unit": "", "city": "Hephzibah", "district": "", "region": "GA", "postcode": "30815", "id": ""}, "geometry": {"type": "Point", "coordinates": [-82.046757, 33.2839941]}}
{"type": "Feature", "properties": {"hash": "caa4a97fc470ca89", "number": "1552", "street": "Flagler Rd", "unit": "", "city": "Augusta", "district": "", "region": "GA", "postcode": "30909", "id": ""}, "geometry": {"type": "Point", "coordinates": [-82.124896, 33.4531911]}}
{"type": "Feature", "properties": {"hash": "ba4d823b91c65610", "number": "1613", "street": "Doug Barnard Pkwy", "unit": "", "city": "Augusta", "district": "", "region": "GA", "postcode": "30906", "id": ""}, "geometry": {"type": "Point", "coordinates": [-81.9923613, 33.412409]}}
{"type": "Feature", "properties": {"hash": "7cc02787cef1b399", "number": "2702", "street": "Washington Rd", "unit": "", "city": "Augusta", "district": "", "region": "GA", "postcode": "30909", "id": ""}, "geometry": {"type": "Point", "coordinates": [-82.0231984, 33.5083795]}}
{"type": "Feature", "properties": {"hash": "2ff78bd419f063d4", "number": "11", "street": "Valencia Way", "unit": "", "city": "Augusta", "district": "", "region": "GA", "postcode": "30906", "id": ""}, "geometry": {"type": "Point", "coordinates": [-81.9558089, 33.2842516]}}
{"type": "Feature", "properties": {"hash": "5dd444175419532d", "number": "18", "street": "Valencia Way", "unit": "", "city": "Augusta", "district": "", "region": "GA", "postcode": "30906", "id": ""}, "geometry": {"type": "Point", "coordinates": [-81.9527966, 33.2809043]}}
{"type": "Feature", "properties": {"hash": "8302390afa609b63", "number": "3101", "street": "Dandridge Way", "unit": "", "city": "Augusta", "district": "", "region": "GA", "postcode": "30909", "id": ""}, "geometry": {"type": "Point", "coordinates": [-82.1055064, 33.4635593]}}
{"type": "Feature", "properties": {"id": "", "unit": "", "number": "5004", "street": "MUSE RD", "city": "RESACA", "district": "", "region": "GA", "postcode": "30735", "hash": "9a37704e837889ad"}, "geometry": {"type": "Point", "coordinates": [-84.9664617, 34.6212538]}}
{"type": "Feature", "properties": {"id": "", "unit": "", "number": "5038", "street": "MUSE RD", "city": "RESACA", "district": "", "region": "GA", "postcode": "30735", "hash": "ffaf73ae5fc5785b"}, "geometry": {"type": "Point", "coordinates": [-84.9667686, 34.6215555]}}
{"type": "Feature", "properties": {"id": "", "unit": "", "number": "5036", "street": "MUSE RD", "city": "RESACA", "district": "", "region": "GA", "postcode": "30735", "hash": "975f37732a7d2c17"}, "geometry": {"type": "Point", "coordinates": [-84.9673778, 34.6225665]}}
{"type": "Feature", "properties": {"id": "", "unit": "", "number": "5032", "street": "MUSE RD", "city": "RESACA", "district": "", "region": "GA", "postcode": "30735", "hash": "ba2c41d2c4d20ed5"}, "geometry": {"type": "Point", "coordinates": [-84.9678195, 34.623019]}}
{"type": "Feature", "properties": {"id": "", "unit": "", "number": "4950", "street": "MUSE RD", "city": "RESACA", "district": "", "region": "GA", "postcode": "30735", "hash": "83e3b5980c5501cb"}, "geometry": {"type": "Point", "coordinates": [-84.9668033, 34.6248103]}}
{"type": "Feature", "properties": {"id": "", "unit": "", "number": "4951", "street": "MUSE RD", "city": "RESACA", "district": "", "region": "GA", "postcode": "30735", "hash": "b565561b3b7a859c"}, "geometry": {"type": "Point", "coordinates": [-84.9663198, 34.6256649]}}
{"type": "Feature", "properties": {"id": "", "unit": "", "number": "4943", "street": "MUSE RD", "city": "RESACA", "district": "", "region": "GA", "postcode": "30735", "hash": "577247b50b2b8777"}, "geometry": {"type": "Point", "coordinates": [-84.9663228, 34.6258499]}}
{"type": "Feature", "properties": {"id": "", "unit": "", "number": "167", "street": "PAYNE WAY", "city": "RESACA", "district": "", "region": "GA", "postcode": "30735", "hash": "04b392a86b247489"}, "geometry": {"type": "Point", "coordinates": [-84.9673277, 34.6263573]}}
{"type": "Feature", "properties": {"id": "", "unit": "", "number": "159", "street": "PAYNE WAY", "city": "RESACA", "district": "", "region": "GA", "postcode": "30735", "hash": "220214e2670dc26b"}, "geometry": {"type": "Point", "coordinates": [-84.9673623, 34.6261458]}}
{"type": "Feature", "properties": {"id": "", "unit": "", "number": "118", "street": "PAYNE WAY", "city": "RESACA", "district": "", "region": "GA", "postcode": "30735", "hash": "fade1d5dcdede017"}, "geometry": {"type": "Point", "coordinates": [-84.9667597, 34.6262284]}}
{"type": "Feature", "properties": {"id": "", "unit": "", "number": "117", "street": "PAYNE WAY", "city": "RESACA", "district": "", "region": "GA", "postcode": "30735", "hash": "a653cb559c85e919"}, "geometry": {"type": "Point", "coordinates": [-84.9665456, 34.6259543]}}
{"type": "Feature", "properties": {"id": "", "unit": "", "number": "4930", "street": "MUSE RD", "city": "RESACA", "district": "", "region": "GA", "postcode": "30735", "hash": "0cb1dd04a79a69a8"}, "geometry": {"type": "Point", "coordinates": [-84.9662248, 34.6265189]}}
{"type": "Feature", "properties": {"id": "", "unit": "", "number": "4937", "street": "MUSE RD", "city": "RESACA", "district": "", "region": "GA", "postcode": "30735", "hash": "a8a1597782520d91"}, "geometry": {"type": "Point", "coordinates": [-84.9660709, 34.6262381]}}
{"type": "Feature", "properties": {"id": "", "unit": "", "number": "4927", "street": "MUSE RD", "city": "RESACA", "district": "", "region": "GA", "postcode": "30735", "hash": "3d4f3cc9d2b39d71"}, "geometry": {"type": "Point", "coordinates": [-84.9657392, 34.6268505]}}
