{"type": "Feature", "properties": {"id": "", "unit": "1051 50th Street Dr", "number": "1051", "street": "50th Street Dr", "city": "La Porte City", "district": "Benton", "region": "IA", "postcode": "50651-8804", "hash": "11154b8b25a2849a"}, "geometry": {"type": "Point", "coordinates": [-92.287919, 42.290809]}}
{"type": "Feature", "properties": {"id": "", "unit": "5073 15th Avenue Dr", "number": "5073", "street": "15th Avenue Dr", "city": "La Porte City", "district": "Benton", "region": "IA", "postcode": "50651-9000", "hash": "d84d1a161aabe4f7"}, "geometry": {"type": "Point", "coordinates": [-92.1862842, 42.2869869]}}
{"type": "Feature", "properties": {"hash": "9fbf91ee6e0a2e4a", "number": "505", "street": "COUNTY AVE", "unit": "", "city": "Sheldahl", "district": "Boone", "region": "IA", "postcode": "50243", "id": ""}, "geometry": {"type": "Point", "coordinates": [-93.698763, 41.8635557]}}
{"type": "Feature", "properties": {"hash": "9917537607e5209b", "number": "501", "street": "COUNTY AVE", "unit": "", "city": "Sheldahl", "district": "Boone", "region": "IA", "postcode": "50243", "id": ""}, "geometry": {"type": "Point", "coordinates": [-93.6982103, 41.8635591]}}
{"type": "Feature", "properties": {"id": "", "unit": "1763 Marquis Rd", "number": "1763", "street": "Marquis Rd", "city": "Janesville", "district": "Bremer", "region": "IA", "postcode": "50647-9749", "hash": "edd7abfc2302bc3c"}, "geometry": {"type": "Point", "coordinates": [-92.4023534, 42.6423382]}}
{"type": "Feature", "properties": {"id": "", "unit": "2761 Larrabee Ave", "number": "2761", "street": "Larrabee Ave", "city": "Denver", "district": "Bremer", "region": "IA", "postcode": "50622-1067", "hash": "b579726a5391b73a"}, "geometry": {"type": "Point", "coordinates": [-92.3372857, 42.6468582]}}
{"type": "Feature", "properties": {"id": "", "unit": "1975 Quonset Ave", "number": "1975", "street": "Quonset Ave", "city": "Winthrop", "district": "Buchanan", "region": "IA", "postcode": "50682-9512", "hash": "c3f9b7b6ab39ebb4"}, "geometry": {"type": "Point", "coordinates": [-91.7569397, 42.4975154]}}
{"type": "Feature", "properties": {"id": "", "unit": "1456 Cummings Ave", "number": "1456", "street": "Cummings Ave", "city": "Fairbank", "district": "Buchanan", "region": "IA", "postcode": "50629-8605", "hash": "7722b0eea7391930"}, "geometry": {"type": "Point", "coordinates": [-92.0279078, 42.5754877]}}
{"type": "Feature", "properties": {"id": "", "unit": "4975 250th Ave", "number": "4975", "street": "250th Ave", "city": "Albert City", "district": "Buena Vista", "region": "IA", "postcode": "50510-7593", "hash": "3458ae09dc1e7520"}, "geometry": {"type": "Point", "coordinates": [-94.9139129, 42.7955209]}}
{"type": "Feature", "properties": {"id": "", "unit": "5469 220th Ave", "number": "5469", "street": "220th Ave", "city": "Albert City", "district": "Buena Vista", "region": "IA", "postcode": "50510-7534", "hash": "b19bb20004faeb61"}, "geometry": {"type": "Point", "coordinates": [-94.9732669, 42.724498]}}
{"type": "Feature", "properties": {"id": "", "unit": "1631 400th St", "number": "1631", "street": "400th St", "city": "Lake City", "district": "Calhoun", "region": "IA", "postcode": "51449-7545", "hash": "cc5644004ad65939"}, "geometry": {"type": "Point", "coordinates": [-94.7777297, 42.2097428]}}
{"type": "Feature", "properties": {"id": "", "unit": "3971 Preston Ave", "number": "3971", "street": "Preston Ave", "city": "Lohrville", "district": "Calhoun", "region": "IA", "postcode": "51453-7535", "hash": "7f0e12d69ca980f6"}, "geometry": {"type": "Point", "coordinates": [-94.6102499, 42.2145349]}}
{"type": "Feature", "properties": {"id": "", "unit": "21472 Noble Ave", "number": "21472", "street": "Noble Ave", "city": "Carroll", "district": "Carroll", "region": "IA", "postcode": "51401-8697", "hash": "ee3945326526e8ae"}, "geometry": {"type": "Point", "coordinates": [-94.8370955, 42.0428937]}}
{"type": "Feature", "properties": {"id": "", "unit": "21296 Noble Ave", "number": "21296", "street": "Noble Ave", "city": "Carroll", "district": "Carroll", "region": "IA", "postcode": "51401-8691", "hash": "b39ffd24ad321384"}, "geometry": {"type": "Point", "coordinates": [-94.8371417, 42.0456057]}}
{"type": "Feature", "properties": {"id": "", "unit": "60706 770th St", "number": "60706", "street": "770th St", "city": "Anita", "district": "Cass", "region": "IA", "postcode": "50020-8830", "hash": "83e2fc02b6664618"}, "geometry": {"type": "Point", "coordinates": [-94.7193547, 41.3499454]}}
{"type": "Feature", "properties": {"id": "", "unit": "61302 720th St", "number": "61302", "street": "720th St", "city": "Wiota", "district": "Cass", "region": "IA", "postcode": "50274-8750", "hash": "5eeaec92cfdfdf72"}, "geometry": {"type": "Point", "coordinates": [-94.8152539, 41.3412479]}}
{"type": "Feature", "properties": {"id": "", "unit": "646 420th St", "number": "646", "street": "420th St", "city": "Paullina", "district": "Cherokee", "region": "IA", "postcode": "51046", "hash": "b7d947799505f531"}, "geometry": {"type": "Point", "coordinates": [-95.7519677, 42.9096164]}}
{"type": "Feature", "properties": {"id": "", "unit": "4202 E Ave", "number": "4202", "street": "E Ave", "city": "Paullina", "district": "Cherokee", "region": "IA", "postcode": "51046-7607", "hash": "4cdb83bf9d509a28"}, "geometry": {"type": "Point", "coordinates": [-95.7410837, 42.9090043]}}
{"type": "Feature", "properties": {"id": "", "unit": "1200 Benson St", "number": "1200", "street": "Benson St", "city": "Grand River", "district": "Clarke", "region": "IA", "postcode": "50108-8000", "hash": "1757233b521969e6"}, "geometry": {"type": "Point", "coordinates": [-93.9570724, 40.8977181]}}
{"type": "Feature", "properties": {"id": "", "unit": "1300 Adair St", "number": "1300", "street": "Adair St", "city": "Grand River", "district": "Clarke", "region": "IA", "postcode": "50108-8001", "hash": "e85248be357b25d8"}, "geometry": {"type": "Point", "coordinates": [-93.9562504, 40.904088]}}
{"type": "Feature", "properties": {"id": "", "unit": "1156 100th St", "number": "1156", "street": "100th St", "city": "Mapleton", "district": "Crawford", "region": "IA", "postcode": "51034-7508", "hash": "1c5da7bcdf712301"}, "geometry": {"type": "Point", "coordinates": [-95.6705572, 42.1884762]}}
{"type": "Feature", "properties": {"id": "", "unit": "1216 100th St", "number": "1216", "street": "100th St", "city": "Mapleton", "district": "Crawford", "region": "IA", "postcode": "51034-7503", "hash": "118dc23f84b7ca36"}, "geometry": {"type": "Point", "coordinates": [-95.670636, 42.1806959]}}
{"type": "Feature", "properties": {"id": "", "unit": "2905 145th St", "number": "2905", "street": "145th St", "city": "Urbandale", "district": "Dallas", "region": "IA", "postcode": "50323-2060", "hash": "346835295203b031"}, "geometry": {"type": "Point", "coordinates": [-93.8196274, 41.6222162]}}
{"type": "Feature", "properties": {"id": "", "unit": "2811 145th St", "number": "2811", "street": "145th St", "city": "Urbandale", "district": "Dallas", "region": "IA", "postcode": "50323-2048", "hash": "68f68b9fe9116e0d"}, "geometry": {"type": "Point", "coordinates": [-93.8196235, 41.6211211]}}
{"type": "Feature", "properties": {"id": "", "unit": "10031 110th Ave", "number": "10031", "street": "110th Ave", "city": "Grand River", "district": "Decatur", "region": "IA", "postcode": "50108-1085", "hash": "2097d35ce538cdf3"}, "geometry": {"type": "Point", "coordinates": [-93.9951879, 40.8964898]}}
{"type": "Feature", "properties": {"id": "", "unit": "10297 110th Ave", "number": "10297", "street": "110th Ave", "city": "Grand River", "district": "Decatur", "region": "IA", "postcode": "50108-1086", "hash": "4ba6d4227520306d"}, "geometry": {"type": "Point", "coordinates": [-93.9951478, 40.89273]}}
{"type": "Feature", "properties": {"id": "", "unit": "310 South St", "number": "310", "street": "South St", "city": "Dundee", "district": "Delaware", "region": "IA", "postcode": "52038-8626", "hash": "bbcadf9adfa86dd4"}, "geometry": {"type": "Point", "coordinates": [-91.5465404, 42.5763197]}}
{"type": "Feature", "properties": {"id": "", "unit": "207 S Main St", "number": "207", "street": "S Main St", "city": "Dundee", "district": "Delaware", "region": "IA", "postcode": "52038-8622", "hash": "add983587867a4ba"}, "geometry": {"type": "Point", "coordinates": [-91.5456116, 42.5755565]}}
{"type": "Feature", "properties": {"id": "", "unit": "1068 130th St", "number": "1068", "street": "130th St", "city": "Lake Park", "district": "Dickinson", "region": "IA", "postcode": "51347", "hash": "ba944e5bf3846261"}, "geometry": {"type": "Point", "coordinates": [-95.3777304, 43.4595282]}}
{"type": "Feature", "properties": {"id": "", "unit": "1161 120th St", "number": "1161", "street": "120th St", "city": "Lake Park", "district": "Dickinson", "region": "IA", "postcode": "51347-7071", "hash": "65436e56bb72ce19"}, "geometry": {"type": "Point", "coordinates": [-95.3557839, 43.4738515]}}
{"type": "Feature", "properties": {"id": "", "unit": "1071 403rd Ave", "number": "1071", "street": "403rd Ave", "city": "Estherville", "district": "Emmet", "region": "IA", "postcode": "51334-7743", "hash": "bbc0fd7733c10178"}, "geometry": {"type": "Point", "coordinates": [-94.7919648, 43.4934002]}}
{"type": "Feature", "properties": {"id": "", "unit": "1356 450th Ave", "number": "1356", "street": "450th Ave", "city": "Estherville", "district": "Emmet", "region": "IA", "postcode": "51334-7731", "hash": "2499cce24cef4347"}, "geometry": {"type": "Point", "coordinates": [-94.6979748, 43.45112]}}
{"type": "Feature", "properties": {"id": "", "unit": "624 220th St", "number": "624", "street": "220th St", "city": "Alexander", "district": "Franklin", "region": "IA", "postcode": "50420-8048", "hash": "be63d79b704a759f"}, "geometry": {"type": "Point", "coordinates": [-93.3936231, 42.8484488]}}
{"type": "Feature", "properties": {"id": "", "unit": "2161 Balsam Ave", "number": "2161", "street": "Balsam Ave", "city": "Meservey", "district": "Franklin", "region": "IA", "postcode": "50457-8003", "hash": "6f4140a870b02011"}, "geometry": {"type": "Point", "coordinates": [-93.4783851, 42.8577628]}}
{"type": "Feature", "properties": {"id": "", "unit": "4278 280th St", "number": "4278", "street": "280th St", "city": "Shenandoah", "district": "Fremont", "region": "IA", "postcode": "51601-4020", "hash": "a301916895956741"}, "geometry": {"type": "Point", "coordinates": [-95.3785162, 40.6408621]}}
{"type": "Feature", "properties": {"id": "", "unit": "4278 260th St", "number": "4278", "street": "260th St", "city": "Shenandoah", "district": "Fremont", "region": "IA", "postcode": "51601-4016", "hash": "cddf4114ae75c96d"}, "geometry": {"type": "Point", "coordinates": [-95.3772336, 40.6699504]}}
{"type": "Feature", "properties": {"id": "", "unit": "146 G Ave", "number": "146", "street": "G Ave", "city": "Churdan", "district": "Greene", "region": "IA", "postcode": "50050-8539", "hash": "afe8b69a8b847f0c"}, "geometry": {"type": "Point", "coordinates": [-94.5130677, 42.2027071]}}
{"type": "Feature", "properties": {"id": "", "unit": "612 110th St", "number": "612", "street": "110th St", "city": "Churdan", "district": "Greene", "region": "IA", "postcode": "50050-8540", "hash": "0da6f919b6af96b5"}, "geometry": {"type": "Point", "coordinates": [-94.5298168, 42.1950224]}}
{"type": "Feature", "properties": {"id": "", "unit": "1350 Chestnut Rd", "number": "1350", "street": "Chestnut Rd", "city": "Coon Rapids", "district": "Guthrie", "region": "IA", "postcode": "50058-8046", "hash": "f9dd64d9f3592e4b"}, "geometry": {"type": "Point", "coordinates": [-94.7049707, 41.8123533]}}
{"type": "Feature", "properties": {"id": "", "unit": "1323 Fig Ave", "number": "1323", "street": "Fig Ave", "city": "Coon Rapids", "district": "Guthrie", "region": "IA", "postcode": "50058-8007", "hash": "ad4d79e4ca35bfd7"}, "geometry": {"type": "Point", "coordinates": [-94.6498258, 41.8159]}}
{"type": "Feature", "properties": {"id": "", "unit": "2330 Ziegler Ave", "number": "2330", "street": "Ziegler Ave", "city": "Williams", "district": "Hamilton", "region": "IA", "postcode": "50271-7596", "hash": "2a2003bf730ab881"}, "geometry": {"type": "Point", "coordinates": [-93.4820935, 42.4514515]}}
{"type": "Feature", "properties": {"id": "", "unit": "3535 240th St", "number": "3535", "street": "240th St", "city": "Alden", "district": "Hamilton", "region": "IA", "postcode": "50006-7501", "hash": "53234a1dbe1ea830"}, "geometry": {"type": "Point", "coordinates": [-93.4767263, 42.4376851]}}
{"type": "Feature", "properties": {"id": "", "unit": "19308 Highway S27", "number": "19308", "street": "Highway S27", "city": "Alden", "district": "Hardin", "region": "IA", "postcode": "50006-8076", "hash": "8212375b2417bfb1"}, "geometry": {"type": "Point", "coordinates": [-93.3855274, 42.4224303]}}
{"type": "Feature", "properties": {"id": "", "unit": "22132 E Ave", "number": "22132", "street": "E Ave", "city": "Radcliffe", "district": "Hardin", "region": "IA", "postcode": "50230-8113", "hash": "2949d5b8d41a97eb"}, "geometry": {"type": "Point", "coordinates": [-93.4052357, 42.3819014]}}
{"type": "Feature", "properties": {"id": "", "unit": "1513 Toledo Ave", "number": "1513", "street": "Toledo Ave", "city": "Dunlap", "district": "Harrison", "region": "IA", "postcode": "51529-6007", "hash": "acec558e215af11c"}, "geometry": {"type": "Point", "coordinates": [-95.6105082, 41.7889998]}}
{"type": "Feature", "properties": {"id": "", "unit": "4307 Poplar St", "number": "4307", "street": "Poplar St", "city": "Little Sioux", "district": "Harrison", "region": "IA", "postcode": "51545-5005", "hash": "3945ef83d0516e13"}, "geometry": {"type": "Point", "coordinates": [-96.0473712, 41.8043838]}}
{"type": "Feature", "properties": {"id": "", "unit": "2627 140th St", "number": "2627", "street": "140th St", "city": "Riceville", "district": "Howard", "region": "IA", "postcode": "50466", "hash": "40441145b46d2ffc"}, "geometry": {"type": "Point", "coordinates": [-92.5227619, 43.3133787]}}
{"type": "Feature", "properties": {"id": "", "unit": "13252 Evergreen Ave", "number": "13252", "street": "Evergreen Ave", "city": "Riceville", "district": "Howard", "region": "IA", "postcode": "50466-7056", "hash": "afce1c0aac7d822c"}, "geometry": {"type": "Point", "coordinates": [-92.4654848, 43.3237729]}}
{"type": "Feature", "properties": {"id": "", "unit": "2697 Penn Ave", "number": "2697", "street": "Penn Ave", "city": "Badger", "district": "Humboldt", "region": "IA", "postcode": "50516-8506", "hash": "9cf90e51d032e5b4"}, "geometry": {"type": "Point", "coordinates": [-94.1490507, 42.6596448]}}
{"type": "Feature", "properties": {"id": "", "unit": "2745 Lone Tree Rd", "number": "2745", "street": "Lone Tree Rd", "city": "Badger", "district": "Humboldt", "region": "IA", "postcode": "50516-8508", "hash": "3b9afc11b19594b4"}, "geometry": {"type": "Point", "coordinates": [-94.1801816, 42.6530498]}}
{"type": "Feature", "properties": {"id": "", "unit": "1915 Quail Ave", "number": "1915", "street": "Quail Ave", "city": "Arthur", "district": "Ida", "region": "IA", "postcode": "51431-8010", "hash": "b64bd7f141468823"}, "geometry": {"type": "Point", "coordinates": [-95.3421783, 42.4271836]}}
{"type": "Feature", "properties": {"id": "", "unit": "1961 Quail Ave", "number": "1961", "street": "Quail Ave", "city": "Arthur", "district": "Ida", "region": "IA", "postcode": "51431-8010", "hash": "6a6470b8eaa445e4"}, "geometry": {"type": "Point", "coordinates": [-95.3421716, 42.4199184]}}
{"type": "Feature", "properties": {"id": "", "unit": "13236 S 128th Ave W", "number": "13236", "street": "S 128th Ave W", "city": "Runnells", "district": "Jasper", "region": "IA", "postcode": "50237-8020", "hash": "d73f22912491e6f2"}, "geometry": {"type": "Point", "coordinates": [-93.3094047, 41.507872]}}
{"type": "Feature", "properties": {"id": "", "unit": "12286 S 128th Ave W", "number": "12286", "street": "S 128th Ave W", "city": "Runnells", "district": "Jasper", "region": "IA", "postcode": "50237-8014", "hash": "5306ecf3acfa77a3"}, "geometry": {"type": "Point", "coordinates": [-93.2869106, 41.5081075]}}
{"type": "Feature", "properties": {"id": "", "unit": "", "number": "6994", "street": "LOLA LN SE", "city": "LONE TREE", "district": "Johnson", "region": "IA", "postcode": "52755", "hash": "f5d5db88d25fd9e6"}, "geometry": {"type": "Point", "coordinates": [-91.4738742, 41.4242348]}}
{"type": "Feature", "properties": {"id": "", "unit": "", "number": "6988", "street": "WAPSI LN SE", "city": "LONE TREE", "district": "Johnson", "region": "IA", "postcode": "52755", "hash": "d9ce5af19424d4f1"}, "geometry": {"type": "Point", "coordinates": [-91.426015, 41.423667]}}
{"type": "Feature", "properties": {"id": "", "unit": "3702 240th Ave", "number": "3702", "street": "240th Ave", "city": "Buffalo Center", "district": "Kossuth", "region": "IA", "postcode": "50424-7010", "hash": "dfe4b53156f3e8c1"}, "geometry": {"type": "Point", "coordinates": [-93.990242, 43.3008925]}}
{"type": "Feature", "properties": {"id": "", "unit": "4802 240th Ave", "number": "4802", "street": "240th Ave", "city": "Buffalo Center", "district": "Kossuth", "region": "IA", "postcode": "50424-7019", "hash": "978fba3f3a44702b"}, "geometry": {"type": "Point", "coordinates": [-93.9905278, 43.460668]}}
{"type": "Feature", "properties": {"id": "", "unit": "42077 210th Ave", "number": "42077", "street": "210th Ave", "city": "Chariton", "district": "Lucas", "region": "IA", "postcode": "50049-7846", "hash": "ae8244986dbba812"}, "geometry": {"type": "Point", "coordinates": [-93.3464649, 40.9277695]}}
{"type": "Feature", "properties": {"id": "", "unit": "41912 242nd Ave", "number": "41912", "street": "242nd Ave", "city": "Chariton", "district": "Lucas", "region": "IA", "postcode": "50049-7759", "hash": "2f29c56224794fc7"}, "geometry": {"type": "Point", "coordinates": [-93.2832639, 40.9255661]}}
{"type": "Feature", "properties": {"id": "", "unit": "1662 Ashley Ave", "number": "1662", "street": "Ashley Ave", "city": "Larchwood", "district": "Lyon", "region": "IA", "postcode": "51241-7538", "hash": "787b5a2971f5f261"}, "geometry": {"type": "Point", "coordinates": [-96.5267944, 43.4104273]}}
{"type": "Feature", "properties": {"id": "", "unit": "2147 Dogwood Ave", "number": "2147", "street": "Dogwood Ave", "city": "Alvord", "district": "Lyon", "region": "IA", "postcode": "51230-7527", "hash": "925b30bb0a77d556"}, "geometry": {"type": "Point", "coordinates": [-96.3501355, 43.3394719]}}
{"type": "Feature", "properties": {"id": "", "unit": "101 10th Ave", "number": "101", "street": "10th Ave", "city": "Bevington", "district": "Madison", "region": "IA", "postcode": "50033", "hash": "815adde53bfe1c52"}, "geometry": {"type": "Point", "coordinates": [-93.7910481, 41.3600845]}}
{"type": "Feature", "properties": {"id": "", "unit": "301 Williamson St", "number": "301", "street": "Williamson St", "city": "Bevington", "district": "Madison", "region": "IA", "postcode": "50033", "hash": "8411fa60c83bdc6d"}, "geometry": {"type": "Point", "coordinates": [-93.7944416, 41.3617114]}}
{"type": "Feature", "properties": {"id": "", "unit": "2071 Highway 5", "number": "2071", "street": "Highway 5", "city": "Bussey", "district": "Marion", "region": "IA", "postcode": "50044-7537", "hash": "567ad7fa03eedf3d"}, "geometry": {"type": "Point", "coordinates": [-92.9811917, 41.2260001]}}
{"type": "Feature", "properties": {"id": "", "unit": "421 Merrill St", "number": "421", "street": "Merrill St", "city": "Bussey", "district": "Marion", "region": "IA", "postcode": "50044-7711", "hash": "31e4eb1ca7e0790c"}, "geometry": {"type": "Point", "coordinates": [-92.886759, 41.2046639]}}
{"type": "Feature", "properties": {"id": "", "unit": "3349 Davidson Ave", "number": "3349", "street": "Davidson Ave", "city": "Rhodes", "district": "Marshall", "region": "IA", "postcode": "50234-9720", "hash": "df77de6bc2924b3c"}, "geometry": {"type": "Point", "coordinates": [-93.1741484, 41.8684048]}}
{"type": "Feature", "properties": {"id": "", "unit": "3360 Davidson Ave", "number": "3360", "street": "Davidson Ave", "city": "Rhodes", "district": "Marshall", "region": "IA", "postcode": "50234-9720", "hash": "9f0acd3a67d40939"}, "geometry": {"type": "Point", "coordinates": [-93.174003, 41.8677911]}}
{"type": "Feature", "properties": {"id": "", "unit": "604 S Railway St", "number": "604", "street": "S Railway St", "city": "Hastings", "district": "Mills", "region": "IA", "postcode": "51540-3000", "hash": "3a60b5ed02fdcf98"}, "geometry": {"type": "Point", "coordinates": [-95.4930568, 41.0255339]}}
{"type": "Feature", "properties": {"id": "", "unit": "405 Maple St", "number": "405", "street": "Maple St", "city": "Henderson", "district": "Mills", "region": "IA", "postcode": "51541-5003", "hash": "537a7480e6584ce0"}, "geometry": {"type": "Point", "coordinates": [-95.4293146, 41.1398171]}}
{"type": "Feature", "properties": {"id": "", "unit": "234 S 3rd St", "number": "234", "street": "S 3rd St", "city": "Castana", "district": "Monona", "region": "IA", "postcode": "51010-7727", "hash": "79781356375aa24b"}, "geometry": {"type": "Point", "coordinates": [-95.9089223, 42.072511]}}
{"type": "Feature", "properties": {"id": "", "unit": "109 Willow St", "number": "109", "street": "Willow St", "city": "Castana", "district": "Monona", "region": "IA", "postcode": "51010-7702", "hash": "cef16e8c8a0118a6"}, "geometry": {"type": "Point", "coordinates": [-95.9111176, 42.0732836]}}
{"type": "Feature", "properties": {"id": "", "unit": "5268 1st St", "number": "5268", "street": "1st St", "city": "Melrose", "district": "Monroe", "region": "IA", "postcode": "52569-8586", "hash": "5cf02c4331e60e1f"}, "geometry": {"type": "Point", "coordinates": [-93.0485044, 40.9055867]}}
{"type": "Feature", "properties": {"id": "", "unit": "5242 2nd St", "number": "5242", "street": "2nd St", "city": "Melrose", "district": "Monroe", "region": "IA", "postcode": "52569-8589", "hash": "6a6c7761d13cb3f5"}, "geometry": {"type": "Point", "coordinates": [-93.0509263, 40.9045432]}}
{"type": "Feature", "properties": {"id": "", "unit": "1349 Adams Montgomery St", "number": "1349", "street": "Adams Montgomery St", "city": "Corning", "district": "Montgomery", "region": "IA", "postcode": "50841-9001", "hash": "17e1d9eb0a627045"}, "geometry": {"type": "Point", "coordinates": [-94.9276071, 41.1083723]}}
{"type": "Feature", "properties": {"id": "", "unit": "108 Oak Ave", "number": "108", "street": "Oak Ave", "city": "Grant", "district": "Montgomery", "region": "IA", "postcode": "50847", "hash": "a92820de54a94cbe"}, "geometry": {"type": "Point", "coordinates": [-94.9879149, 41.1417717]}}
{"type": "Feature", "properties": {"id": "", "unit": "3887 440th St", "number": "3887", "street": "440th St", "city": "Ayrshire", "district": "PaloAlto", "region": "IA", "postcode": "50515-8526", "hash": "d2e119a80069156e"}, "geometry": {"type": "Point", "coordinates": [-94.8188747, 43.0099631]}}
{"type": "Feature", "properties": {"id": "", "unit": "3637 420th St", "number": "3637", "street": "420th St", "city": "Ayrshire", "district": "PaloAlto", "region": "IA", "postcode": "50515-8508", "hash": "ec265fba0441656e"}, "geometry": {"type": "Point", "coordinates": [-94.8687056, 43.0392095]}}
{"type": "Feature", "properties": {"id": "", "unit": "51814 Little Clear Lake Rd", "number": "51814", "street": "Little Clear Lake Rd", "city": "Albert City", "district": "Pocahontas", "region": "IA", "postcode": "50510-8610", "hash": "f12d41b5cfbe5cbb"}, "geometry": {"type": "Point", "coordinates": [-94.8924367, 42.737752]}}
{"type": "Feature", "properties": {"id": "", "unit": "10357 510th St", "number": "10357", "street": "510th St", "city": "Albert City", "district": "Pocahontas", "region": "IA", "postcode": "50510-8616", "hash": "ac7d2c718d5035b3"}, "geometry": {"type": "Point", "coordinates": [-94.9081724, 42.7487871]}}
{"type": "Feature", "properties": {"id": "", "unit": "406 N Main St", "number": "406", "street": "N Main St", "city": "Early", "district": "Sac", "region": "IA", "postcode": "50535-5024", "hash": "3bca920f1d7e83d3"}, "geometry": {"type": "Point", "coordinates": [-95.1522683, 42.4646906]}}
{"type": "Feature", "properties": {"id": "", "unit": "108 E 2nd St", "number": "108", "street": "E 2nd St", "city": "Early", "district": "Sac", "region": "IA", "postcode": "50535-7704", "hash": "62493dec721158fd"}, "geometry": {"type": "Point", "coordinates": [-95.1516132, 42.4613755]}}
{"type": "Feature", "properties": {"id": "", "unit": "812 6th St", "number": "812", "street": "6th St", "city": "Harlan", "district": "Shelby", "region": "IA", "postcode": "51537-1494", "hash": "ca12f84cb4a47895"}, "geometry": {"type": "Point", "coordinates": [-95.3176993, 41.659986]}}
{"type": "Feature", "properties": {"id": "", "unit": "1648 Redwood Rd", "number": "1648", "street": "Redwood Rd", "city": "Kirkman", "district": "Shelby", "region": "IA", "postcode": "51447", "hash": "187ecf30893957bf"}, "geometry": {"type": "Point", "coordinates": [-95.2283448, 41.7456858]}}
{"type": "Feature", "properties": {"id": "", "unit": "5078 Kingbird Ave", "number": "5078", "street": "Kingbird Ave", "city": "Alton", "district": "Sioux", "region": "IA", "postcode": "51003-7568", "hash": "2e75c0fc6e315543"}, "geometry": {"type": "Point", "coordinates": [-95.9772979, 42.9127172]}}
{"type": "Feature", "properties": {"id": "", "unit": "5098 Kennedy Ave", "number": "5098", "street": "Kennedy Ave", "city": "Alton", "district": "Sioux", "region": "IA", "postcode": "51003-8639", "hash": "bff54f2042b64a82"}, "geometry": {"type": "Point", "coordinates": [-95.9970006, 42.910842]}}
{"type": "Feature", "properties": {"id": "", "unit": "1191 400th St", "number": "1191", "street": "400th St", "city": "Paton", "district": "Webster", "region": "IA", "postcode": "50217-8079", "hash": "36c1f3f61a37fcfa"}, "geometry": {"type": "Point", "coordinates": [-94.3607943, 42.2092155]}}
{"type": "Feature", "properties": {"id": "", "unit": "1719 400th St", "number": "1719", "street": "400th St", "city": "Paton", "district": "Webster", "region": "IA", "postcode": "50217-9001", "hash": "61421f2492d32701"}, "geometry": {"type": "Point", "coordinates": [-94.2581228, 42.209852]}}
{"type": "Feature", "properties": {"id": "", "unit": "1321 400th St", "number": "1321", "street": "400th St", "city": "Buffalo Center", "district": "Winnebago", "region": "IA", "postcode": "50424-7622", "hash": "d2769a9a1d5410d4"}, "geometry": {"type": "Point", "coordinates": [-93.9651145, 43.3421734]}}
{"type": "Feature", "properties": {"id": "", "unit": "39360 10th Ave", "number": "39360", "street": "10th Ave", "city": "Buffalo Center", "district": "Winnebago", "region": "IA", "postcode": "50424-7654", "hash": "ecd260970bc228eb"}, "geometry": {"type": "Point", "coordinates": [-93.9516146, 43.3327198]}}
{"type": "Feature", "properties": {"id": "", "unit": "2696 County Road B16", "number": "2696", "street": "County Road B16", "city": "Calmar", "district": "Winneshiek", "region": "IA", "postcode": "52132-7515", "hash": "c7c8540e0f187507"}, "geometry": {"type": "Point", "coordinates": [-91.9336724, 43.2000909]}}
{"type": "Feature", "properties": {"id": "", "unit": "2646 County Road B16", "number": "2646", "street": "County Road B16", "city": "Calmar", "district": "Winneshiek", "region": "IA", "postcode": "52132-7515", "hash": "7ebeff573700cbe5"}, "geometry": {"type": "Point", "coordinates": [-91.9283861, 43.20106]}}
{"type": "Feature", "properties": {"id": "", "unit": "105 Maglorie St", "number": "105", "street": "Maglorie St", "city": "Woolstock", "district": "Wright", "region": "IA", "postcode": "50599", "hash": "2dec57fc03a7d942"}, "geometry": {"type": "Point", "coordinates": [-93.8476552, 42.5662883]}}
{"type": "Feature", "properties": {"id": "", "unit": "405 W Neville St", "number": "405", "street": "W Neville St", "city": "Woolstock", "district": "Wright", "region": "IA", "postcode": "50599-8046", "hash": "0e68f92d22b2279b"}, "geometry": {"type": "Point", "coordinates": [-93.8488581, 42.5649402]}}
