{"type": "Feature", "properties": {"hash": "0c81cb2f7b348d20", "number": "251", "street": "W  MAIN ST", "unit": "", "city": "KUNA", "district": "", "region": "ID", "postcode": "83634", "id": ""}, "geometry": {"type": "Point", "coordinates": [-116.4157974, 43.4905121]}}
{"type": "Feature", "properties": {"hash": "5930a2f019903b5b", "number": "329", "street": "W  MAIN ST", "unit": "", "city": "KUNA", "district": "", "region": "ID", "postcode": "83634", "id": ""}, "geometry": {"type": "Point", "coordinates": [-116.4169031, 43.4905343]}}
{"type": "Feature", "properties": {"hash": "dc642b5667f25b34", "number": "339", "street": "W  MAIN ST", "unit": "", "city": "KUNA", "district": "", "region": "ID", "postcode": "83634", "id": ""}, "geometry": {"type": "Point", "coordinates": [-116.4170442, 43.4905354]}}
{"type": "Feature", "properties": {"hash": "f22e4057e364b0ea", "number": "361", "street": "W  MAIN ST", "unit": "", "city": "KUNA", "district": "", "region": "ID", "postcode": "83634", "id": ""}, "geometry": {"type": "Point", "coordinates": [-116.4172321, 43.4905377]}}
{"type": "Feature", "properties": {"hash": "d0078c0dd13c3495", "number": "371", "street": "W  MAIN ST", "unit": "", "city": "KUNA", "district": "", "region": "ID", "postcode": "83634", "id": ""}, "geometry": {"type": "Point", "coordinates": [-116.417454, 43.4904819]}}
{"type": "Feature", "properties": {"hash": "52f56ee6a24eec7c", "number": "379", "street": "W  MAIN ST", "unit": "", "city": "KUNA", "district": "", "region": "ID", "postcode": "83634", "id": ""}, "geometry": {"type": "Point", "coordinates": [-116.4176087, 43.4905414]}}
{"type": "Feature", "properties": {"hash": "e0aea5f6ac515743", "number": "397", "street": "W  MAIN ST", "unit": "", "city": "KUNA", "district": "", "region": "ID", "postcode": "83634", "id": ""}, "geometry": {"type": "Point", "coordinates": [-116.4178086, 43.4905641]}}
{"type": "Feature", "properties": {"hash": "4a98c39bd59b1b42", "number": "587", "street": "W  MAIN ST", "unit": "", "city": "KUNA", "district": "", "region": "ID", "postcode": "83634", "id": ""}, "geometry": {"type": "Point", "coordinates": [-116.4204757, 43.4905862]}}
{"type": "Feature", "properties": {"hash": "06a20767b72651a7", "number": "444", "street": "W  MAIN ST", "unit": "", "city": "KUNA", "district": "", "region": "ID", "postcode": "83634", "id": ""}, "geometry": {"type": "Point", "coordinates": [-116.4185437, 43.4908519]}}
{"type": "Feature", "properties": {"hash": "af6116e3a7c74fae", "number": "458", "street": "W  MAIN ST", "unit": "", "city": "KUNA", "district": "", "region": "ID", "postcode": "83634", "id": ""}, "geometry": {"type": "Point", "coordinates": [-116.4186888, 43.4908856]}}
{"type": "Feature", "properties": {"hash": "765358bc6f99f4ba", "number": "452", "street": "W  MAIN ST", "unit": "", "city": "KUNA", "district": "", "region": "ID", "postcode": "83634", "id": ""}, "geometry": {"type": "Point", "coordinates": [-116.4186109, 43.4908576]}}
{"type": "Feature", "properties": {"hash": "738f7bc14a735e08", "number": "462", "street": "W  MAIN ST", "unit": "", "city": "KUNA", "district": "", "region": "ID", "postcode": "83634", "id": ""}, "geometry": {"type": "Point", "coordinates": [-116.4188188, 43.4908869]}}
{"type": "Feature", "properties": {"hash": "ddf059c343b6da50", "number": "478", "street": "W  MAIN ST", "unit": "", "city": "KUNA", "district": "", "region": "ID", "postcode": "83634", "id": ""}, "geometry": {"type": "Point", "coordinates": [-116.4189497, 43.4908882]}}
{"type": "Feature", "properties": {"hash": "f83c73eeae0869fc", "number": "482", "street": "W  MAIN ST", "unit": "", "city": "KUNA", "district": "", "region": "ID", "postcode": "83634", "id": ""}, "geometry": {"type": "Point", "coordinates": [-116.4190906, 43.49089]}}
{"type": "Feature", "properties": {"hash": "2c366198dee7d425", "number": "451", "street": "W  MAIN ST", "unit": "", "city": "KUNA", "district": "", "region": "ID", "postcode": "83634", "id": ""}, "geometry": {"type": "Point", "coordinates": [-116.4185575, 43.4905451]}}
{"type": "Feature", "properties": {"hash": "9bacfe5b02c67c2c", "number": "738", "street": "E  AVALON ST", "unit": "", "city": "KUNA", "district": "", "region": "ID", "postcode": "83634", "id": ""}, "geometry": {"type": "Point", "coordinates": [-116.4044723, 43.4898444]}}
{"type": "Feature", "properties": {"hash": "5597a9463b2e47da", "number": "820", "street": "E  AVALON ST", "unit": "", "city": "KUNA", "district": "", "region": "ID", "postcode": "83634", "id": ""}, "geometry": {"type": "Point", "coordinates": [-116.4043323, 43.488764]}}
{"type": "Feature", "properties": {"hash": "f6dbebc23a14dbd4", "number": "104", "street": "N  STORY BOOK WAY", "unit": "", "city": "EAGLE", "district": "", "region": "ID", "postcode": "83616", "id": ""}, "geometry": {"type": "Point", "coordinates": [-116.3587053, 43.6959993]}}
{"type": "Feature", "properties": {"hash": "3584f86b3178c59f", "number": "414", "street": "W  MAIN ST", "unit": "", "city": "KUNA", "district": "", "region": "ID", "postcode": "83634", "id": ""}, "geometry": {"type": "Point", "coordinates": [-116.4184588, 43.4908334]}}
{"type": "Feature", "properties": {"hash": "70b66852e1e22975", "number": "2055", "street": "W  HUBBARD RD", "unit": "", "city": "KUNA", "district": "", "region": "ID", "postcode": "83634", "id": ""}, "geometry": {"type": "Point", "coordinates": [-116.420593, 43.5172449]}}
{"type": "Feature", "properties": {"hash": "de0bed8a0e0c63c8", "number": "1403", "street": "N  MERIDIAN RD", "unit": "", "city": "KUNA", "district": "", "region": "ID", "postcode": "83634", "id": ""}, "geometry": {"type": "Point", "coordinates": [-116.3958193, 43.5011661]}}
{"type": "Feature", "properties": {"hash": "67d4a393369010bc", "number": "62", "street": "S  STEPHENSON ST", "unit": "", "city": "EAGLE", "district": "", "region": "ID", "postcode": "83616", "id": ""}, "geometry": {"type": "Point", "coordinates": [-116.3656004, 43.6944357]}}
{"type": "Feature", "properties": {"hash": "988bbadab796430a", "number": "74", "street": "S  STEPHENSON ST", "unit": "", "city": "EAGLE", "district": "", "region": "ID", "postcode": "83616", "id": ""}, "geometry": {"type": "Point", "coordinates": [-116.3655991, 43.6943114]}}
{"type": "Feature", "properties": {"hash": "abc382d77f04755d", "number": "86", "street": "S  STEPHENSON ST", "unit": "", "city": "EAGLE", "district": "", "region": "ID", "postcode": "83616", "id": ""}, "geometry": {"type": "Point", "coordinates": [-116.365604, 43.694187]}}
{"type": "Feature", "properties": {"hash": "ae64f9c52539a7f3", "number": "100", "street": "S  STEPHENSON ST", "unit": "", "city": "EAGLE", "district": "", "region": "ID", "postcode": "83616", "id": ""}, "geometry": {"type": "Point", "coordinates": [-116.3656025, 43.6940628]}}
{"type": "Feature", "properties": {"hash": "702b18919781c5eb", "number": "437", "street": "Curlew DR", "unit": "", "city": "Ammon", "district": "", "region": "ID", "postcode": "83406", "id": ""}, "geometry": {"type": "Point", "coordinates": [-111.9792768, 43.499306]}}
{"type": "Feature", "properties": {"hash": "279598515b497cce", "number": "2770", "street": "Brooklyn ST", "unit": "", "city": "Ammon", "district": "", "region": "ID", "postcode": "83406", "id": ""}, "geometry": {"type": "Point", "coordinates": [-111.9787219, 43.4983968]}}
{"type": "Feature", "properties": {"hash": "e8bd2d3e0cab893e", "number": "2825", "street": "Brooklyn ST", "unit": "", "city": "Ammon", "district": "", "region": "ID", "postcode": "83406", "id": ""}, "geometry": {"type": "Point", "coordinates": [-111.9776665, 43.4988197]}}
{"type": "Feature", "properties": {"hash": "25b5dec972c952e6", "number": "2834", "street": "Brooklyn ST", "unit": "", "city": "Ammon", "district": "", "region": "ID", "postcode": "83406", "id": ""}, "geometry": {"type": "Point", "coordinates": [-111.9774558, 43.4983814]}}
{"type": "Feature", "properties": {"hash": "8e7ab2eb5f7d7138", "number": "2799", "street": "Brooklyn ST", "unit": "", "city": "Ammon", "district": "", "region": "ID", "postcode": "83406", "id": ""}, "geometry": {"type": "Point", "coordinates": [-111.9781513, 43.498826]}}
{"type": "Feature", "properties": {"hash": "5b6f2f939482f5a1", "number": "2837", "street": "Brooklyn ST", "unit": "", "city": "Ammon", "district": "", "region": "ID", "postcode": "83406", "id": ""}, "geometry": {"type": "Point", "coordinates": [-111.9774126, 43.4988195]}}
{"type": "Feature", "properties": {"hash": "e600eddceb6f8cc7", "number": "2780", "street": "Brooklyn ST", "unit": "", "city": "Ammon", "district": "", "region": "ID", "postcode": "83406", "id": ""}, "geometry": {"type": "Point", "coordinates": [-111.9785138, 43.4983979]}}
{"type": "Feature", "properties": {"hash": "4dc3a48f74b590d3", "number": "2812", "street": "Brooklyn ST", "unit": "", "city": "Ammon", "district": "", "region": "ID", "postcode": "83406", "id": ""}, "geometry": {"type": "Point", "coordinates": [-111.9778824, 43.4983897]}}
{"type": "Feature", "properties": {"hash": "0027d5ec9c32562c", "number": "2783", "street": "Brooklyn ST", "unit": "", "city": "Ammon", "district": "", "region": "ID", "postcode": "83406", "id": ""}, "geometry": {"type": "Point", "coordinates": [-111.9784248, 43.4988288]}}
{"type": "Feature", "properties": {"hash": "fbe509f27894838d", "number": "246", "street": "Curlew DR", "unit": "", "city": "Ammon", "district": "", "region": "ID", "postcode": "83406", "id": ""}, "geometry": {"type": "Point", "coordinates": [-111.9772198, 43.4974834]}}
{"type": "Feature", "properties": {"hash": "5106855e3e9ec45d", "number": "2802", "street": "Brooklyn ST", "unit": "", "city": "Ammon", "district": "", "region": "ID", "postcode": "83406", "id": ""}, "geometry": {"type": "Point", "coordinates": [-111.9780918, 43.4983936]}}
{"type": "Feature", "properties": {"hash": "f276a3de713311b9", "number": "380", "street": "Curlew DR", "unit": "", "city": "Ammon", "district": "", "region": "ID", "postcode": "83406", "id": ""}, "geometry": {"type": "Point", "coordinates": [-111.9786678, 43.4990687]}}
{"type": "Feature", "properties": {"hash": "425b189a19ecd46c", "number": "2811", "street": "Brooklyn ST", "unit": "", "city": "Ammon", "district": "", "region": "ID", "postcode": "83406", "id": ""}, "geometry": {"type": "Point", "coordinates": [-111.9779036, 43.4988227]}}
{"type": "Feature", "properties": {"hash": "b98268753a7ff9c3", "number": "2824", "street": "Brooklyn ST", "unit": "", "city": "Ammon", "district": "", "region": "ID", "postcode": "83406", "id": ""}, "geometry": {"type": "Point", "coordinates": [-111.9776691, 43.4983865]}}
{"type": "Feature", "properties": {"hash": "9b648e2e468f29ba", "number": "2844", "street": "Brooklyn ST", "unit": "", "city": "Ammon", "district": "", "region": "ID", "postcode": "83406", "id": ""}, "geometry": {"type": "Point", "coordinates": [-111.9772543, 43.4983773]}}
{"type": "Feature", "properties": {"hash": "2f092f494835df6d", "number": "2792", "street": "Brooklyn ST", "unit": "", "city": "Ammon", "district": "", "region": "ID", "postcode": "83406", "id": ""}, "geometry": {"type": "Point", "coordinates": [-111.9783028, 43.4983928]}}
{"type": "Feature", "properties": {"hash": "4acbbc4b4d3a602e", "number": "2758", "street": "Brooklyn ST", "unit": "", "city": "Ammon", "district": "", "region": "ID", "postcode": "83406", "id": ""}, "geometry": {"type": "Point", "coordinates": [-111.9789754, 43.4984062]}}
{"type": "Feature", "properties": {"hash": "e7bfcc67cfb62c65", "number": "2849", "street": "Brooklyn ST", "unit": "", "city": "Ammon", "district": "", "region": "ID", "postcode": "83406", "id": ""}, "geometry": {"type": "Point", "coordinates": [-111.9771509, 43.4988191]}}
{"type": "Feature", "properties": {"hash": "1b1d4158a0e849ea", "number": "401", "street": "Curlew DR", "unit": "", "city": "Ammon", "district": "", "region": "ID", "postcode": "83406", "id": ""}, "geometry": {"type": "Point", "coordinates": [-111.979545, 43.4989139]}}
{"type": "Feature", "properties": {"hash": "595ccc0e587c7c2a", "number": "419", "street": "Curlew DR", "unit": "", "city": "Ammon", "district": "", "region": "ID", "postcode": "83406", "id": ""}, "geometry": {"type": "Point", "coordinates": [-111.9794109, 43.4991156]}}
{"type": "Feature", "properties": {"hash": "112b6234891f57d5", "number": "295", "street": "Coachman Dr DR", "unit": "", "city": "Idaho Falls", "district": "", "region": "ID", "postcode": "83402", "id": ""}, "geometry": {"type": "Point", "coordinates": [-112.0751393, 43.4974731]}}
{"type": "Feature", "properties": {"hash": "4986f9580c0f8751", "number": "1228", "street": "Event Center DR", "unit": "", "city": "Idaho Falls", "district": "", "region": "ID", "postcode": "83402", "id": ""}, "geometry": {"type": "Point", "coordinates": [-112.0583468, 43.4773062]}}
{"type": "Feature", "properties": {"hash": "3b910d92c68a85d5", "number": "5215", "street": "Tildy LN", "unit": "", "city": "Ammon", "district": "", "region": "ID", "postcode": "83406", "id": ""}, "geometry": {"type": "Point", "coordinates": [-111.9299592, 43.4727334]}}
{"type": "Feature", "properties": {"hash": "7145a8e5bf9ad241", "number": "6175", "street": "S 5th", "unit": "", "city": "Idaho Falls", "district": "", "region": "ID", "postcode": "83404", "id": ""}, "geometry": {"type": "Point", "coordinates": [-112.0432406, 43.442164]}}
{"type": "Feature", "properties": {"hash": "fb866bed61f90f16", "number": "1968", "street": "W Broadway", "unit": "", "city": "Idaho Falls", "district": "", "region": "ID", "postcode": "83402", "id": ""}, "geometry": {"type": "Point", "coordinates": [-112.0704019, 43.4971909]}}
{"type": "Feature", "properties": {"hash": "cd30ef2c14fc7ee2", "number": "4161", "street": "NORTHFORK DR", "unit": "", "city": "AHSAHKA", "district": "", "region": "ID", "postcode": "83520", "id": ""}, "geometry": {"type": "Point", "coordinates": [-116.3217721, 46.5055361]}}
{"type": "Feature", "properties": {"hash": "84a98c647a717e76", "number": "4161", "street": "NORTHFORK DR", "unit": "", "city": "AHSAHKA", "district": "", "region": "ID", "postcode": "83520", "id": ""}, "geometry": {"type": "Point", "coordinates": [-116.3218755, 46.5055952]}}
{"type": "Feature", "properties": {"hash": "c290921ea123664e", "number": "4161", "street": "NORTHFORK DR", "unit": "", "city": "AHSAHKA", "district": "", "region": "ID", "postcode": "83520", "id": ""}, "geometry": {"type": "Point", "coordinates": [-116.3219731, 46.5055107]}}
{"type": "Feature", "properties": {"hash": "56673b44aaf14a9b", "number": "4161", "street": "NORTHFORK DR", "unit": "", "city": "AHSAHKA", "district": "", "region": "ID", "postcode": "83520", "id": ""}, "geometry": {"type": "Point", "coordinates": [-116.322098, 46.5055749]}}
{"type": "Feature", "properties": {"hash": "1378d32f6a3a79d4", "number": "4161", "street": "NORTHFORK DR", "unit": "", "city": "AHSAHKA", "district": "", "region": "ID", "postcode": "83520", "id": ""}, "geometry": {"type": "Point", "coordinates": [-116.3221471, 46.5055493]}}
{"type": "Feature", "properties": {"hash": "71deef75900fdf7c", "number": "4161", "street": "NORTHFORK DR", "unit": "", "city": "AHSAHKA", "district": "", "region": "ID", "postcode": "83520", "id": ""}, "geometry": {"type": "Point", "coordinates": [-116.3219605, 46.5051394]}}
{"type": "Feature", "properties": {"hash": "0668030b98ff06eb", "number": "4161", "street": "NORTHFORK DR", "unit": "", "city": "AHSAHKA", "district": "", "region": "ID", "postcode": "83520", "id": ""}, "geometry": {"type": "Point", "coordinates": [-116.3215896, 46.5053257]}}
{"type": "Feature", "properties": {"hash": "a6606293c3c0252f", "number": "4161", "street": "NORTHFORK DR", "unit": "", "city": "AHSAHKA", "district": "", "region": "ID", "postcode": "83520", "id": ""}, "geometry": {"type": "Point", "coordinates": [-116.321586, 46.5054413]}}
{"type": "Feature", "properties": {"hash": "c8db578f4b853186", "number": "4161", "street": "NORTHFORK DR", "unit": "", "city": "AHSAHKA", "district": "", "region": "ID", "postcode": "83520", "id": ""}, "geometry": {"type": "Point", "coordinates": [-116.3216542, 46.5056215]}}
{"type": "Feature", "properties": {"hash": "ccd01b928e5ceb48", "number": "4165", "street": "NORTHFORK DR", "unit": "", "city": "AHSAHKA", "district": "", "region": "ID", "postcode": "83520", "id": ""}, "geometry": {"type": "Point", "coordinates": [-116.3219542, 46.5050216]}}
{"type": "Feature", "properties": {"hash": "3ea08b4be5c7f63b", "number": "4171", "street": "NORTHFORK DR M5", "unit": "", "city": "AHSAHKA", "district": "", "region": "ID", "postcode": "83520", "id": ""}, "geometry": {"type": "Point", "coordinates": [-116.3211519, 46.504921]}}
{"type": "Feature", "properties": {"hash": "b783a64a099823de", "number": "4171", "street": "NORTHFORK DR M4", "unit": "", "city": "AHSAHKA", "district": "", "region": "ID", "postcode": "83520", "id": ""}, "geometry": {"type": "Point", "coordinates": [-116.321156, 46.5049562]}}
{"type": "Feature", "properties": {"hash": "8039b622c82d05da", "number": "4171", "street": "NORTHFORK DR M6", "unit": "", "city": "AHSAHKA", "district": "", "region": "ID", "postcode": "83520", "id": ""}, "geometry": {"type": "Point", "coordinates": [-116.3211683, 46.504841]}}
{"type": "Feature", "properties": {"hash": "dfef7857b130a236", "number": "4171", "street": "NORTHFORK DR M7", "unit": "", "city": "AHSAHKA", "district": "", "region": "ID", "postcode": "83520", "id": ""}, "geometry": {"type": "Point", "coordinates": [-116.321172, 46.5048006]}}
{"type": "Feature", "properties": {"hash": "7126af219bff464d", "number": "4171", "street": "NORTHFORK DR M8", "unit": "", "city": "AHSAHKA", "district": "", "region": "ID", "postcode": "83520", "id": ""}, "geometry": {"type": "Point", "coordinates": [-116.3211723, 46.5047843]}}
{"type": "Feature", "properties": {"hash": "ead30b5b530f281b", "number": "4171", "street": "NORHTFORK DR", "unit": "", "city": "AHSAHKA", "district": "", "region": "ID", "postcode": "83520", "id": ""}, "geometry": {"type": "Point", "coordinates": [-116.3212268, 46.5047678]}}
{"type": "Feature", "properties": {"hash": "0dd9eeec9cae8161", "number": "4207", "street": "AHSAHKA LOOP RD", "unit": "", "city": "AHSAHKA", "district": "", "region": "ID", "postcode": "83520", "id": ""}, "geometry": {"type": "Point", "coordinates": [-116.3232874, 46.5058359]}}
{"type": "Feature", "properties": {"hash": "431633601f0d5dfa", "number": "4197", "street": "AHSAHKA LOOP RD", "unit": "", "city": "AHSAHKA", "district": "", "region": "ID", "postcode": "83520", "id": ""}, "geometry": {"type": "Point", "coordinates": [-116.3193902, 46.5065961]}}
{"type": "Feature", "properties": {"hash": "a37a65307fb73a59", "number": "1020", "street": "BOBCAT DR", "unit": "", "city": "AHSAHKA", "district": "", "region": "ID", "postcode": "83520", "id": ""}, "geometry": {"type": "Point", "coordinates": [-116.3539597, 46.5038509]}}
{"type": "Feature", "properties": {"hash": "59b9f48526b8388e", "number": "3430", "street": "DEBERTIN DR", "unit": "", "city": "OROFINO", "district": "", "region": "ID", "postcode": "83544", "id": ""}, "geometry": {"type": "Point", "coordinates": [-116.2219058, 46.4463498]}}
{"type": "Feature", "properties": {"hash": "f7292c4462fe9a15", "number": "3449", "street": "HWY 12", "unit": "", "city": "OROFINO", "district": "", "region": "ID", "postcode": "83544", "id": ""}, "geometry": {"type": "Point", "coordinates": [-116.2159054, 46.4403596]}}
{"type": "Feature", "properties": {"hash": "fb5ffb70c3307097", "number": "4385", "street": "HWY 11", "unit": "", "city": "OROFINO", "district": "", "region": "ID", "postcode": "83544", "id": ""}, "geometry": {"type": "Point", "coordinates": [-116.1595295, 46.3819469]}}
{"type": "Feature", "properties": {"hash": "704b134988270c79", "number": "4368", "street": "HWY 11", "unit": "", "city": "OROFINO", "district": "", "region": "ID", "postcode": "83544", "id": ""}, "geometry": {"type": "Point", "coordinates": [-116.1586312, 46.3910819]}}
{"type": "Feature", "properties": {"hash": "457cefb60fa1d085", "number": "4286", "street": "JACKSON RD", "unit": "", "city": "OROFINO", "district": "", "region": "ID", "postcode": "83544", "id": ""}, "geometry": {"type": "Point", "coordinates": [-116.0978365, 46.3907283]}}
{"type": "Feature", "properties": {"hash": "2ed1edcc224f8d75", "number": "4006", "street": "HWY 11", "unit": "", "city": "WEIPPE", "district": "", "region": "ID", "postcode": "83553", "id": ""}, "geometry": {"type": "Point", "coordinates": [-115.9490647, 46.3756405]}}
{"type": "Feature", "properties": {"hash": "8a0c0efc1a70be4c", "number": "10290", "street": "Woolstenhulme Way", "unit": "", "city": "Victor", "district": "", "region": "ID", "postcode": "83455", "id": "1"}, "geometry": {"type": "Point", "coordinates": [-111.079368, 43.5733398]}}
{"type": "Feature", "properties": {"hash": "b7258db99783e48e", "number": "10220", "street": "Alpenglow Ln", "unit": "", "city": "Victor", "district": "", "region": "ID", "postcode": "83455", "id": "2"}, "geometry": {"type": "Point", "coordinates": [-111.0811597, 43.5746337]}}
{"type": "Feature", "properties": {"hash": "097f28b2d633509f", "number": "10185", "street": "Alpenglow Ln", "unit": "", "city": "Victor", "district": "", "region": "ID", "postcode": "83455", "id": "3"}, "geometry": {"type": "Point", "coordinates": [-111.0811414, 43.5752352]}}
{"type": "Feature", "properties": {"hash": "2a40c74396c8961a", "number": "10025", "street": "S 500 E", "unit": "", "city": "Victor", "district": "", "region": "ID", "postcode": "83455", "id": "4"}, "geometry": {"type": "Point", "coordinates": [-111.0916067, 43.5774623]}}
{"type": "Feature", "properties": {"hash": "b6e438fad79036ba", "number": "10310", "street": "Woolstenhulme Way", "unit": "", "city": "Victor", "district": "", "region": "ID", "postcode": "83455", "id": "5"}, "geometry": {"type": "Point", "coordinates": [-111.0784991, 43.573198]}}
{"type": "Feature", "properties": {"hash": "7d43cca449fc81ff", "number": "10250", "street": "Alpenglow Ln", "unit": "", "city": "Victor", "district": "", "region": "ID", "postcode": "83455", "id": "6"}, "geometry": {"type": "Point", "coordinates": [-111.0799099, 43.5738928]}}
{"type": "Feature", "properties": {"hash": "4c133c275d74dfb2", "number": "9948", "street": "S 1000 W", "unit": "", "city": "Victor", "district": "", "region": "ID", "postcode": "83455", "id": "7"}, "geometry": {"type": "Point", "coordinates": [-111.1215202, 43.5784527]}}
{"type": "Feature", "properties": {"hash": "0d90514529ebd77a", "number": "9983", "street": "Little Pine Ln", "unit": "", "city": "Victor", "district": "", "region": "ID", "postcode": "83455", "id": "8"}, "geometry": {"type": "Point", "coordinates": [-111.1743685, 43.5785768]}}
{"type": "Feature", "properties": {"hash": "f9d475d8ba39954b", "number": "9952", "street": "Little Pine Ln", "unit": "", "city": "Victor", "district": "", "region": "ID", "postcode": "83455", "id": "9"}, "geometry": {"type": "Point", "coordinates": [-111.1754568, 43.5789186]}}
{"type": "Feature", "properties": {"hash": "8d7f116096c48ee4", "number": "9899", "street": "Little Pine Ln", "unit": "", "city": "Victor", "district": "", "region": "ID", "postcode": "83455", "id": "10"}, "geometry": {"type": "Point", "coordinates": [-111.1741913, 43.5797671]}}
{"type": "Feature", "properties": {"hash": "3974e3a080eeaaaf", "number": "9809", "street": "Little Pine Ln", "unit": "", "city": "Victor", "district": "", "region": "ID", "postcode": "83455", "id": "11"}, "geometry": {"type": "Point", "coordinates": [-111.1743635, 43.5808486]}}
{"type": "Feature", "properties": {"hash": "5198eceb5404ada4", "number": "9790", "street": "Little Pine Ln", "unit": "", "city": "Victor", "district": "", "region": "ID", "postcode": "83455", "id": "12"}, "geometry": {"type": "Point", "coordinates": [-111.1755988, 43.5814539]}}
{"type": "Feature", "properties": {"hash": "8cdfba49134cde66", "number": "9760", "street": "Little Pine Ln", "unit": "", "city": "Victor", "district": "", "region": "ID", "postcode": "83455", "id": "13"}, "geometry": {"type": "Point", "coordinates": [-111.1753044, 43.5817813]}}
{"type": "Feature", "properties": {"hash": "176e677029eeea8e", "number": "9715", "street": "Little Pine Ln", "unit": "", "city": "Victor", "district": "", "region": "ID", "postcode": "83455", "id": "14"}, "geometry": {"type": "Point", "coordinates": [-111.1731162, 43.5820648]}}
{"type": "Feature", "properties": {"hash": "7164773439e8eb8d", "number": "9668", "street": "Little Pine Ln", "unit": "", "city": "Victor", "district": "", "region": "ID", "postcode": "83455", "id": "15"}, "geometry": {"type": "Point", "coordinates": [-111.1739673, 43.5832878]}}
{"type": "Feature", "properties": {"hash": "1265e215cc0590f4", "number": "9645", "street": "Little Pine Ln", "unit": "", "city": "Victor", "district": "", "region": "ID", "postcode": "83455", "id": "16"}, "geometry": {"type": "Point", "coordinates": [-111.1728252, 43.5833483]}}
{"type": "Feature", "properties": {"hash": "a04bfc96a2fcd123", "number": "9448", "street": "Little Pine Ln", "unit": "", "city": "Victor", "district": "", "region": "ID", "postcode": "83455", "id": "17"}, "geometry": {"type": "Point", "coordinates": [-111.1738465, 43.5864984]}}
{"type": "Feature", "properties": {"hash": "02e9b28124b280a7", "number": "9436", "street": "Little Pine Ln", "unit": "", "city": "Victor", "district": "", "region": "ID", "postcode": "83455", "id": "18"}, "geometry": {"type": "Point", "coordinates": [-111.1732534, 43.5866268]}}
{"type": "Feature", "properties": {"hash": "e5063e4bc67ae44c", "number": "10702", "street": "S 1000 W", "unit": "", "city": "Victor", "district": "", "region": "ID", "postcode": "83455", "id": "19"}, "geometry": {"type": "Point", "coordinates": [-111.1214958, 43.5677475]}}
{"type": "Feature", "properties": {"hash": "26e48dff5c1bf5ac", "number": "10875", "street": "S 1000 W", "unit": "", "city": "Victor", "district": "", "region": "ID", "postcode": "83455", "id": "20"}, "geometry": {"type": "Point", "coordinates": [-111.1209142, 43.5661208]}}
{"type": "Feature", "properties": {"hash": "3cb75e4c2fbdfa6b", "number": "1265", "street": "W 9500 S", "unit": "", "city": "Victor", "district": "", "region": "ID", "postcode": "83455", "id": "21"}, "geometry": {"type": "Point", "coordinates": [-111.1265637, 43.584742]}}
{"type": "Feature", "properties": {"hash": "b14ddc6c01fd3b0e", "number": "1465", "street": "W 9500 S", "unit": "", "city": "Victor", "district": "", "region": "ID", "postcode": "83455", "id": "22"}, "geometry": {"type": "Point", "coordinates": [-111.1306137, 43.5850552]}}
{"type": "Feature", "properties": {"hash": "79f612ff11f6cc48", "number": "9540", "street": "S 2000 W", "unit": "", "city": "Victor", "district": "", "region": "ID", "postcode": "83455", "id": "23"}, "geometry": {"type": "Point", "coordinates": [-111.1417559, 43.5847284]}}
{"type": "Feature", "properties": {"hash": "6c57cfa965fef7ab", "number": "9502", "street": "S 2000 W", "unit": "", "city": "Victor", "district": "", "region": "ID", "postcode": "83455", "id": "24"}, "geometry": {"type": "Point", "coordinates": [-111.1434398, 43.5849971]}}
{"type": "Feature", "properties": {"hash": "94bef30a58cd56de", "number": "9790", "street": "S 2000 W", "unit": "", "city": "Victor", "district": "", "region": "ID", "postcode": "83455", "id": "25"}, "geometry": {"type": "Point", "coordinates": [-111.1415853, 43.5810015]}}
