{"type": "Feature", "properties": {"hash": "fecf41d9931434cf", "number": "112", "street": "BELT AVE", "unit": "", "city": "O'FALLON", "district": "", "region": "IL", "postcode": "62269", "id": ""}, "geometry": {"type": "Point", "coordinates": [-89.9491134, 38.5903746]}}
{"type": "Feature", "properties": {"hash": "d67c84fbbdc0cb65", "number": "1040", "street": "OXFORD HILL RD", "unit": "", "city": "O'FALLON", "district": "", "region": "IL", "postcode": "62269", "id": ""}, "geometry": {"type": "Point", "coordinates": [-89.8845747, 38.6210694]}}
{"type": "Feature", "properties": {"hash": "962e6e7c5ea83d18", "number": "1046", "street": "THORNBURY PL", "unit": "", "city": "O'FALLON", "district": "", "region": "IL", "postcode": "62269", "id": ""}, "geometry": {"type": "Point", "coordinates": [-89.8842065, 38.6183064]}}
{"type": "Feature", "properties": {"hash": "85d3eb3bca423085", "number": "1025", "street": "STONYBROOK DR", "unit": "", "city": "O'FALLON", "district": "", "region": "IL", "postcode": "62269", "id": ""}, "geometry": {"type": "Point", "coordinates": [-89.9131665, 38.6063464]}}
{"type": "Feature", "properties": {"hash": "2bd951253e6c2a60", "number": "845", "street": "DEER CREEK RD", "unit": "", "city": "O'FALLON", "district": "", "region": "IL", "postcode": "62269", "id": ""}, "geometry": {"type": "Point", "coordinates": [-89.8930021, 38.6129923]}}
{"type": "Feature", "properties": {"hash": "ee4a84732d4232ed", "number": "112", "street": "E 3RD ST", "unit": "", "city": "O'FALLON", "district": "", "region": "IL", "postcode": "62269", "id": ""}, "geometry": {"type": "Point", "coordinates": [-89.909943, 38.5903217]}}
{"type": "Feature", "properties": {"hash": "7d0179845e9eec38", "number": "217", "street": "W 4TH ST", "unit": "", "city": "O'FALLON", "district": "", "region": "IL", "postcode": "62269", "id": ""}, "geometry": {"type": "Point", "coordinates": [-89.9136849, 38.5891415]}}
{"type": "Feature", "properties": {"hash": "d5777f1f70070147", "number": "502", "street": "W JEFFERSON ST", "unit": "", "city": "O'FALLON", "district": "", "region": "IL", "postcode": "62269", "id": ""}, "geometry": {"type": "Point", "coordinates": [-89.9174574, 38.5953152]}}
{"type": "Feature", "properties": {"hash": "56172f0a7d7c2a13", "number": "107", "street": "WILLOW DR", "unit": "", "city": "O'FALLON", "district": "", "region": "IL", "postcode": "62269", "id": ""}, "geometry": {"type": "Point", "coordinates": [-89.9207281, 38.5932793]}}
{"type": "Feature", "properties": {"hash": "954706b06b33616f", "number": "409", "street": "PIERCE BLVD", "unit": "", "city": "O'FALLON", "district": "", "region": "IL", "postcode": "62269", "id": ""}, "geometry": {"type": "Point", "coordinates": [-89.9228877, 38.5781293]}}
{"type": "Feature", "properties": {"hash": "f74338b8526d04bf", "number": "208", "street": "W 2ND ST", "unit": "", "city": "O'FALLON", "district": "", "region": "IL", "postcode": "62269", "id": ""}, "geometry": {"type": "Point", "coordinates": [-89.9129598, 38.5914177]}}
{"type": "Feature", "properties": {"hash": "5c4226960e110713", "number": "1014", "street": "EDGEWOOD DR", "unit": "", "city": "O'FALLON", "district": "", "region": "IL", "postcode": "62269", "id": ""}, "geometry": {"type": "Point", "coordinates": [-89.8944337, 38.5768695]}}
{"type": "Feature", "properties": {"hash": "d2b228b76769837f", "number": "1302", "street": "DORAL CT", "unit": "", "city": "O'FALLON", "district": "", "region": "IL", "postcode": "62269", "id": ""}, "geometry": {"type": "Point", "coordinates": [-89.9002213, 38.5803387]}}
{"type": "Feature", "properties": {"hash": "0b11da3388b03912", "number": "503", "street": "REBECCA DR", "unit": "", "city": "O'FALLON", "district": "", "region": "IL", "postcode": "62269", "id": ""}, "geometry": {"type": "Point", "coordinates": [-89.9042607, 38.5815747]}}
{"type": "Feature", "properties": {"hash": "eb14c7c64f62db60", "number": "1108", "street": "BARBER ST", "unit": "", "city": "WEST CHICAGO      ", "district": "", "region": "IL", "postcode": "60185", "id": ""}, "geometry": {"type": "Point", "coordinates": [-88.2024987, 41.8669164]}}
{"type": "Feature", "properties": {"hash": "82f9f8c22072640f", "number": "6717", "street": "LEONARD DR", "unit": "", "city": "DARIEN            ", "district": "", "region": "IL", "postcode": "60561", "id": ""}, "geometry": {"type": "Point", "coordinates": [-87.9629835, 41.7652642]}}
{"type": "Feature", "properties": {"hash": "88fe7eb6ee49944b", "number": "7349", "street": "S PARK AVE", "unit": "", "city": "BURR RIDGE        ", "district": "", "region": "IL", "postcode": "60527", "id": ""}, "geometry": {"type": "Point", "coordinates": [-87.9226377, 41.7551826]}}
{"type": "Feature", "properties": {"hash": "417b7334fcebf52e", "number": "919", "street": "WHITEWATER LN", "unit": "", "city": "NAPERVILLE        ", "district": "", "region": "IL", "postcode": "60540", "id": ""}, "geometry": {"type": "Point", "coordinates": [-88.1824259, 41.75338]}}
{"type": "Feature", "properties": {"hash": "bd25993ec9c0fed0", "number": "728", "street": "CARDIGAN CT", "unit": "", "city": "NAPERVILLE        ", "district": "", "region": "IL", "postcode": "60565", "id": ""}, "geometry": {"type": "Point", "coordinates": [-88.1595301, 41.7434885]}}
{"type": "Feature", "properties": {"hash": "52bcf025b422d9ca", "number": "1712", "street": "MONMOUTH PL", "unit": "", "city": "DOWNERS GROVE     ", "district": "", "region": "IL", "postcode": "60516", "id": ""}, "geometry": {"type": "Point", "coordinates": [-88.0249908, 41.761186]}}
{"type": "Feature", "properties": {"hash": "c4a163f69ae5db3b", "number": "9", "street": "S THURLOW ST", "unit": "", "city": "HINSDALE          ", "district": "", "region": "IL", "postcode": "60521", "id": ""}, "geometry": {"type": "Point", "coordinates": [-87.9377748, 41.803046]}}
{"type": "Feature", "properties": {"hash": "a84245ba902cd940", "number": "29W439", "street": "CANDLEWOOD LN", "unit": "", "city": "WARRENVILLE       ", "district": "", "region": "IL", "postcode": "60555", "id": ""}, "geometry": {"type": "Point", "coordinates": [-88.1962891, 41.823116]}}
{"type": "Feature", "properties": {"hash": "2955864c02c2e1de", "number": "2329", "street": "CHARMINGFARE DR", "unit": "", "city": "WOODRIDGE         ", "district": "", "region": "IL", "postcode": "60517", "id": ""}, "geometry": {"type": "Point", "coordinates": [-88.0398686, 41.7479909]}}
{"type": "Feature", "properties": {"hash": "fb0d179d25ec1b53", "number": "1301", "street": "S ADDISON AVE", "unit": "", "city": "LOMBARD           ", "district": "", "region": "IL", "postcode": "60148", "id": ""}, "geometry": {"type": "Point", "coordinates": [-87.987389, 41.8583541]}}
{"type": "Feature", "properties": {"hash": "556dae7e415ca44d", "number": "920", "street": "KENT AVE", "unit": "", "city": "ELMHURST          ", "district": "", "region": "IL", "postcode": "60126", "id": ""}, "geometry": {"type": "Point", "coordinates": [-87.9384968, 41.8705247]}}
{"type": "Feature", "properties": {"hash": "0a8963c26ddafc75", "number": "2N775", "street": "ALMA AVE", "unit": "", "city": "LOMBARD           ", "district": "", "region": "IL", "postcode": "60148", "id": ""}, "geometry": {"type": "Point", "coordinates": [-88.0394674, 41.9185266]}}
{"type": "Feature", "properties": {"hash": "953d5d6441f5619f", "number": "985", "street": "E CREST AVE", "unit": "", "city": "ADDISON           ", "district": "", "region": "IL", "postcode": "60101", "id": ""}, "geometry": {"type": "Point", "coordinates": [-87.9668809, 41.9438911]}}
{"type": "Feature", "properties": {"hash": "0e1dda286d2e9a40", "number": "800", "street": "BRANDYWINE DR", "unit": "", "city": "ROSELLE           ", "district": "", "region": "IL", "postcode": "60172", "id": ""}, "geometry": {"type": "Point", "coordinates": [-88.1006001, 41.9752071]}}
{"type": "Feature", "properties": {"hash": "032e104f4f33a112", "number": "25819", "street": "W Grass Lake Rd", "unit": "Ste 6", "city": "Antioch", "district": "", "region": "IL", "postcode": "60002", "id": ""}, "geometry": {"type": "Point", "coordinates": [-88.1360836, 42.4459859]}}
{"type": "Feature", "properties": {"hash": "80f262f3956cc491", "number": "25819", "street": "W Grass Lake Rd", "unit": "Ste 7", "city": "Antioch", "district": "", "region": "IL", "postcode": "60002", "id": ""}, "geometry": {"type": "Point", "coordinates": [-88.1360836, 42.4459859]}}
{"type": "Feature", "properties": {"hash": "44e1b06db50e51a5", "number": "25819", "street": "W Grass Lake Rd", "unit": "Ste 8", "city": "Antioch", "district": "", "region": "IL", "postcode": "60002", "id": ""}, "geometry": {"type": "Point", "coordinates": [-88.1360836, 42.4459859]}}
{"type": "Feature", "properties": {"hash": "fccc73333f3ec252", "number": "1055", "street": "Main St", "unit": "", "city": "Antioch", "district": "", "region": "IL", "postcode": "60002", "id": ""}, "geometry": {"type": "Point", "coordinates": [-88.0941852, 42.4740057]}}
{"type": "Feature", "properties": {"hash": "44e07e1eada012d1", "number": "43178", "street": "N Hunt Club Rd", "unit": "", "city": "Antioch", "district": "", "region": "IL", "postcode": "60002", "id": ""}, "geometry": {"type": "Point", "coordinates": [-87.9723288, 42.4899521]}}
{"type": "Feature", "properties": {"hash": "c08e171d4ce85554", "number": "303", "street": "Main St", "unit": "Ste 106", "city": "Antioch", "district": "", "region": "IL", "postcode": "60002", "id": ""}, "geometry": {"type": "Point", "coordinates": [-88.0934577, 42.4949524]}}
{"type": "Feature", "properties": {"hash": "28030c628dbd98fa", "number": "303", "street": "Main St", "unit": "Ste 107", "city": "Antioch", "district": "", "region": "IL", "postcode": "60002", "id": ""}, "geometry": {"type": "Point", "coordinates": [-88.0934577, 42.4949524]}}
{"type": "Feature", "properties": {"hash": "b36d27eaff743917", "number": "303", "street": "Main St", "unit": "Ste 108", "city": "Antioch", "district": "", "region": "IL", "postcode": "60002", "id": ""}, "geometry": {"type": "Point", "coordinates": [-88.0934577, 42.4949524]}}
{"type": "Feature", "properties": {"hash": "0f1c407581b7e41a", "number": "303", "street": "Main St", "unit": "Ste 109", "city": "Antioch", "district": "", "region": "IL", "postcode": "60002", "id": ""}, "geometry": {"type": "Point", "coordinates": [-88.0934577, 42.4949524]}}
{"type": "Feature", "properties": {"hash": "9341d998d1acd4b3", "number": "25819", "street": "W Grass Lake Rd", "unit": "Ste 9", "city": "Antioch", "district": "", "region": "IL", "postcode": "60002", "id": ""}, "geometry": {"type": "Point", "coordinates": [-88.1360836, 42.4459859]}}
{"type": "Feature", "properties": {"hash": "5e3ecd98f4b1305d", "number": "25867", "street": "W Grass Lake Rd", "unit": "Unit 1", "city": "Antioch", "district": "", "region": "IL", "postcode": "60002", "id": ""}, "geometry": {"type": "Point", "coordinates": [-88.1373525, 42.4454081]}}
{"type": "Feature", "properties": {"hash": "35b02488cb99e4d6", "number": "25903", "street": "W Grass Lake Rd", "unit": "", "city": "Antioch", "district": "", "region": "IL", "postcode": "60002", "id": ""}, "geometry": {"type": "Point", "coordinates": [-88.1376679, 42.4448508]}}
{"type": "Feature", "properties": {"hash": "c4795afc09d30b9e", "number": "303", "street": "Main St", "unit": "Ste 110", "city": "Antioch", "district": "", "region": "IL", "postcode": "60002", "id": ""}, "geometry": {"type": "Point", "coordinates": [-88.0934577, 42.4949524]}}
{"type": "Feature", "properties": {"hash": "e71488da3c124244", "number": "303", "street": "Main St", "unit": "Ste 111", "city": "Antioch", "district": "", "region": "IL", "postcode": "60002", "id": ""}, "geometry": {"type": "Point", "coordinates": [-88.0934577, 42.4949524]}}
{"type": "Feature", "properties": {"id": "", "unit": "", "number": "232", "street": "FORREST LN", "city": "MEREDOSIA", "district": "", "region": "IL", "postcode": "62665", "hash": "53f7f38ab0b70930"}, "geometry": {"type": "Point", "coordinates": [-90.5585527, 39.8405162]}}
{"type": "Feature", "properties": {"id": "", "unit": "", "number": "228", "street": "FORREST LN", "city": "MEREDOSIA", "district": "", "region": "IL", "postcode": "62665", "hash": "76e2627cb7d5ece8"}, "geometry": {"type": "Point", "coordinates": [-90.5585485, 39.840048]}}
{"type": "Feature", "properties": {"id": "", "unit": "", "number": "224", "street": "FORREST LN", "city": "MEREDOSIA", "district": "", "region": "IL", "postcode": "62665", "hash": "ac876343bbef21cc"}, "geometry": {"type": "Point", "coordinates": [-90.5585669, 39.8396796]}}
{"type": "Feature", "properties": {"id": "", "unit": "", "number": "218", "street": "FORREST LN", "city": "MEREDOSIA", "district": "", "region": "IL", "postcode": "62665", "hash": "2653a1b2d2ffc253"}, "geometry": {"type": "Point", "coordinates": [-90.5585672, 39.8390841]}}
{"type": "Feature", "properties": {"id": "", "unit": "", "number": "212", "street": "FORREST LN", "city": "MEREDOSIA", "district": "", "region": "IL", "postcode": "62665", "hash": "fd81426a82a8676a"}, "geometry": {"type": "Point", "coordinates": [-90.5585639, 39.8387189]}}
{"type": "Feature", "properties": {"id": "", "unit": "", "number": "198", "street": "FORREST LN", "city": "MEREDOSIA", "district": "", "region": "IL", "postcode": "62665", "hash": "ecbb1dc082fc2cab"}, "geometry": {"type": "Point", "coordinates": [-90.5585676, 39.838393]}}
{"type": "Feature", "properties": {"id": "", "unit": "", "number": "188", "street": "FORREST LN", "city": "MEREDOSIA", "district": "", "region": "IL", "postcode": "62665", "hash": "9095a2b8c9b47e5c"}, "geometry": {"type": "Point", "coordinates": [-90.5585736, 39.8380193]}}
{"type": "Feature", "properties": {"id": "", "unit": "", "number": "178", "street": "FORREST LN", "city": "MEREDOSIA", "district": "", "region": "IL", "postcode": "62665", "hash": "e99be8fc88145787"}, "geometry": {"type": "Point", "coordinates": [-90.558593, 39.8377071]}}
{"type": "Feature", "properties": {"id": "", "unit": "", "number": "166", "street": "FORREST LN", "city": "MEREDOSIA", "district": "", "region": "IL", "postcode": "62665", "hash": "2d3921356705d2d4"}, "geometry": {"type": "Point", "coordinates": [-90.5585933, 39.8373904]}}
{"type": "Feature", "properties": {"id": "", "unit": "", "number": "154", "street": "FORREST LN", "city": "MEREDOSIA", "district": "", "region": "IL", "postcode": "62665", "hash": "590229b32f61d592"}, "geometry": {"type": "Point", "coordinates": [-90.5586063, 39.8370698]}}
{"type": "Feature", "properties": {"id": "", "unit": "", "number": "142", "street": "FORREST LN", "city": "MEREDOSIA", "district": "", "region": "IL", "postcode": "62665", "hash": "d972f81038fca3ce"}, "geometry": {"type": "Point", "coordinates": [-90.5586018, 39.8367166]}}
{"type": "Feature", "properties": {"id": "", "unit": "", "number": "238", "street": "BEACH RD", "city": "MEREDOSIA", "district": "", "region": "IL", "postcode": "62665", "hash": "90f4bade06ee3fc9"}, "geometry": {"type": "Point", "coordinates": [-90.5575462, 39.8407149]}}
{"type": "Feature", "properties": {"id": "", "unit": "", "number": "228", "street": "BEACH RD", "city": "MEREDOSIA", "district": "", "region": "IL", "postcode": "62665", "hash": "bbf7e6a301b1c66b"}, "geometry": {"type": "Point", "coordinates": [-90.5575423, 39.8403165]}}
{"type": "Feature", "properties": {"id": "", "unit": "", "number": "224", "street": "BEACH RD", "city": "MEREDOSIA", "district": "", "region": "IL", "postcode": "62665", "hash": "911604031de2e12b"}, "geometry": {"type": "Point", "coordinates": [-90.5575555, 39.8396607]}}
{"type": "Feature", "properties": {"hash": "cf17c0d644f24a98", "number": "23215", "street": "N DUNCAN RD", "unit": "", "city": "PRINCEVILLE", "district": "", "region": "IL", "postcode": "61559", "id": ""}, "geometry": {"type": "Point", "coordinates": [-89.8156681, 40.9710167]}}
{"type": "Feature", "properties": {"hash": "e25943177b4e61aa", "number": "14813", "street": "W STREITMATTER RD", "unit": "", "city": "PRINCEVILLE", "district": "", "region": "IL", "postcode": "61559", "id": ""}, "geometry": {"type": "Point", "coordinates": [-89.8279407, 40.9620082]}}
{"type": "Feature", "properties": {"hash": "b8fe584db5d92a68", "number": "22307", "street": "N ELLIOTT RD", "unit": "", "city": "PRINCEVILLE", "district": "", "region": "IL", "postcode": "61559", "id": ""}, "geometry": {"type": "Point", "coordinates": [-89.81427, 40.960299]}}
{"type": "Feature", "properties": {"hash": "39bb05db7aec750f", "number": "14520", "street": "W STREITMATTER RD", "unit": "", "city": "PRINCEVILLE", "district": "", "region": "IL", "postcode": "61559", "id": ""}, "geometry": {"type": "Point", "coordinates": [-89.8255852, 40.9546379]}}
{"type": "Feature", "properties": {"hash": "04dcf367cfdcc9b8", "number": "14518", "street": "W STREITMATTER RD", "unit": "", "city": "PRINCEVILLE", "district": "", "region": "IL", "postcode": "61559", "id": ""}, "geometry": {"type": "Point", "coordinates": [-89.821723, 40.9567463]}}
{"type": "Feature", "properties": {"hash": "7adb595f434ea688", "number": "14705", "street": "W MENDELL RD", "unit": "", "city": "PRINCEVILLE", "district": "", "region": "IL", "postcode": "61559", "id": ""}, "geometry": {"type": "Point", "coordinates": [-89.8268875, 40.9459008]}}
{"type": "Feature", "properties": {"hash": "7527dab6f06ac4fb", "number": "23203", "street": "N DUNCAN RD", "unit": "", "city": "PRINCEVILLE", "district": "", "region": "IL", "postcode": "61559", "id": ""}, "geometry": {"type": "Point", "coordinates": [-89.7977229, 40.970983]}}
{"type": "Feature", "properties": {"hash": "3846ddf93101953e", "number": "13401", "street": "W STREITMATTER RD", "unit": "", "city": "PRINCEVILLE", "district": "", "region": "IL", "postcode": "61559", "id": ""}, "geometry": {"type": "Point", "coordinates": [-89.8086212, 40.9635022]}}
{"type": "Feature", "properties": {"hash": "3e94e48b0cfece63", "number": "13407", "street": "W MENDELL RD", "unit": "", "city": "PRINCEVILLE", "district": "", "region": "IL", "postcode": "61559", "id": ""}, "geometry": {"type": "Point", "coordinates": [-89.8061286, 40.9455671]}}
{"type": "Feature", "properties": {"hash": "d5517eb5c3597302", "number": "12719", "street": "W MENDELL RD", "unit": "", "city": "PRINCEVILLE", "district": "", "region": "IL", "postcode": "61559", "id": ""}, "geometry": {"type": "Point", "coordinates": [-89.7951839, 40.9457179]}}
{"type": "Feature", "properties": {"hash": "0233879b9be77d6c", "number": "19008", "street": "N MAHER RD", "unit": "", "city": "PRINCEVILLE", "district": "", "region": "IL", "postcode": "61559", "id": ""}, "geometry": {"type": "Point", "coordinates": [-89.8645771, 40.9223417]}}
{"type": "Feature", "properties": {"hash": "d4a6a5a58bd08785", "number": "16008", "street": "W MENDELL RD", "unit": "", "city": "PRINCEVILLE", "district": "", "region": "IL", "postcode": "61559", "id": ""}, "geometry": {"type": "Point", "coordinates": [-89.8469217, 40.9447428]}}
{"type": "Feature", "properties": {"hash": "08b031f147dc1117", "number": "15800", "street": "W MENDELL RD", "unit": "", "city": "PRINCEVILLE", "district": "", "region": "IL", "postcode": "61559", "id": ""}, "geometry": {"type": "Point", "coordinates": [-89.8436829, 40.9451931]}}
{"type": "Feature", "properties": {"hash": "4842a3a1f91d257a", "number": "15413", "street": "W ROUTE 90", "unit": "", "city": "PRINCEVILLE", "district": "", "region": "IL", "postcode": "61559", "id": ""}, "geometry": {"type": "Point", "coordinates": [-89.8388802, 40.9312789]}}
{"type": "Feature", "properties": {"id": "", "unit": "", "number": "580", "street": "E 500 NORTH RD", "city": "HERRICK", "district": "", "region": "IL", "postcode": "62431", "hash": "65c8da40aaca758e"}, "geometry": {"type": "Point", "coordinates": [-89.0287244, 39.2879936]}}
{"type": "Feature", "properties": {"id": "", "unit": "", "number": "14", "street": "N 600 EAST RD", "city": "HERRICK", "district": "", "region": "IL", "postcode": "62431", "hash": "6f42cbe405d17820"}, "geometry": {"type": "Point", "coordinates": [-89.0257235, 39.220274]}}
{"type": "Feature", "properties": {"id": "", "unit": "", "number": "27", "street": "N 450 EAST RD", "city": "HERRICK", "district": "", "region": "IL", "postcode": "62431", "hash": "3c6207307390afe9"}, "geometry": {"type": "Point", "coordinates": [-89.0539105, 39.2200276]}}
{"type": "Feature", "properties": {"id": "", "unit": "", "number": "769", "street": "COUNTY HIGHWAY 13", "city": "HERRICK", "district": "", "region": "IL", "postcode": "62431", "hash": "e619ab11583afbdd"}, "geometry": {"type": "Point", "coordinates": [-88.9974002, 39.2159072]}}
{"type": "Feature", "properties": {"id": "", "unit": "", "number": "927", "street": "COUNTY HIGHWAY 22", "city": "HERRICK", "district": "", "region": "IL", "postcode": "62431", "hash": "706e96f06ea12c9d"}, "geometry": {"type": "Point", "coordinates": [-88.9675599, 39.2162887]}}
{"type": "Feature", "properties": {"id": "", "unit": "", "number": "1039", "street": "COUNTY HIGHWAY 22", "city": "HERRICK", "district": "", "region": "IL", "postcode": "62431", "hash": "3453735c868236a3"}, "geometry": {"type": "Point", "coordinates": [-88.9473526, 39.2164483]}}
{"type": "Feature", "properties": {"id": "", "unit": "", "number": "550", "street": "E 500 NORTH RD", "city": "HERRICK", "district": "", "region": "IL", "postcode": "62431", "hash": "ccd7df2813ccffb3"}, "geometry": {"type": "Point", "coordinates": [-89.0343239, 39.2882486]}}
{"type": "Feature", "properties": {"id": "", "unit": "", "number": "620", "street": "N 700 EAST RD", "city": "HERRICK", "district": "", "region": "IL", "postcode": "62431", "hash": "fd229eebdb2b540f"}, "geometry": {"type": "Point", "coordinates": [-89.0149678, 39.3050575]}}
{"type": "Feature", "properties": {"id": "", "unit": "", "number": "645", "street": "N 600 EAST RD", "city": "HERRICK", "district": "", "region": "IL", "postcode": "62431", "hash": "4aec0f82140ec14c"}, "geometry": {"type": "Point", "coordinates": [-89.0255035, 39.3087561]}}
{"type": "Feature", "properties": {"id": "", "unit": "", "number": "547", "street": "COUNTY HIGHWAY 13", "city": "HERRICK", "district": "", "region": "IL", "postcode": "62431", "hash": "59923f9f76e99a08"}, "geometry": {"type": "Point", "coordinates": [-89.0353742, 39.233757]}}
{"type": "Feature", "properties": {"id": "", "unit": "", "number": "149", "street": "N 975 EAST RD", "city": "HERRICK", "district": "", "region": "IL", "postcode": "62431", "hash": "f27fcb3142ac0c58"}, "geometry": {"type": "Point", "coordinates": [-88.9590631, 39.237682]}}
{"type": "Feature", "properties": {"id": "", "unit": "", "number": "139", "street": "N 500 EAST RD", "city": "HERRICK", "district": "", "region": "IL", "postcode": "62431", "hash": "43d6804edac39ce7"}, "geometry": {"type": "Point", "coordinates": [-89.0444154, 39.2359657]}}
{"type": "Feature", "properties": {"id": "", "unit": "", "number": "145", "street": "N 600 EAST RD", "city": "HERRICK", "district": "", "region": "IL", "postcode": "62431", "hash": "6435586294d1cab1"}, "geometry": {"type": "Point", "coordinates": [-89.0257669, 39.2368807]}}
{"type": "Feature", "properties": {"id": "", "unit": "", "number": "155", "street": "N 1100 EAST RD", "city": "HERRICK", "district": "", "region": "IL", "postcode": "62431", "hash": "34a03e3db8d04e2f"}, "geometry": {"type": "Point", "coordinates": [-88.9358963, 39.2389252]}}
{"type": "Feature", "properties": {"id": "", "unit": "", "number": "1720", "street": "S  BELT WEST", "city": "BELLEVILLE          ", "district": "", "region": "IL", "postcode": "62226     ", "hash": "9623d51dbb3d8506"}, "geometry": {"type": "Point", "coordinates": [-90.0079934, 38.5155342]}}
{"type": "Feature", "properties": {"id": "", "unit": "", "number": "1700", "street": "S  BELT WEST", "city": "BELLEVILLE          ", "district": "", "region": "IL", "postcode": "62226     ", "hash": "bfd1e4fde5766628"}, "geometry": {"type": "Point", "coordinates": [-90.0079383, 38.5150547]}}
{"type": "Feature", "properties": {"id": "", "unit": "", "number": "701", "street": "W  HANOVER              ST", "city": "NEW BADEN           ", "district": "", "region": "IL", "postcode": "62265     ", "hash": "942bd681df0782b2"}, "geometry": {"type": "Point", "coordinates": [-89.716761, 38.534807]}}
{"type": "Feature", "properties": {"id": "", "unit": "", "number": "1115", "street": "N  18TH                 ST", "city": "EAST SAINT LOUIS    ", "district": "", "region": "IL", "postcode": "62205     ", "hash": "7e5a92d748a45333"}, "geometry": {"type": "Point", "coordinates": [-90.1322593, 38.6288567]}}
{"type": "Feature", "properties": {"id": "", "unit": "", "number": "3235", "street": "BIRKNER              RD", "city": "NEW ATHENS          ", "district": "", "region": "IL", "postcode": "62264     ", "hash": "1420b7a5e4883428"}, "geometry": {"type": "Point", "coordinates": [-90.0203642, 38.3395343]}}
{"type": "Feature", "properties": {"id": "", "unit": "", "number": "10815", "street": "PLATINUM             LN", "city": "MASCOUTAH           ", "district": "", "region": "IL", "postcode": "62258     ", "hash": "833d99dcc3fcfa5f"}, "geometry": {"type": "Point", "coordinates": [-89.7601724, 38.436082]}}
{"type": "Feature", "properties": {"id": "", "unit": "", "number": "10971", "street": "PLATINUM             LN", "city": "MASCOUTAH           ", "district": "", "region": "IL", "postcode": "62258     ", "hash": "64212c0203dedc97"}, "geometry": {"type": "Point", "coordinates": [-89.7530346, 38.4373872]}}
{"type": "Feature", "properties": {"id": "", "unit": "", "number": "10951", "street": "PLATINUM             LN", "city": "MASCOUTAH           ", "district": "", "region": "IL", "postcode": "62258     ", "hash": "7d4646a7b98493cb"}, "geometry": {"type": "Point", "coordinates": [-89.7540068, 38.4374001]}}
{"type": "Feature", "properties": {"id": "", "unit": "", "number": "720", "street": "BELLEVILLE           RD", "city": "CASEYVILLE          ", "district": "", "region": "IL", "postcode": "62232     ", "hash": "b9c377f3a477e8f2"}, "geometry": {"type": "Point", "coordinates": [-89.9877519, 38.6466886]}}
{"type": "Feature", "properties": {"id": "", "unit": "", "number": "505", "street": "S  8TH                  ST", "city": "EAST SAINT LOUIS    ", "district": "", "region": "IL", "postcode": "62201     ", "hash": "55475117d5269e86"}, "geometry": {"type": "Point", "coordinates": [-90.1644518, 38.6183992]}}
{"type": "Feature", "properties": {"id": "", "unit": "", "number": "700", "street": "CARDIFF              CT", "city": "OFALLON             ", "district": "", "region": "IL", "postcode": "62269     ", "hash": "c2774d9d8730c909"}, "geometry": {"type": "Point", "coordinates": [-89.8811393, 38.6145535]}}
{"type": "Feature", "properties": {"id": "", "unit": "", "number": "1010", "street": "N  ILLINOIS             ST", "city": "BELLEVILLE          ", "district": "", "region": "IL", "postcode": "62226     ", "hash": "6a328cc58ef21b30"}, "geometry": {"type": "Point", "coordinates": [-89.9839877, 38.5241296]}}
{"type": "Feature", "properties": {"id": "", "unit": "", "number": "1167", "street": "FORTUNE              BLVD", "city": "OFALLON             ", "district": "", "region": "IL", "postcode": "62269     ", "hash": "af5ceecab4b4b098"}, "geometry": {"type": "Point", "coordinates": [-89.9220377, 38.5715603]}}
{"type": "Feature", "properties": {"id": "", "unit": "", "number": "1173", "street": "FORTUNE              BLVD", "city": "OFALLON             ", "district": "", "region": "IL", "postcode": "62269     ", "hash": "852815e79988cec4"}, "geometry": {"type": "Point", "coordinates": [-89.9217482, 38.5718218]}}
