{"type": "Feature", "properties": {"hash": "445ba4ed6b361ba3", "number": "1712", "street": "E 100 N", "unit": "", "city": "MONROE", "district": "", "region": "IN", "postcode": "46772-0000", "id": ""}, "geometry": {"type": "Point", "coordinates": [-84.9052057, 40.7596996]}}
{"type": "Feature", "properties": {"hash": "85429a930ecae2d4", "number": "4885", "street": "W 200 S-1", "unit": "", "city": "BLUFFTON", "district": "", "region": "IN", "postcode": "46714-0000", "id": ""}, "geometry": {"type": "Point", "coordinates": [-85.0295826, 40.7147329]}}
{"type": "Feature", "properties": {"hash": "70d223f1fe58e51c", "number": "8150", "street": "N 250 W", "unit": "", "city": "DECATUR", "district": "", "region": "IN", "postcode": "46733-0000", "id": ""}, "geometry": {"type": "Point", "coordinates": [-84.9845381, 40.8634794]}}
{"type": "Feature", "properties": {"hash": "3ad24d4ee1286e1b", "number": "2858", "street": "W 100 N", "unit": "", "city": "MONROE", "district": "", "region": "IN", "postcode": "46772-0000", "id": ""}, "geometry": {"type": "Point", "coordinates": [-84.9914707, 40.7584043]}}
{"type": "Feature", "properties": {"hash": "619d2e2aad6e7d0b", "number": "6891", "street": "N 200 E", "unit": "", "city": "DECATUR", "district": "", "region": "IN", "postcode": "46733-0000", "id": ""}, "geometry": {"type": "Point", "coordinates": [-84.8978105, 40.846492]}}
{"type": "Feature", "properties": {"hash": "2d475cda4aea9013", "number": "117", "street": "W JACKSON ST", "unit": "", "city": "MONROE", "district": "", "region": "IN", "postcode": "46772-0000", "id": ""}, "geometry": {"type": "Point", "coordinates": [-84.9402517, 40.7437938]}}
{"type": "Feature", "properties": {"hash": "903d203f99233825", "number": "5090", "street": "W 700 S", "unit": "", "city": "GENEVA", "district": "", "region": "IN", "postcode": "46740-0000", "id": ""}, "geometry": {"type": "Point", "coordinates": [-85.0333228, 40.6424326]}}
{"type": "Feature", "properties": {"hash": "5852ac6839e6c03c", "number": "7031", "street": "2ND ST", "unit": "", "city": "GENEVA", "district": "", "region": "IN", "postcode": "46740-0000", "id": ""}, "geometry": {"type": "Point", "coordinates": [-85.0323032, 40.6427374]}}
{"type": "Feature", "properties": {"hash": "1643bfd95fdf76e5", "number": "1640", "street": "WINCHESTER ST", "unit": "", "city": "DECATUR", "district": "", "region": "IN", "postcode": "46733-0000", "id": ""}, "geometry": {"type": "Point", "coordinates": [-84.9335152, 40.8119108]}}
{"type": "Feature", "properties": {"hash": "b879f7a5f3a370ac", "number": "431", "street": "MERCER AVE", "unit": "", "city": "DECATUR", "district": "", "region": "IN", "postcode": "46733-0000", "id": ""}, "geometry": {"type": "Point", "coordinates": [-84.9206551, 40.8254002]}}
{"type": "Feature", "properties": {"hash": "e322bc4316e36abb", "number": "6600", "street": "S 200 E", "unit": "", "city": "BERNE", "district": "", "region": "IN", "postcode": "46711-0000", "id": ""}, "geometry": {"type": "Point", "coordinates": [-84.8981226, 40.6499922]}}
{"type": "Feature", "properties": {"hash": "43410843e62a764f", "number": "1040", "street": "LAKE SHORES DR", "unit": "", "city": "DECATUR", "district": "", "region": "IN", "postcode": "46733-0000", "id": ""}, "geometry": {"type": "Point", "coordinates": [-84.8954078, 40.8316381]}}
{"type": "Feature", "properties": {"hash": "f91ae20be6db1924", "number": "227", "street": "N 3RD ST", "unit": "", "city": "DECATUR", "district": "", "region": "IN", "postcode": "46733-0000", "id": ""}, "geometry": {"type": "Point", "coordinates": [-84.9261422, 40.832062]}}
{"type": "Feature", "properties": {"hash": "38dec5b054c2c9cb", "number": "6766", "street": "W US HIGHWAY 224", "unit": "", "city": "DECATUR", "district": "", "region": "IN", "postcode": "46733-0000", "id": ""}, "geometry": {"type": "Point", "coordinates": [-85.0679843, 40.8306125]}}
{"type": "Feature", "properties": {"hash": "98c306cae1b30449", "number": "2240", "street": "W 550 N", "unit": "", "city": "DECATUR", "district": "", "region": "IN", "postcode": "46733-0000", "id": ""}, "geometry": {"type": "Point", "coordinates": [-84.9798914, 40.8243193]}}
{"type": "Feature", "properties": {"hash": "22375ff13a1380c5", "number": "1116", "street": "WINCHESTER ST", "unit": "", "city": "DECATUR", "district": "", "region": "IN", "postcode": "46733-0000", "id": ""}, "geometry": {"type": "Point", "coordinates": [-84.9297414, 40.8168751]}}
{"type": "Feature", "properties": {"hash": "a9fdfdc02edaec3f", "number": "4767", "street": "N 100 W", "unit": "", "city": "DECATUR", "district": "", "region": "IN", "postcode": "46733-0000", "id": ""}, "geometry": {"type": "Point", "coordinates": [-84.9561189, 40.8137798]}}
{"type": "Feature", "properties": {"hash": "42b1665b08928538", "number": "6959", "street": "W 100 N", "unit": "", "city": "DECATUR", "district": "", "region": "IN", "postcode": "46733-0000", "id": ""}, "geometry": {"type": "Point", "coordinates": [-85.0694921, 40.7583927]}}
{"type": "Feature", "properties": {"hash": "2e36d9bb1b4facd1", "number": "6126", "street": "W 100 N", "unit": "", "city": "DECATUR", "district": "", "region": "IN", "postcode": "46733-0000", "id": ""}, "geometry": {"type": "Point", "coordinates": [-85.054476, 40.7573221]}}
{"type": "Feature", "properties": {"hash": "7fe425cf09aa92af", "number": "1772", "street": "E 400 S", "unit": "", "city": "BERNE", "district": "", "region": "IN", "postcode": "46711-0000", "id": ""}, "geometry": {"type": "Point", "coordinates": [-84.9023098, 40.687156]}}
{"type": "Feature", "properties": {"hash": "3ed8783da178fefe", "number": "2570", "street": "E STATE RD 218", "unit": "", "city": "BERNE", "district": "", "region": "IN", "postcode": "46711-0000", "id": ""}, "geometry": {"type": "Point", "coordinates": [-84.8875669, 40.6577295]}}
{"type": "Feature", "properties": {"hash": "92ac2852c2fb8d44", "number": "888", "street": "W 1000 N", "unit": "", "city": "DECATUR", "district": "", "region": "IN", "postcode": "46733-0000", "id": ""}, "geometry": {"type": "Point", "coordinates": [-84.9554324, 40.8899337]}}
{"type": "Feature", "properties": {"hash": "4edadb35027101a4", "number": "814", "street": "W 1000 N", "unit": "", "city": "DECATUR", "district": "", "region": "IN", "postcode": "46733-0000", "id": ""}, "geometry": {"type": "Point", "coordinates": [-84.9535228, 40.8899418]}}
{"type": "Feature", "properties": {"hash": "27c41568105768d5", "number": "1039", "street": "WINCHESTER ST", "unit": "", "city": "DECATUR", "district": "", "region": "IN", "postcode": "46733-0000", "id": ""}, "geometry": {"type": "Point", "coordinates": [-84.9281944, 40.8185739]}}
{"type": "Feature", "properties": {"hash": "3625e81ca0821331", "number": "2415", "street": "W STATE ROAD 124", "unit": "", "city": "MONROE", "district": "", "region": "IN", "postcode": "46772-0000", "id": ""}, "geometry": {"type": "Point", "coordinates": [-84.9828073, 40.7481108]}}
{"type": "Feature", "properties": {"hash": "749c68f413cf5801", "number": "1031-33", "street": "Wildflower Ln", "unit": "", "city": "Dyer", "district": "", "region": "IN", "postcode": "46311", "id": ""}, "geometry": {"type": "Point", "coordinates": [-87.5196247, 41.5120037]}}
{"type": "Feature", "properties": {"hash": "15bbed43cf9fd22b", "number": "817", "street": "Wellington Dr", "unit": "", "city": "Dyer", "district": "", "region": "IN", "postcode": "46311", "id": ""}, "geometry": {"type": "Point", "coordinates": [-87.5054131, 41.5166032]}}
{"type": "Feature", "properties": {"hash": "0213ee7fa55d9904", "number": "428-430", "street": "Ben Dr", "unit": "", "city": "Schererville", "district": "", "region": "IN", "postcode": "46375", "id": ""}, "geometry": {"type": "Point", "coordinates": [-87.4587818, 41.5139781]}}
{"type": "Feature", "properties": {"hash": "ccc610a1a46bcb1b", "number": "431-433", "street": "Spivak Dr", "unit": "", "city": "Schererville", "district": "", "region": "IN", "postcode": "46375", "id": ""}, "geometry": {"type": "Point", "coordinates": [-87.459621, 41.5139077]}}
{"type": "Feature", "properties": {"hash": "17fe97f9c391698e", "number": "419-421", "street": "Spivak Dr", "unit": "", "city": "Schererville", "district": "", "region": "IN", "postcode": "46375", "id": ""}, "geometry": {"type": "Point", "coordinates": [-87.4596484, 41.5144344]}}
{"type": "Feature", "properties": {"hash": "f1888554f3585916", "number": "848-", "street": "Blue Jay Way", "unit": "", "city": "Dyer", "district": "", "region": "IN", "postcode": "46311", "id": ""}, "geometry": {"type": "Point", "coordinates": [-87.521732, 41.515778]}}
{"type": "Feature", "properties": {"hash": "e4e07ca50f1b5aaf", "number": "519-521", "street": "Spivak Dr", "unit": "", "city": "Schererville", "district": "", "region": "IN", "postcode": "46375", "id": ""}, "geometry": {"type": "Point", "coordinates": [-87.4597193, 41.5124429]}}
{"type": "Feature", "properties": {"hash": "77d2ace1a50c3a5f", "number": "1027", "street": "Cambridge Ln", "unit": "", "city": "Dyer", "district": "", "region": "IN", "postcode": "46311", "id": ""}, "geometry": {"type": "Point", "coordinates": [-87.5207412, 41.5122654]}}
{"type": "Feature", "properties": {"hash": "3c5901c942c59ccf", "number": "506-510", "street": "Ben Dr", "unit": "", "city": "Schererville", "district": "", "region": "IN", "postcode": "46375", "id": ""}, "geometry": {"type": "Point", "coordinates": [-87.4589355, 41.5129538]}}
{"type": "Feature", "properties": {"hash": "c558f525bb569a95", "number": "1019-10", "street": "Wildflower Ln", "unit": "", "city": "Dyer", "district": "", "region": "IN", "postcode": "46311", "id": ""}, "geometry": {"type": "Point", "coordinates": [-87.5195833, 41.5128077]}}
{"type": "Feature", "properties": {"hash": "69bff5bfc58e717b", "number": "508-510", "street": "Spivak Dr", "unit": "", "city": "Schererville", "district": "", "region": "IN", "postcode": "46375", "id": ""}, "geometry": {"type": "Point", "coordinates": [-87.460275, 41.5129425]}}
{"type": "Feature", "properties": {"hash": "b90e05dd6f9d3058", "number": "516-518", "street": "Spivak Dr", "unit": "", "city": "Schererville", "district": "", "region": "IN", "postcode": "46375", "id": ""}, "geometry": {"type": "Point", "coordinates": [-87.4602712, 41.5127145]}}
{"type": "Feature", "properties": {"hash": "2b5b42297ef7b5c9", "number": "505-509", "street": "Ben Dr", "unit": "", "city": "Schererville", "district": "", "region": "IN", "postcode": "46375", "id": ""}, "geometry": {"type": "Point", "coordinates": [-87.4581046, 41.5129584]}}
{"type": "Feature", "properties": {"hash": "f23ad175467d4837", "number": "511-513", "street": "Spivak Dr", "unit": "", "city": "Schererville", "district": "", "region": "IN", "postcode": "46375", "id": ""}, "geometry": {"type": "Point", "coordinates": [-87.4594782, 41.5129716]}}
{"type": "Feature", "properties": {"hash": "56a36caf88aa09cf", "number": "447-449", "street": "Ben Dr", "unit": "", "city": "Schererville", "district": "", "region": "IN", "postcode": "46375", "id": ""}, "geometry": {"type": "Point", "coordinates": [-87.4582415, 41.5134024]}}
{"type": "Feature", "properties": {"hash": "4e7ac77e07b06767", "number": "446-448", "street": "Ben Dr", "unit": "", "city": "Schererville", "district": "", "region": "IN", "postcode": "46375", "id": ""}, "geometry": {"type": "Point", "coordinates": [-87.4589505, 41.5133985]}}
{"type": "Feature", "properties": {"hash": "2023c0fbbd737986", "number": "449-451", "street": "Spivak Dr", "unit": "", "city": "Schererville", "district": "", "region": "IN", "postcode": "46375", "id": ""}, "geometry": {"type": "Point", "coordinates": [-87.4595664, 41.5134315]}}
{"type": "Feature", "properties": {"hash": "7016f769d2157a03", "number": "319-321", "street": "Industrial Dr", "unit": "", "city": "Schererville", "district": "", "region": "IN", "postcode": "46375", "id": ""}, "geometry": {"type": "Point", "coordinates": [-87.4602875, 41.5133834]}}
{"type": "Feature", "properties": {"hash": "3d3407b13acb17a6", "number": "437-439", "street": "Spivak Dr", "unit": "", "city": "Schererville", "district": "", "region": "IN", "postcode": "46375", "id": ""}, "geometry": {"type": "Point", "coordinates": [-87.459605, 41.5137947]}}
{"type": "Feature", "properties": {"hash": "485a16e47e313de1", "number": "318-322", "street": "Scherland Dr", "unit": "", "city": "Schererville", "district": "", "region": "IN", "postcode": "46375", "id": ""}, "geometry": {"type": "Point", "coordinates": [-87.4602868, 41.5138024]}}
{"type": "Feature", "properties": {"hash": "5e72fb94bc5cbc07", "number": "435-437", "street": "Ben Dr", "unit": "", "city": "Schererville", "district": "", "region": "IN", "postcode": "46375", "id": ""}, "geometry": {"type": "Point", "coordinates": [-87.4582001, 41.5137847]}}
{"type": "Feature", "properties": {"hash": "1803071815f6e21a", "number": "429-431", "street": "Ben Dr", "unit": "", "city": "Schererville", "district": "", "region": "IN", "postcode": "46375", "id": ""}, "geometry": {"type": "Point", "coordinates": [-87.4582029, 41.5139903]}}
{"type": "Feature", "properties": {"hash": "e1b2ef0300719c6c", "number": "422-424", "street": "Ben Dr", "unit": "", "city": "Schererville", "district": "", "region": "IN", "postcode": "46375", "id": ""}, "geometry": {"type": "Point", "coordinates": [-87.458787, 41.5141939]}}
{"type": "Feature", "properties": {"hash": "733139b5ff522919", "number": "423-425", "street": "Ben Dr", "unit": "", "city": "Schererville", "district": "", "region": "IN", "postcode": "46375", "id": ""}, "geometry": {"type": "Point", "coordinates": [-87.4582056, 41.5141986]}}
{"type": "Feature", "properties": {"hash": "5b674640b7372e09", "number": "413-415", "street": "Spivak Dr", "unit": "", "city": "Schererville", "district": "", "region": "IN", "postcode": "46375", "id": ""}, "geometry": {"type": "Point", "coordinates": [-87.4596511, 41.5146427]}}
{"type": "Feature", "properties": {"id": "", "unit": "8", "number": "703", "street": "TURTLE CREEK SDR", "city": "INDIANAPOLIS", "district": "MARION", "region": "IN", "postcode": "46227", "hash": "9f10465e881e2535"}, "geometry": {"type": "Point", "coordinates": [-86.1458407, 39.688192]}}
{"type": "Feature", "properties": {"id": "", "unit": "APT B10", "number": "209", "street": "TROY AVE", "city": "INDIANAPOLIS", "district": "MARION", "region": "IN", "postcode": "46225", "hash": "aead2981c9a79a46"}, "geometry": {"type": "Point", "coordinates": [-86.154738, 39.7221241]}}
{"type": "Feature", "properties": {"id": "", "unit": "APT 18", "number": "2544", "street": "STOCKBRIDGE DR", "city": "INDIANAPOLIS", "district": "MARION", "region": "IN", "postcode": "46268", "hash": "69cb7abf6d554061"}, "geometry": {"type": "Point", "coordinates": [-86.2058273, 39.8829347]}}
{"type": "Feature", "properties": {"id": "", "unit": "APT A", "number": "7633", "street": "SANTA MONICA DR", "city": "INDIANAPOLIS", "district": "MARION", "region": "IN", "postcode": "46268", "hash": "8d980fc8012cf226"}, "geometry": {"type": "Point", "coordinates": [-86.2399854, 39.8921817]}}
{"type": "Feature", "properties": {"id": "", "unit": "APT E", "number": "2413", "street": "PLAZA DR", "city": "INDIANAPOLIS", "district": "MARION", "region": "IN", "postcode": "46268", "hash": "33fc54bcc5e9383e"}, "geometry": {"type": "Point", "coordinates": [-86.2042381, 39.9062583]}}
{"type": "Feature", "properties": {"id": "", "unit": "APT B", "number": "8209", "street": "WALDORF LN", "city": "INDIANAPOLIS", "district": "MARION", "region": "IN", "postcode": "46268", "hash": "152a0947dae99771"}, "geometry": {"type": "Point", "coordinates": [-86.2048269, 39.905161]}}
{"type": "Feature", "properties": {"id": "", "unit": "APT C", "number": "8278", "street": "WALDORF LN", "city": "INDIANAPOLIS", "district": "MARION", "region": "IN", "postcode": "46268", "hash": "b7f32c3b0e42da7f"}, "geometry": {"type": "Point", "coordinates": [-86.2052262, 39.9062486]}}
{"type": "Feature", "properties": {"id": "", "unit": "CONDO", "number": "4816", "street": "PENNINGTON CT", "city": "INDIANAPOLIS", "district": "MARION", "region": "IN", "postcode": "46254", "hash": "bd7bc039b03f8641"}, "geometry": {"type": "Point", "coordinates": [-86.2976785, 39.8402062]}}
{"type": "Feature", "properties": {"id": "", "unit": "APT A", "number": "5529", "street": "RUE ROYALE", "city": "INDIANAPOLIS", "district": "MARION", "region": "IN", "postcode": "46227", "hash": "328d092f2eaf4ea3"}, "geometry": {"type": "Point", "coordinates": [-86.1549403, 39.6849053]}}
{"type": "Feature", "properties": {"id": "", "unit": "APT 1C", "number": "3833", "street": "DEER RIDGE", "city": "INDIANAPOLIS", "district": "MARION", "region": "IN", "postcode": "46254", "hash": "46b16c86f72e0269"}, "geometry": {"type": "Point", "coordinates": [-86.2870583, 39.8244604]}}
{"type": "Feature", "properties": {"id": "", "unit": "APT D", "number": "6335", "street": "COMMONS DR", "city": "INDIANAPOLIS", "district": "MARION", "region": "IN", "postcode": "46254", "hash": "404bc1abd8a2200c"}, "geometry": {"type": "Point", "coordinates": [-86.2713487, 39.8318651]}}
{"type": "Feature", "properties": {"id": "", "unit": "APT", "number": "4155", "street": "EAGLES ROOST DR", "city": "INDIANAPOLIS", "district": "MARION", "region": "IN", "postcode": "46234", "hash": "66e4b6392f42dbda"}, "geometry": {"type": "Point", "coordinates": [-86.3166492, 39.8290031]}}
{"type": "Feature", "properties": {"id": "", "unit": "APT 1223", "number": "6338", "street": "WHITEHAVEN RD", "city": "INDIANAPOLIS", "district": "MARION", "region": "IN", "postcode": "46254", "hash": "b0a29c26c329b020"}, "geometry": {"type": "Point", "coordinates": [-86.2719247, 39.8386907]}}
{"type": "Feature", "properties": {"id": "", "unit": "APT", "number": "6615", "street": "LONGWOODS CIR", "city": "INDIANAPOLIS", "district": "MARION", "region": "IN", "postcode": "46254", "hash": "866be6167d1694e5"}, "geometry": {"type": "Point", "coordinates": [-86.2773437, 39.8490258]}}
{"type": "Feature", "properties": {"id": "", "unit": "APT 244", "number": "4552", "street": "BROOKHOLLOW BLVD", "city": "INDIANAPOLIS", "district": "MARION", "region": "IN", "postcode": "46254", "hash": "7936a6a1b4c04f3a"}, "geometry": {"type": "Point", "coordinates": [-86.273747, 39.8368151]}}
{"type": "Feature", "properties": {"id": "", "unit": "APT 813", "number": "6454", "street": "WHITEHAVEN RD", "city": "INDIANAPOLIS", "district": "MARION", "region": "IN", "postcode": "46254", "hash": "7bf0c8a74087f039"}, "geometry": {"type": "Point", "coordinates": [-86.2749841, 39.8387711]}}
{"type": "Feature", "properties": {"id": "", "unit": "APT C", "number": "4851", "street": "PENDRAGON BLVD", "city": "INDIANAPOLIS", "district": "MARION", "region": "IN", "postcode": "46268", "hash": "90d60eaeb80a07c9"}, "geometry": {"type": "Point", "coordinates": [-86.2417619, 39.8741279]}}
{"type": "Feature", "properties": {"id": "", "unit": "APT A", "number": "9733", "street": "WILLOWTREE LN", "city": "INDIANAPOLIS", "district": "MARION", "region": "IN", "postcode": "46229", "hash": "ce7aa7c7b6c43163"}, "geometry": {"type": "Point", "coordinates": [-85.9953442, 39.808765]}}
{"type": "Feature", "properties": {"id": "", "unit": "APT C", "number": "11251", "street": "REDSKIN LN", "city": "INDIANAPOLIS", "district": "MARION", "region": "IN", "postcode": "46235", "hash": "b0b0ca6754745461"}, "geometry": {"type": "Point", "coordinates": [-85.966422, 39.8133983]}}
{"type": "Feature", "properties": {"id": "", "unit": "CONDO", "number": "3667", "street": "NEWGATE LN", "city": "INDIANAPOLIS", "district": "MARION", "region": "IN", "postcode": "46235", "hash": "7d721b83164ef373"}, "geometry": {"type": "Point", "coordinates": [-85.9957392, 39.823871]}}
{"type": "Feature", "properties": {"id": "", "unit": "CONDO", "number": "3748", "street": "TUDOR PARK DR", "city": "INDIANAPOLIS", "district": "MARION", "region": "IN", "postcode": "46235", "hash": "ae3ad3ef149725a0"}, "geometry": {"type": "Point", "coordinates": [-85.9947853, 39.8252112]}}
{"type": "Feature", "properties": {"id": "", "unit": "APT D", "number": "3693", "street": "WINGATE CT", "city": "INDIANAPOLIS", "district": "MARION", "region": "IN", "postcode": "46235", "hash": "78eb0cf160a4e2f3"}, "geometry": {"type": "Point", "coordinates": [-85.9819681, 39.8250952]}}
{"type": "Feature", "properties": {"id": "", "unit": "APT B", "number": "3671", "street": "WINGATE CT", "city": "INDIANAPOLIS", "district": "MARION", "region": "IN", "postcode": "46235", "hash": "103dc9b3f48edbf4"}, "geometry": {"type": "Point", "coordinates": [-85.9812308, 39.8250591]}}
{"type": "Feature", "properties": {"id": "", "unit": "APT D", "number": "3682", "street": "LONG WHARF DR", "city": "INDIANAPOLIS", "district": "MARION", "region": "IN", "postcode": "46235", "hash": "0eafa8361a7ef9c5"}, "geometry": {"type": "Point", "coordinates": [-85.9794961, 39.8252473]}}
{"type": "Feature", "properties": {"id": "", "unit": "APT D", "number": "10357", "street": "WINGATE BLVD", "city": "INDIANAPOLIS", "district": "MARION", "region": "IN", "postcode": "46235", "hash": "bdb5cc81f20370ca"}, "geometry": {"type": "Point", "coordinates": [-85.9831393, 39.8246945]}}
{"type": "Feature", "properties": {"hash": "2b68f77881956c95", "number": "600", "street": "E", "unit": "", "city": "Kouts", "district": "", "region": "IN", "postcode": "46347", "id": ""}, "geometry": {"type": "Point", "coordinates": [-86.9687589, 41.2215266]}}
{"type": "Feature", "properties": {"hash": "5212ae96eb43124d", "number": "500", "street": "E", "unit": "", "city": "Kouts", "district": "", "region": "IN", "postcode": "46347", "id": ""}, "geometry": {"type": "Point", "coordinates": [-86.9722111, 41.2216427]}}
{"type": "Feature", "properties": {"hash": "a0b57334e33c93e1", "number": "500", "street": "E", "unit": "", "city": "Kouts", "district": "", "region": "IN", "postcode": "46347", "id": ""}, "geometry": {"type": "Point", "coordinates": [-86.9653026, 41.2219671]}}
{"type": "Feature", "properties": {"hash": "abfc95ee5df40f0c", "number": "500", "street": "E", "unit": "", "city": "Kouts", "district": "", "region": "IN", "postcode": "46347", "id": ""}, "geometry": {"type": "Point", "coordinates": [-86.9673364, 41.2230957]}}
{"type": "Feature", "properties": {"hash": "4b629c11d137eb75", "number": "600", "street": "E", "unit": "", "city": "Kouts", "district": "", "region": "IN", "postcode": "46347", "id": ""}, "geometry": {"type": "Point", "coordinates": [-86.9659612, 41.2238286]}}
{"type": "Feature", "properties": {"hash": "02ef8f4c9043bc24", "number": "500", "street": "E", "unit": "", "city": "Kouts", "district": "", "region": "IN", "postcode": "46347", "id": ""}, "geometry": {"type": "Point", "coordinates": [-86.9753022, 41.2242906]}}
{"type": "Feature", "properties": {"hash": "8c5f2bba94ff62a6", "number": "1435", "street": "S 500 E", "unit": "", "city": "Kouts", "district": "", "region": "IN", "postcode": "46347", "id": ""}, "geometry": {"type": "Point", "coordinates": [-86.9656794, 41.2258382]}}
{"type": "Feature", "properties": {"hash": "50af092d43408fed", "number": "1419", "street": "S 500 E", "unit": "", "city": "Kouts", "district": "", "region": "IN", "postcode": "46347", "id": ""}, "geometry": {"type": "Point", "coordinates": [-86.9670947, 41.2264889]}}
{"type": "Feature", "properties": {"hash": "77ba7182615cefba", "number": "1400", "street": "S", "unit": "", "city": "Kouts", "district": "", "region": "IN", "postcode": "46347", "id": ""}, "geometry": {"type": "Point", "coordinates": [-86.9510803, 41.2266704]}}
{"type": "Feature", "properties": {"hash": "4095d2b43c4fa6b3", "number": "1419", "street": "S 500 E", "unit": "", "city": "Kouts", "district": "", "region": "IN", "postcode": "46347", "id": ""}, "geometry": {"type": "Point", "coordinates": [-86.9670669, 41.2272732]}}
{"type": "Feature", "properties": {"hash": "f7134250ef0f3fb1", "number": "500", "street": "E", "unit": "", "city": "Kouts", "district": "", "region": "IN", "postcode": "46347", "id": ""}, "geometry": {"type": "Point", "coordinates": [-86.9832831, 41.2287659]}}
{"type": "Feature", "properties": {"hash": "043ae8b54fccef38", "number": "500", "street": "E", "unit": "", "city": "Kouts", "district": "", "region": "IN", "postcode": "46347", "id": ""}, "geometry": {"type": "Point", "coordinates": [-86.9752055, 41.2278085]}}
{"type": "Feature", "properties": {"hash": "e5e2e1ae90f290c1", "number": "500", "street": "E", "unit": "", "city": "Kouts", "district": "", "region": "IN", "postcode": "46347", "id": ""}, "geometry": {"type": "Point", "coordinates": [-86.9793302, 41.2270171]}}
{"type": "Feature", "properties": {"hash": "570245ab50b56bcb", "number": "1402", "street": "S 500 E", "unit": "", "city": "Kouts", "district": "", "region": "IN", "postcode": "46347", "id": ""}, "geometry": {"type": "Point", "coordinates": [-86.9704964, 41.226073]}}
{"type": "Feature", "properties": {"hash": "bbf991bef6ac3009", "number": "500", "street": "E", "unit": "", "city": "Kouts", "district": "", "region": "IN", "postcode": "46347", "id": ""}, "geometry": {"type": "Point", "coordinates": [-86.9857898, 41.2293541]}}
{"type": "Feature", "properties": {"hash": "6859ecc1a85c86a1", "number": "536", "street": "E 1400 S", "unit": "", "city": "Kouts", "district": "", "region": "IN", "postcode": "46347", "id": ""}, "geometry": {"type": "Point", "coordinates": [-86.964123, 41.2280938]}}
{"type": "Feature", "properties": {"hash": "e7ab86ce58d1fe12", "number": "544", "street": "E 1400 S", "unit": "", "city": "Kouts", "district": "", "region": "IN", "postcode": "46347", "id": ""}, "geometry": {"type": "Point", "coordinates": [-86.9600041, 41.2290475]}}
{"type": "Feature", "properties": {"hash": "839591986fd57ee4", "number": "1400", "street": "S", "unit": "", "city": "Kouts", "district": "", "region": "IN", "postcode": "46347", "id": ""}, "geometry": {"type": "Point", "coordinates": [-86.9595571, 41.227566]}}
{"type": "Feature", "properties": {"hash": "e6b5fb0168fa626e", "number": "554", "street": "E 1400 S", "unit": "", "city": "Kouts", "district": "", "region": "IN", "postcode": "46347", "id": ""}, "geometry": {"type": "Point", "coordinates": [-86.9577663, 41.2280578]}}
{"type": "Feature", "properties": {"hash": "a09cb6a0ac4b8bf2", "number": "594", "street": "E 1400 S", "unit": "", "city": "Kouts", "district": "", "region": "IN", "postcode": "46347", "id": ""}, "geometry": {"type": "Point", "coordinates": [-86.9514588, 41.2282913]}}
{"type": "Feature", "properties": {"hash": "d782cf711ee0db58", "number": "1399", "street": "S 600 E", "unit": "", "city": "Kouts", "district": "", "region": "IN", "postcode": "46347", "id": ""}, "geometry": {"type": "Point", "coordinates": [-86.9487223, 41.2285491]}}
{"type": "Feature", "properties": {"hash": "45dd9f651c55f6a6", "number": "1401", "street": "S 600 E", "unit": "", "city": "Kouts", "district": "", "region": "IN", "postcode": "46347", "id": ""}, "geometry": {"type": "Point", "coordinates": [-86.9449838, 41.2290529]}}
{"type": "Feature", "properties": {"hash": "4a88d6f589d70c48", "number": "500", "street": "E", "unit": "", "city": "Kouts", "district": "", "region": "IN", "postcode": "46347", "id": ""}, "geometry": {"type": "Point", "coordinates": [-86.974067, 41.2316617]}}
{"type": "Feature", "properties": {"hash": "d28096ee0d486701", "number": "500", "street": "E", "unit": "", "city": "Kouts", "district": "", "region": "IN", "postcode": "46347", "id": ""}, "geometry": {"type": "Point", "coordinates": [-86.9831518, 41.2300951]}}
{"type": "Feature", "properties": {"hash": "0c42d8df35896a72", "number": "565", "street": "E 1400 S", "unit": "", "city": "Kouts", "district": "", "region": "IN", "postcode": "46347", "id": ""}, "geometry": {"type": "Point", "coordinates": [-86.9560787, 41.2303102]}}
