{"type": "Feature", "properties": {"id": "", "unit": "", "number": "100", "street": "E CREEK AVE", "city": "HARDTNER", "district": "BARBER COUNTY", "region": "KS", "postcode": "67057", "hash": "f1c7f7a57d920d35"}, "geometry": {"type": "Point", "coordinates": [-98.6489242, 37.0171436]}}
{"type": "Feature", "properties": {"id": "", "unit": "", "number": "1011", "street": "COATS ST", "city": "KIOWA", "district": "BARBER COUNTY", "region": "KS", "postcode": "67070", "hash": "9959358ac4325a86"}, "geometry": {"type": "Point", "coordinates": [-98.4806353, 37.0210289]}}
{"type": "Feature", "properties": {"id": "", "unit": "", "number": "223", "street": "N ELEVENTH ST", "city": "KIOWA", "district": "BARBER COUNTY", "region": "KS", "postcode": "67070", "hash": "739963650bbddbfa"}, "geometry": {"type": "Point", "coordinates": [-98.4802632, 37.0189424]}}
{"type": "Feature", "properties": {"id": "", "unit": "", "number": "310", "street": "DRUMM ST", "city": "KIOWA", "district": "BARBER COUNTY", "region": "KS", "postcode": "67070", "hash": "5742ffe13c96fc50"}, "geometry": {"type": "Point", "coordinates": [-98.4900135, 37.0151973]}}
{"type": "Feature", "properties": {"id": "", "unit": "", "number": "321", "street": "S 5TH ST", "city": "KIOWA", "district": "BARBER COUNTY", "region": "KS", "postcode": "67070", "hash": "eb635bf752a4233e"}, "geometry": {"type": "Point", "coordinates": [-98.4881379, 37.0140099]}}
{"type": "Feature", "properties": {"id": "", "unit": "", "number": "410", "street": "MARVIN ST", "city": "KIOWA", "district": "BARBER COUNTY", "region": "KS", "postcode": "67070", "hash": "7d131fea7fa7cf18"}, "geometry": {"type": "Point", "coordinates": [-98.4887288, 37.0119333]}}
{"type": "Feature", "properties": {"id": "", "unit": "", "number": "506", "street": "DRUMM ST", "city": "KIOWA", "district": "BARBER COUNTY", "region": "KS", "postcode": "67070", "hash": "b4e71db947d63005"}, "geometry": {"type": "Point", "coordinates": [-98.4876464, 37.0151176]}}
{"type": "Feature", "properties": {"id": "", "unit": "", "number": "5851", "street": "SE HARPER RD", "city": "UNINCORPORATED", "district": "BARBER COUNTY", "region": "KS", "postcode": "67138", "hash": "fbbe7a0375c70e25"}, "geometry": {"type": "Point", "coordinates": [-98.34916, 37.212026]}}
{"type": "Feature", "properties": {"id": "", "unit": "", "number": "8579", "street": "NW PRATT", "city": "UNINCORPORATED", "district": "BARBER COUNTY", "region": "KS", "postcode": "67134", "hash": "ab3257620108cdb9"}, "geometry": {"type": "Point", "coordinates": [-98.7306508, 37.4706259]}}
{"type": "Feature", "properties": {"id": "", "unit": "", "number": "1", "street": "WHITNEY LN", "city": "MEDICINE LODGE", "district": "BARBER COUNTY", "region": "KS", "postcode": "67104", "hash": "08b3e6e951287559"}, "geometry": {"type": "Point", "coordinates": [-98.580774, 37.293181]}}
{"type": "Feature", "properties": {"id": "", "unit": "", "number": "100", "street": "E FIRST AVE", "city": "MEDICINE LODGE", "district": "BARBER COUNTY", "region": "KS", "postcode": "67104", "hash": "477b599afc4b8051"}, "geometry": {"type": "Point", "coordinates": [-98.5788262, 37.2822022]}}
{"type": "Feature", "properties": {"id": "", "unit": "", "number": "100", "street": "E LOCKWOOD AVE", "city": "MEDICINE LODGE", "district": "BARBER COUNTY", "region": "KS", "postcode": "67104", "hash": "6c00b3b506ebabaa"}, "geometry": {"type": "Point", "coordinates": [-98.5789722, 37.2901771]}}
{"type": "Feature", "properties": {"id": "", "unit": "", "number": "100", "street": "KELLY ST", "city": "MEDICINE LODGE", "district": "BARBER COUNTY", "region": "KS", "postcode": "67104", "hash": "f5b43db664660a4c"}, "geometry": {"type": "Point", "coordinates": [-98.5861135, 37.2972648]}}
{"type": "Feature", "properties": {"id": "", "unit": "", "number": "100", "street": "LESLIE ST", "city": "MEDICINE LODGE", "district": "BARBER COUNTY", "region": "KS", "postcode": "67104", "hash": "c07c6ba5a60dbd9f"}, "geometry": {"type": "Point", "coordinates": [-98.5853653, 37.294103]}}
{"type": "Feature", "properties": {"id": "", "unit": "", "number": "100", "street": "N MAIN ST", "city": "MEDICINE LODGE", "district": "BARBER COUNTY", "region": "KS", "postcode": "67104", "hash": "16b2e6fb7517f716"}, "geometry": {"type": "Point", "coordinates": [-98.5790779, 37.2807903]}}
{"type": "Feature", "properties": {"id": "", "unit": "", "number": "100", "street": "S CEDAR ST", "city": "MEDICINE LODGE", "district": "BARBER COUNTY", "region": "KS", "postcode": "67104", "hash": "4f04e2401c3fba8e"}, "geometry": {"type": "Point", "coordinates": [-98.5756085, 37.280342]}}
{"type": "Feature", "properties": {"id": "", "unit": "", "number": "100", "street": "S ILIFF ST", "city": "MEDICINE LODGE", "district": "BARBER COUNTY", "region": "KS", "postcode": "67104", "hash": "fb5ae964ed462977"}, "geometry": {"type": "Point", "coordinates": [-98.5859874, 37.2802154]}}
{"type": "Feature", "properties": {"id": "", "unit": "", "number": "100", "street": "S MAIN ST", "city": "MEDICINE LODGE", "district": "BARBER COUNTY", "region": "KS", "postcode": "67104", "hash": "46f71f8979ec3fc1"}, "geometry": {"type": "Point", "coordinates": [-98.5791025, 37.2804723]}}
{"type": "Feature", "properties": {"id": "", "unit": "", "number": "1000", "street": "N HIGH ST", "city": "MEDICINE LODGE", "district": "BARBER COUNTY", "region": "KS", "postcode": "67104", "hash": "c3a8d6ca540dfdac"}, "geometry": {"type": "Point", "coordinates": [-98.5761952, 37.2943171]}}
{"type": "Feature", "properties": {"id": "", "unit": "", "number": "10001", "street": "SW SANDY CREEK RD", "city": "UNINCORPORATED", "district": "BARBER COUNTY", "region": "KS", "postcode": "67071", "hash": "a78941d2d24b04ea"}, "geometry": {"type": "Point", "coordinates": [-98.8456849, 37.1515004]}}
{"type": "Feature", "properties": {"id": "", "unit": "", "number": "15356", "street": "US 160 HWY", "city": "WINFIELD", "district": "COWLEY COUNTY", "region": "KS", "postcode": "67156", "hash": "d35c9e8cf5525706"}, "geometry": {"type": "Point", "coordinates": [-96.8906325, 37.2459549]}}
{"type": "Feature", "properties": {"id": "", "unit": "", "number": "29288", "street": "97TH RD", "city": "ARKANSAS CITY", "district": "COWLEY COUNTY", "region": "KS", "postcode": "67005", "hash": "3e1c2088c9056f73"}, "geometry": {"type": "Point", "coordinates": [-96.9760914, 37.0668747]}}
{"type": "Feature", "properties": {"id": "", "unit": "", "number": "10562", "street": "284TH DR", "city": "ARKANSAS CITY", "district": "COWLEY COUNTY", "region": "KS", "postcode": "67005", "hash": "87de97ee845f73e9"}, "geometry": {"type": "Point", "coordinates": [-96.976086, 37.0662666]}}
{"type": "Feature", "properties": {"id": "", "unit": "", "number": "21200", "street": "85TH RD", "city": "WINFIELD", "district": "COWLEY COUNTY", "region": "KS", "postcode": "67156", "hash": "ce4e2cbe69b6f54a"}, "geometry": {"type": "Point", "coordinates": [-96.9886332, 37.1827098]}}
{"type": "Feature", "properties": {"id": "", "unit": "", "number": "27064", "street": "309TH RD", "city": "CEDAR VALE", "district": "COWLEY COUNTY", "region": "KS", "postcode": "67024", "hash": "1ade2a47ed9c9d67"}, "geometry": {"type": "Point", "coordinates": [-96.5877978, 37.0967356]}}
{"type": "Feature", "properties": {"id": "", "unit": "", "number": "14065", "street": "152ND RD", "city": "WINFIELD", "district": "COWLEY COUNTY", "region": "KS", "postcode": "67156", "hash": "dd6e524d088ddbae"}, "geometry": {"type": "Point", "coordinates": [-96.914588, 37.2579361]}}
{"type": "Feature", "properties": {"id": "", "unit": "", "number": "24977", "street": "85TH RD", "city": "WINFIELD", "district": "COWLEY COUNTY", "region": "KS", "postcode": "67156", "hash": "4ec6b38b99bb35a0"}, "geometry": {"type": "Point", "coordinates": [-96.9963448, 37.1291515]}}
{"type": "Feature", "properties": {"id": "", "unit": "", "number": "26910", "street": "71ST RD", "city": "ARKANSAS CITY", "district": "COWLEY COUNTY", "region": "KS", "postcode": "67005", "hash": "e8dc4ef53d849b45"}, "geometry": {"type": "Point", "coordinates": [-97.0218769, 37.100927]}}
{"type": "Feature", "properties": {"id": "", "unit": "", "number": "3244", "street": "122ND RD", "city": "OXFORD", "district": "COWLEY COUNTY", "region": "KS", "postcode": "67119", "hash": "8b52eb4c7d089410"}, "geometry": {"type": "Point", "coordinates": [-97.1116701, 37.3039253]}}
{"type": "Feature", "properties": {"id": "", "unit": "", "number": "804", "street": "W 33RD AVE", "city": "WINFIELD", "district": "COWLEY COUNTY", "region": "KS", "postcode": "67156", "hash": "f6a36b8a23b862db"}, "geometry": {"type": "Point", "coordinates": [-97.0056221, 37.2162043]}}
{"type": "Feature", "properties": {"id": "", "unit": "", "number": "18958", "street": "US 166 HWY", "city": "ARKANSAS CITY", "district": "COWLEY COUNTY", "region": "KS", "postcode": "67005", "hash": "59f66dba9919482d"}, "geometry": {"type": "Point", "coordinates": [-96.8234427, 37.0983033]}}
{"type": "Feature", "properties": {"id": "", "unit": "", "number": "14710", "street": "US 160 HWY", "city": "WINFIELD", "district": "COWLEY COUNTY", "region": "KS", "postcode": "67156", "hash": "3713543e5d690ab4"}, "geometry": {"type": "Point", "coordinates": [-96.9035194, 37.2451739]}}
{"type": "Feature", "properties": {"id": "", "unit": "", "number": "15785", "street": "21ST RD", "city": "OXFORD", "district": "COWLEY COUNTY", "region": "KS", "postcode": "67119", "hash": "1099515d88752117"}, "geometry": {"type": "Point", "coordinates": [-97.1169089, 37.2636326]}}
{"type": "Feature", "properties": {"id": "", "unit": "", "number": "14313", "street": "51ST RD", "city": "WINFIELD", "district": "COWLEY COUNTY", "region": "KS", "postcode": "67156", "hash": "8d54f9d4ca118552"}, "geometry": {"type": "Point", "coordinates": [-97.0615025, 37.2828626]}}
{"type": "Feature", "properties": {"id": "", "unit": "", "number": "5688", "street": "142ND RD", "city": "WINFIELD", "district": "COWLEY COUNTY", "region": "KS", "postcode": "67156", "hash": "4e16d4cee19158e9"}, "geometry": {"type": "Point", "coordinates": [-97.0651055, 37.2747125]}}
{"type": "Feature", "properties": {"id": "", "unit": "", "number": "23297", "street": "85TH RD", "city": "WINFIELD", "district": "COWLEY COUNTY", "region": "KS", "postcode": "67156", "hash": "a46c354a404b4211"}, "geometry": {"type": "Point", "coordinates": [-96.9975092, 37.1546517]}}
{"type": "Feature", "properties": {"id": "", "unit": "", "number": "12499", "street": "152ND RD", "city": "WINFIELD", "district": "COWLEY COUNTY", "region": "KS", "postcode": "67156", "hash": "14d1cf37e9107be6"}, "geometry": {"type": "Point", "coordinates": [-96.9444598, 37.2577652]}}
{"type": "Feature", "properties": {"id": "", "unit": "", "number": "28440", "street": "91ST RD", "city": "ARKANSAS CITY", "district": "COWLEY COUNTY", "region": "KS", "postcode": "67005", "hash": "989d1096a219d99c"}, "geometry": {"type": "Point", "coordinates": [-96.9861218, 37.0786931]}}
{"type": "Feature", "properties": {"id": "", "unit": "", "number": "17815", "street": "61ST RD", "city": "WINFIELD", "district": "COWLEY COUNTY", "region": "KS", "postcode": "67156", "hash": "7dad22e063c9b39f"}, "geometry": {"type": "Point", "coordinates": [-97.0443459, 37.2333376]}}
{"type": "Feature", "properties": {"id": "", "unit": "", "number": "32348", "street": "111TH RD", "city": "ARKANSAS CITY", "district": "COWLEY COUNTY", "region": "KS", "postcode": "67005", "hash": "19c501f79c3abb12"}, "geometry": {"type": "Point", "coordinates": [-96.945629, 37.0221175]}}
{"type": "Feature", "properties": {"id": "", "unit": "", "number": "1125", "street": "N 900 RD", "city": "UNINCORPORATED", "district": "DOUGLAS COUNTY", "region": "KS", "postcode": "66006", "hash": "07cae3d6746ad015"}, "geometry": {"type": "Point", "coordinates": [-95.2933877, 38.8696286]}}
{"type": "Feature", "properties": {"id": "", "unit": "", "number": "1176", "street": "N 800 RD", "city": "UNINCORPORATED", "district": "DOUGLAS COUNTY", "region": "KS", "postcode": "66006", "hash": "fe9325b7f5364d22"}, "geometry": {"type": "Point", "coordinates": [-95.2830137, 38.8590281]}}
{"type": "Feature", "properties": {"id": "", "unit": "", "number": "682", "street": "E 1150 RD", "city": "UNINCORPORATED", "district": "DOUGLAS COUNTY", "region": "KS", "postcode": "66006", "hash": "7f1f00e0e2305183"}, "geometry": {"type": "Point", "coordinates": [-95.2903654, 38.8383409]}}
{"type": "Feature", "properties": {"id": "", "unit": "", "number": "1023", "street": "N 680 RD", "city": "UNINCORPORATED", "district": "DOUGLAS COUNTY", "region": "KS", "postcode": "66006", "hash": "fd7439031defcd8b"}, "geometry": {"type": "Point", "coordinates": [-95.3119207, 38.8352338]}}
{"type": "Feature", "properties": {"id": "", "unit": "", "number": "774", "street": "N 400 RD", "city": "UNINCORPORATED", "district": "DOUGLAS COUNTY", "region": "KS", "postcode": "66006", "hash": "fe866ea9eef28a8b"}, "geometry": {"type": "Point", "coordinates": [-95.3580807, 38.7974899]}}
{"type": "Feature", "properties": {"id": "", "unit": "", "number": "895", "street": "E 1150 RD", "city": "UNINCORPORATED", "district": "DOUGLAS COUNTY", "region": "KS", "postcode": "66006", "hash": "49a8d022016caec7"}, "geometry": {"type": "Point", "coordinates": [-95.29315, 38.8691919]}}
{"type": "Feature", "properties": {"id": "", "unit": "", "number": "878", "street": "E 1150 RD", "city": "UNINCORPORATED", "district": "DOUGLAS COUNTY", "region": "KS", "postcode": "66006", "hash": "0e8cb6945f3de1b5"}, "geometry": {"type": "Point", "coordinates": [-95.2890648, 38.8669226]}}
{"type": "Feature", "properties": {"id": "", "unit": "", "number": "861", "street": "E 1150 RD", "city": "UNINCORPORATED", "district": "DOUGLAS COUNTY", "region": "KS", "postcode": "66006", "hash": "c89df8bd035e5d8e"}, "geometry": {"type": "Point", "coordinates": [-95.2890723, 38.8652641]}}
{"type": "Feature", "properties": {"id": "", "unit": "", "number": "856", "street": "E 1150 RD", "city": "UNINCORPORATED", "district": "DOUGLAS COUNTY", "region": "KS", "postcode": "66006", "hash": "6652fe83c8fe8d8f"}, "geometry": {"type": "Point", "coordinates": [-95.2863341, 38.8642331]}}
{"type": "Feature", "properties": {"id": "", "unit": "", "number": "793", "street": "E 1055 RD", "city": "UNINCORPORATED", "district": "DOUGLAS COUNTY", "region": "KS", "postcode": "66006", "hash": "c1e524db7eca7dc7"}, "geometry": {"type": "Point", "coordinates": [-95.3066037, 38.854242]}}
{"type": "Feature", "properties": {"id": "", "unit": "", "number": "777", "street": "E 1150 RD", "city": "UNINCORPORATED", "district": "DOUGLAS COUNTY", "region": "KS", "postcode": "66006", "hash": "79df6b510e30aa92"}, "geometry": {"type": "Point", "coordinates": [-95.2889882, 38.8521362]}}
{"type": "Feature", "properties": {"id": "", "unit": "", "number": "781", "street": "E 1055 RD", "city": "UNINCORPORATED", "district": "DOUGLAS COUNTY", "region": "KS", "postcode": "66006", "hash": "ab45589d799f58f9"}, "geometry": {"type": "Point", "coordinates": [-95.3062879, 38.8519259]}}
{"type": "Feature", "properties": {"id": "", "unit": "", "number": "739", "street": "E 1100 RD", "city": "UNINCORPORATED", "district": "DOUGLAS COUNTY", "region": "KS", "postcode": "66006", "hash": "63984cb937103392"}, "geometry": {"type": "Point", "coordinates": [-95.3003535, 38.8455139]}}
{"type": "Feature", "properties": {"id": "", "unit": "", "number": "731", "street": "E 1100 RD", "city": "UNINCORPORATED", "district": "DOUGLAS COUNTY", "region": "KS", "postcode": "66006", "hash": "2dc2bb75f54b5d5f"}, "geometry": {"type": "Point", "coordinates": [-95.2988847, 38.8453967]}}
{"type": "Feature", "properties": {"id": "", "unit": "", "number": "729", "street": "E 1150 RD", "city": "UNINCORPORATED", "district": "DOUGLAS COUNTY", "region": "KS", "postcode": "66006", "hash": "a754c9c62c966bdd"}, "geometry": {"type": "Point", "coordinates": [-95.2891649, 38.8448704]}}
{"type": "Feature", "properties": {"id": "", "unit": "", "number": "707", "street": "E 1100 RD", "city": "UNINCORPORATED", "district": "DOUGLAS COUNTY", "region": "KS", "postcode": "66006", "hash": "5dfa17f2dca02fa4"}, "geometry": {"type": "Point", "coordinates": [-95.2990727, 38.8417178]}}
{"type": "Feature", "properties": {"id": "", "unit": "", "number": "1208", "street": "N 650 RD", "city": "UNINCORPORATED", "district": "DOUGLAS COUNTY", "region": "KS", "postcode": "66006", "hash": "abb8d3fdbc0e7f29"}, "geometry": {"type": "Point", "coordinates": [-95.2786039, 38.8341451]}}
{"type": "Feature", "properties": {"id": "", "unit": "", "number": "1021", "street": "N 680 RD", "city": "UNINCORPORATED", "district": "DOUGLAS COUNTY", "region": "KS", "postcode": "66006", "hash": "96e5426a91dc2ef1"}, "geometry": {"type": "Point", "coordinates": [-95.3123493, 38.8358292]}}
{"type": "Feature", "properties": {"id": "", "unit": "", "number": "1094", "street": "N 650 RD", "city": "UNINCORPORATED", "district": "DOUGLAS COUNTY", "region": "KS", "postcode": "66006", "hash": "3727611921b241e4"}, "geometry": {"type": "Point", "coordinates": [-95.2984312, 38.8338591]}}
{"type": "Feature", "properties": {"id": "", "unit": "", "number": "1088", "street": "N 650 RD", "city": "UNINCORPORATED", "district": "DOUGLAS COUNTY", "region": "KS", "postcode": "66006", "hash": "63091669298c6ac2"}, "geometry": {"type": "Point", "coordinates": [-95.299379, 38.8338166]}}
{"type": "Feature", "properties": {"id": "", "unit": "", "number": "00000", "street": "262ND RD", "city": "Circleville", "district": "", "region": "KS", "postcode": "66416", "hash": "30145e34a4a58115"}, "geometry": {"type": "Point", "coordinates": [-95.8537942, 39.5252507]}}
{"type": "Feature", "properties": {"id": "", "unit": "", "number": "7750", "street": "262ND RD", "city": "Circleville", "district": "", "region": "KS", "postcode": "66416", "hash": "f7c549de18eba491"}, "geometry": {"type": "Point", "coordinates": [-95.8556016, 39.5218925]}}
{"type": "Feature", "properties": {"id": "", "unit": "", "number": "00000", "street": "T RD", "city": "Whiting", "district": "", "region": "KS", "postcode": "66552", "hash": "e4c429586f93b8fb"}, "geometry": {"type": "Point", "coordinates": [-95.6742394, 39.6004312]}}
{"type": "Feature", "properties": {"id": "", "unit": "", "number": "00000", "street": "T2 RD", "city": "Whiting", "district": "", "region": "KS", "postcode": "66552", "hash": "f274fa510d0894e0"}, "geometry": {"type": "Point", "coordinates": [-95.6697071, 39.6003869]}}
{"type": "Feature", "properties": {"id": "", "unit": "", "number": "30269", "street": "U RD", "city": "Whiting", "district": "", "region": "KS", "postcode": "66552", "hash": "a9478f916f4a2fd7"}, "geometry": {"type": "Point", "coordinates": [-95.6626832, 39.598714]}}
{"type": "Feature", "properties": {"id": "", "unit": "", "number": "00000", "street": "U RD", "city": "Whiting", "district": "", "region": "KS", "postcode": "66552", "hash": "9df6c57729bab990"}, "geometry": {"type": "Point", "coordinates": [-95.6531116, 39.6004997]}}
{"type": "Feature", "properties": {"id": "", "unit": "", "number": "00000", "street": "V RD", "city": "Whiting", "district": "", "region": "KS", "postcode": "66552", "hash": "4b43ab2715747908"}, "geometry": {"type": "Point", "coordinates": [-95.6439232, 39.600391]}}
{"type": "Feature", "properties": {"id": "", "unit": "", "number": "17200", "street": "K-9 HWY", "city": "Whiting", "district": "", "region": "KS", "postcode": "66552", "hash": "a8ce71c626b1dc10"}, "geometry": {"type": "Point", "coordinates": [-95.6353136, 39.5980275]}}
{"type": "Feature", "properties": {"id": "", "unit": "", "number": "00000", "street": "V4 RD", "city": "Whiting", "district": "", "region": "KS", "postcode": "66552", "hash": "428fe314127082e0"}, "geometry": {"type": "Point", "coordinates": [-95.6321599, 39.6003495]}}
{"type": "Feature", "properties": {"id": "", "unit": "", "number": "00000", "street": "302ND RD", "city": "Whiting", "district": "", "region": "KS", "postcode": "66552", "hash": "c9ded61e11b759c8"}, "geometry": {"type": "Point", "coordinates": [-95.6040831, 39.5986039]}}
{"type": "Feature", "properties": {"id": "", "unit": "", "number": "00000", "street": "302ND RD", "city": "Whiting", "district": "", "region": "KS", "postcode": "66552", "hash": "b9abd110d6160f5c"}, "geometry": {"type": "Point", "coordinates": [-95.5994109, 39.5985889]}}
{"type": "Feature", "properties": {"id": "", "unit": "", "number": "00000", "street": "302ND RD", "city": "Whiting", "district": "", "region": "KS", "postcode": "66552", "hash": "9052b3b64ba9279d"}, "geometry": {"type": "Point", "coordinates": [-95.5913219, 39.5977321]}}
{"type": "Feature", "properties": {"id": "", "unit": "", "number": "00000", "street": "Y RD", "city": "Whiting", "district": "", "region": "KS", "postcode": "66552", "hash": "9557680d985849c9"}, "geometry": {"type": "Point", "coordinates": [-95.5885083, 39.6002675]}}
{"type": "Feature", "properties": {"id": "", "unit": "", "number": "00000", "street": "Y4 RD", "city": "Whiting", "district": "", "region": "KS", "postcode": "66552", "hash": "b018997c0d6da6c9"}, "geometry": {"type": "Point", "coordinates": [-95.5760065, 39.6003863]}}
{"type": "Feature", "properties": {"id": "", "unit": "", "number": "00000", "street": "Y4 RD", "city": "Muscotah", "district": "", "region": "KS", "postcode": "66058", "hash": "bed7382976150c4f"}, "geometry": {"type": "Point", "coordinates": [-95.5689552, 39.5985328]}}
{"type": "Feature", "properties": {"id": "", "unit": "", "number": "00000", "street": "W4 RD", "city": "Whiting", "district": "", "region": "KS", "postcode": "66552", "hash": "2a9b023d7cd206c5"}, "geometry": {"type": "Point", "coordinates": [-95.6117907, 39.6024914]}}
{"type": "Feature", "properties": {"id": "", "unit": "", "number": "00000", "street": "T RD", "city": "Whiting", "district": "", "region": "KS", "postcode": "66552", "hash": "1b3ae6cbf714122b"}, "geometry": {"type": "Point", "coordinates": [-95.6742045, 39.6040372]}}
{"type": "Feature", "properties": {"id": "", "unit": "", "number": "00000", "street": "T2 RD", "city": "Whiting", "district": "", "region": "KS", "postcode": "66552", "hash": "49e67658b59d1549"}, "geometry": {"type": "Point", "coordinates": [-95.6696863, 39.604019]}}
{"type": "Feature", "properties": {"id": "", "unit": "", "number": "00000", "street": "U RD", "city": "Whiting", "district": "", "region": "KS", "postcode": "66552", "hash": "57c7cc299ec856d2"}, "geometry": {"type": "Point", "coordinates": [-95.6628046, 39.6040198]}}
{"type": "Feature", "properties": {"id": "", "unit": "", "number": "00000", "street": "U RD", "city": "Whiting", "district": "", "region": "KS", "postcode": "66552", "hash": "19233ac7973d8d76"}, "geometry": {"type": "Point", "coordinates": [-95.6532459, 39.6040159]}}
{"type": "Feature", "properties": {"id": "", "unit": "", "number": "1919", "street": "Fisher ST", "city": "Valley Falls", "district": "", "region": "KS", "postcode": "66088", "hash": "f1d8ffbca783d0a9"}, "geometry": {"type": "Point", "coordinates": [-95.4676268, 39.3307543]}}
{"type": "Feature", "properties": {"id": "", "unit": "", "number": "1919", "street": "Willow ST", "city": "Valley Falls", "district": "", "region": "KS", "postcode": "66088", "hash": "3debd7235b1e6bce"}, "geometry": {"type": "Point", "coordinates": [-95.4664975, 39.3305069]}}
{"type": "Feature", "properties": {"id": "", "unit": "", "number": "1918", "street": "Willow ST", "city": "Valley Falls", "district": "", "region": "KS", "postcode": "66088", "hash": "0a373744cef970de"}, "geometry": {"type": "Point", "coordinates": [-95.4670103, 39.3307254]}}
{"type": "Feature", "properties": {"id": "", "unit": "", "number": "1917", "street": "Willow ST", "city": "Valley Falls", "district": "", "region": "KS", "postcode": "66088", "hash": "80a647582f182ee2"}, "geometry": {"type": "Point", "coordinates": [-95.4665045, 39.3307766]}}
{"type": "Feature", "properties": {"id": "", "unit": "", "number": "1916", "street": "Willow ST", "city": "Valley Falls", "district": "", "region": "KS", "postcode": "66088", "hash": "94b0746ec71e108e"}, "geometry": {"type": "Point", "coordinates": [-95.467004, 39.3309922]}}
{"type": "Feature", "properties": {"id": "", "unit": "", "number": "1915", "street": "Willow ST", "city": "Valley Falls", "district": "", "region": "KS", "postcode": "66088", "hash": "656ede0882a1d701"}, "geometry": {"type": "Point", "coordinates": [-95.4664728, 39.331054]}}
{"type": "Feature", "properties": {"id": "", "unit": "", "number": "1913", "street": "Willow ST", "city": "Valley Falls", "district": "", "region": "KS", "postcode": "66088", "hash": "a1d78ab3f3bcfefc"}, "geometry": {"type": "Point", "coordinates": [-95.4665048, 39.3313236]}}
{"type": "Feature", "properties": {"id": "", "unit": "", "number": "1910", "street": "Willow ST", "city": "Valley Falls", "district": "", "region": "KS", "postcode": "66088", "hash": "a9443e649d1163ff"}, "geometry": {"type": "Point", "coordinates": [-95.467047, 39.3315609]}}
{"type": "Feature", "properties": {"id": "", "unit": "", "number": "1904", "street": "Fisher ST", "city": "Valley Falls", "district": "", "region": "KS", "postcode": "66088", "hash": "ef22f69767f19312"}, "geometry": {"type": "Point", "coordinates": [-95.4682585, 39.3324409]}}
{"type": "Feature", "properties": {"id": "", "unit": "", "number": "1900", "street": "Fisher ST", "city": "Valley Falls", "district": "", "region": "KS", "postcode": "66088", "hash": "757b0f90cf40dc14"}, "geometry": {"type": "Point", "coordinates": [-95.468335, 39.3328527]}}
{"type": "Feature", "properties": {"id": "", "unit": "", "number": "1903", "street": "Fisher ST", "city": "Valley Falls", "district": "", "region": "KS", "postcode": "66088", "hash": "5efe5a394e55bd03"}, "geometry": {"type": "Point", "coordinates": [-95.4677021, 39.3326871]}}
{"type": "Feature", "properties": {"id": "", "unit": "", "number": "1915", "street": "Fisher ST", "city": "Valley Falls", "district": "", "region": "KS", "postcode": "66088", "hash": "e41cdfcb80680aa2"}, "geometry": {"type": "Point", "coordinates": [-95.4676152, 39.3312596]}}
{"type": "Feature", "properties": {"id": "", "unit": "", "number": "1913", "street": "Fisher ST", "city": "Valley Falls", "district": "", "region": "KS", "postcode": "66088", "hash": "7dedf74557a16f2a"}, "geometry": {"type": "Point", "coordinates": [-95.4676871, 39.3314892]}}
{"type": "Feature", "properties": {"id": "", "unit": "", "number": "1914", "street": "Fisher ST", "city": "Valley Falls", "district": "", "region": "KS", "postcode": "66088", "hash": "89ac04fccfdb68e7"}, "geometry": {"type": "Point", "coordinates": [-95.468247, 39.3311411]}}
{"type": "Feature", "properties": {"id": "", "unit": "", "number": "1912", "street": "Fisher ST", "city": "Valley Falls", "district": "", "region": "KS", "postcode": "66088", "hash": "18c2602601dad055"}, "geometry": {"type": "Point", "coordinates": [-95.4682483, 39.3314755]}}
{"type": "Feature", "properties": {"id": "", "unit": "", "number": "1908", "street": "Fisher ST", "city": "Valley Falls", "district": "", "region": "KS", "postcode": "66088", "hash": "110ce3cfb5897910"}, "geometry": {"type": "Point", "coordinates": [-95.4682505, 39.3319395]}}
{"type": "Feature", "properties": {"id": "", "unit": "", "number": "1920", "street": "Fisher ST", "city": "Valley Falls", "district": "", "region": "KS", "postcode": "66088", "hash": "fdf1feba1f41c884"}, "geometry": {"type": "Point", "coordinates": [-95.4682037, 39.3304895]}}
{"type": "Feature", "properties": {"id": "", "unit": "", "number": "1909", "street": "Fisher ST", "city": "Valley Falls", "district": "", "region": "KS", "postcode": "66088", "hash": "c17b1821b460ab84"}, "geometry": {"type": "Point", "coordinates": [-95.4677137, 39.3320021]}}
{"type": "Feature", "properties": {"id": "", "unit": "", "number": "1907", "street": "Fisher ST", "city": "Valley Falls", "district": "", "region": "KS", "postcode": "66088", "hash": "2c4c2e85c60741ca"}, "geometry": {"type": "Point", "coordinates": [-95.4676921, 39.3322395]}}
{"type": "Feature", "properties": {"id": "", "unit": "", "number": "1911", "street": "Fisher ST", "city": "Valley Falls", "district": "", "region": "KS", "postcode": "66088", "hash": "0f7c205063e57e53"}, "geometry": {"type": "Point", "coordinates": [-95.4676948, 39.3317382]}}
