{"type": "Feature", "properties": {"hash": "3a510db664dba942", "number": "30448", "street": "HWY 124", "unit": "", "city": "JONESVILLE", "district": "", "region": "LA", "postcode": "71343", "id": ""}, "geometry": {"type": "Point", "coordinates": [-91.881641, 31.3312795]}}
{"type": "Feature", "properties": {"hash": "13e26597e89f249f", "number": "30456", "street": "HWY 124", "unit": "", "city": "JONESVILLE", "district": "", "region": "LA", "postcode": "71343", "id": ""}, "geometry": {"type": "Point", "coordinates": [-91.8819675, 31.3312327]}}
{"type": "Feature", "properties": {"hash": "ea39bea68b0b2cfb", "number": "105", "street": "HWY 3102", "unit": "", "city": "JONESVILLE", "district": "", "region": "LA", "postcode": "71343", "id": ""}, "geometry": {"type": "Point", "coordinates": [-91.886334, 31.3312862]}}
{"type": "Feature", "properties": {"hash": "e4d555f5cebd3f5c", "number": "107", "street": "HWY 3102", "unit": "", "city": "JONESVILLE", "district": "", "region": "LA", "postcode": "71343", "id": ""}, "geometry": {"type": "Point", "coordinates": [-91.8861179, 31.33123]}}
{"type": "Feature", "properties": {"hash": "d8ae62053f059a18", "number": "149", "street": "HWY 3102", "unit": "", "city": "JONESVILLE", "district": "", "region": "LA", "postcode": "71343", "id": ""}, "geometry": {"type": "Point", "coordinates": [-91.8858073, 31.3318817]}}
{"type": "Feature", "properties": {"hash": "1111a4a8c0d6db34", "number": "161", "street": "HWY 3102", "unit": "", "city": "JONESVILLE", "district": "", "region": "LA", "postcode": "71343", "id": ""}, "geometry": {"type": "Point", "coordinates": [-91.8861065, 31.332471]}}
{"type": "Feature", "properties": {"hash": "8e23374b54705536", "number": "183", "street": "HWY 3102", "unit": "", "city": "JONESVILLE", "district": "", "region": "LA", "postcode": "71343", "id": ""}, "geometry": {"type": "Point", "coordinates": [-91.8858136, 31.3327736]}}
{"type": "Feature", "properties": {"hash": "93d86b9114b2cf5b", "number": "29918", "street": "HWY 124", "unit": "", "city": "JONESVILLE", "district": "", "region": "LA", "postcode": "71343", "id": ""}, "geometry": {"type": "Point", "coordinates": [-91.8735276, 31.3432381]}}
{"type": "Feature", "properties": {"hash": "a17355827d416003", "number": "29904", "street": "HWY 124", "unit": "", "city": "JONESVILLE", "district": "", "region": "LA", "postcode": "71343", "id": ""}, "geometry": {"type": "Point", "coordinates": [-91.8731703, 31.3436298]}}
{"type": "Feature", "properties": {"hash": "fbeefa8cafcc9769", "number": "1295", "street": "MOODY RD", "unit": "", "city": "JONESVILLE", "district": "", "region": "LA", "postcode": "71343", "id": ""}, "geometry": {"type": "Point", "coordinates": [-91.978655, 31.3300561]}}
{"type": "Feature", "properties": {"hash": "297401984a58c7e7", "number": "7470", "street": "HWY 3102", "unit": "", "city": "JONESVILLE", "district": "", "region": "LA", "postcode": "71343", "id": ""}, "geometry": {"type": "Point", "coordinates": [-91.9316888, 31.3398148]}}
{"type": "Feature", "properties": {"hash": "56528cac2c2596ac", "number": "7090", "street": "HWY 3102", "unit": "", "city": "JONESVILLE", "district": "", "region": "LA", "postcode": "71343", "id": ""}, "geometry": {"type": "Point", "coordinates": [-91.9322851, 31.340574]}}
{"type": "Feature", "properties": {"hash": "596da3a14708cc61", "number": "6964", "street": "HWY 3102", "unit": "", "city": "JONESVILLE", "district": "", "region": "LA", "postcode": "71343", "id": ""}, "geometry": {"type": "Point", "coordinates": [-91.9324573, 31.3408404]}}
{"type": "Feature", "properties": {"hash": "758f9f8fd49b32e5", "number": "6578", "street": "HWY 3102", "unit": "", "city": "JONESVILLE", "district": "", "region": "LA", "postcode": "71343", "id": ""}, "geometry": {"type": "Point", "coordinates": [-91.933135, 31.3418837]}}
{"type": "Feature", "properties": {"hash": "8aac551c4398f9d8", "number": "6308", "street": "HWY 3102", "unit": "", "city": "JONESVILLE", "district": "", "region": "LA", "postcode": "71343", "id": ""}, "geometry": {"type": "Point", "coordinates": [-91.9334685, 31.3423009]}}
{"type": "Feature", "properties": {"hash": "b093c80a4d7ebbbb", "number": "244", "street": "LARTO BAYOU RD", "unit": "", "city": "JONESVILLE", "district": "", "region": "LA", "postcode": "71343", "id": ""}, "geometry": {"type": "Point", "coordinates": [-91.8871273, 31.3271305]}}
{"type": "Feature", "properties": {"hash": "ad7072c294463789", "number": "576", "street": "BOOK RD", "unit": "", "city": "JONESVILLE", "district": "", "region": "LA", "postcode": "71343", "id": ""}, "geometry": {"type": "Point", "coordinates": [-91.8716271, 31.3352669]}}
{"type": "Feature", "properties": {"hash": "4f103f4eaf92ebee", "number": "536", "street": "BOOK RD", "unit": "", "city": "JONESVILLE", "district": "", "region": "LA", "postcode": "71343", "id": ""}, "geometry": {"type": "Point", "coordinates": [-91.8715219, 31.3364072]}}
{"type": "Feature", "properties": {"hash": "5bdd4060aff2f635", "number": "440", "street": "BOOK RD", "unit": "", "city": "JONESVILLE", "district": "", "region": "LA", "postcode": "71343", "id": ""}, "geometry": {"type": "Point", "coordinates": [-91.8708999, 31.3390023]}}
{"type": "Feature", "properties": {"hash": "34cbbfc3b9f945b8", "number": "316", "street": "BOOK RD", "unit": "", "city": "JONESVILLE", "district": "", "region": "LA", "postcode": "71343", "id": ""}, "geometry": {"type": "Point", "coordinates": [-91.8698583, 31.3422846]}}
{"type": "Feature", "properties": {"hash": "f52078f98f271eb6", "number": "338", "street": "BOOK RD", "unit": "", "city": "JONESVILLE", "district": "", "region": "LA", "postcode": "71343", "id": ""}, "geometry": {"type": "Point", "coordinates": [-91.8703915, 31.3417313]}}
{"type": "Feature", "properties": {"hash": "68ba7793da7cddc4", "number": "1335", "street": "LARTO BAYOU RD", "unit": "", "city": "JONESVILLE", "district": "", "region": "LA", "postcode": "71343", "id": ""}, "geometry": {"type": "Point", "coordinates": [-91.8899504, 31.3003411]}}
{"type": "Feature", "properties": {"hash": "0c02029c514071e2", "number": "2736", "street": "MOODY RD", "unit": "", "city": "JONESVILLE", "district": "", "region": "LA", "postcode": "71343", "id": ""}, "geometry": {"type": "Point", "coordinates": [-91.8318358, 31.2885633]}}
{"type": "Feature", "properties": {"hash": "6eb4a918760fbbe9", "number": "3914", "street": "VICK RD", "unit": "", "city": "VICK", "district": "", "region": "LA", "postcode": "71331", "id": ""}, "geometry": {"type": "Point", "coordinates": [-91.9909097, 31.2545867]}}
{"type": "Feature", "properties": {"hash": "ed01da982dc6bae4", "number": "3924", "street": "VICK RD", "unit": "", "city": "VICK", "district": "", "region": "LA", "postcode": "71331", "id": ""}, "geometry": {"type": "Point", "coordinates": [-91.9911119, 31.2541493]}}
{"type": "Feature", "properties": {"hash": "5a37c61b7b1270bc", "number": "4848", "street": "VICK RD", "unit": "", "city": "VICK", "district": "", "region": "LA", "postcode": "71331", "id": ""}, "geometry": {"type": "Point", "coordinates": [-91.9926738, 31.2546492]}}
{"type": "Feature", "properties": {"hash": "c27fd956c19ed27e", "number": "5034", "street": "VICK RD", "unit": "", "city": "VICK", "district": "", "region": "LA", "postcode": "71331", "id": ""}, "geometry": {"type": "Point", "coordinates": [-91.9951389, 31.2541321]}}
{"type": "Feature", "properties": {"hash": "c57ff72c9eba3694", "number": "4866", "street": "VICK RD", "unit": "", "city": "VICK", "district": "", "region": "LA", "postcode": "71331", "id": ""}, "geometry": {"type": "Point", "coordinates": [-91.9939882, 31.2541749]}}
{"type": "Feature", "properties": {"hash": "11e755ad01d40ec0", "number": "3543", "street": "VICK RD", "unit": "", "city": "VICK", "district": "", "region": "LA", "postcode": "71331", "id": ""}, "geometry": {"type": "Point", "coordinates": [-91.983296, 31.2492065]}}
{"type": "Feature", "properties": {"hash": "a62431865581d2ba", "number": "185", "street": "SOUTH FARMS LOOP RD", "unit": "", "city": "VICK", "district": "", "region": "LA", "postcode": "71331", "id": ""}, "geometry": {"type": "Point", "coordinates": [-91.9831008, 31.248254]}}
{"type": "Feature", "properties": {"hash": "66fe9b6a95b42742", "number": "282", "street": "INNER LOOP", "unit": "", "city": "VICK", "district": "", "region": "LA", "postcode": "71331", "id": ""}, "geometry": {"type": "Point", "coordinates": [-91.9844904, 31.2461404]}}
{"type": "Feature", "properties": {"hash": "f74ff35251869abe", "number": "269", "street": "SOUTH FARMS LOOP RD", "unit": "", "city": "VICK", "district": "", "region": "LA", "postcode": "71331", "id": ""}, "geometry": {"type": "Point", "coordinates": [-91.9833548, 31.2459591]}}
{"type": "Feature", "properties": {"hash": "07b30e5d7f973818", "number": "247", "street": "SOUTH FARMS LOOP RD", "unit": "", "city": "VICK", "district": "", "region": "LA", "postcode": "71331", "id": ""}, "geometry": {"type": "Point", "coordinates": [-91.983292, 31.2465154]}}
{"type": "Feature", "properties": {"hash": "75530c0e76ba82a3", "number": "5741", "street": "HWY 783", "unit": "", "city": "COUSHATTA", "district": "", "region": "LA", "postcode": "71019", "id": ""}, "geometry": {"type": "Point", "coordinates": [-93.3417599, 32.1367998]}}
{"type": "Feature", "properties": {"hash": "fff1403efb1dfee2", "number": "5767", "street": "HWY 783", "unit": "", "city": "COUSHATTA", "district": "", "region": "LA", "postcode": "71019", "id": ""}, "geometry": {"type": "Point", "coordinates": [-93.3428816, 32.1351927]}}
{"type": "Feature", "properties": {"hash": "6d2c346a039b7eb9", "number": "5777", "street": "HWY 783", "unit": "", "city": "COUSHATTA", "district": "", "region": "LA", "postcode": "71019", "id": ""}, "geometry": {"type": "Point", "coordinates": [-93.3429384, 32.1346304]}}
{"type": "Feature", "properties": {"hash": "1e17e19d2b208024", "number": "5781", "street": "HWY 783", "unit": "", "city": "COUSHATTA", "district": "", "region": "LA", "postcode": "71019", "id": ""}, "geometry": {"type": "Point", "coordinates": [-93.3429536, 32.1341864]}}
{"type": "Feature", "properties": {"hash": "7a901d2c32e91153", "number": "5725", "street": "HWY 783", "unit": "", "city": "COUSHATTA", "district": "", "region": "LA", "postcode": "71019", "id": ""}, "geometry": {"type": "Point", "coordinates": [-93.342867, 32.1380463]}}
{"type": "Feature", "properties": {"hash": "2568cc80dc52b390", "number": "5219", "street": "HWY 783", "unit": "", "city": "COUSHATTA", "district": "", "region": "LA", "postcode": "71019", "id": ""}, "geometry": {"type": "Point", "coordinates": [-93.335531, 32.1709594]}}
{"type": "Feature", "properties": {"hash": "a6bd94f3df3bcf15", "number": "5237", "street": "HWY 783", "unit": "", "city": "COUSHATTA", "district": "", "region": "LA", "postcode": "71019", "id": ""}, "geometry": {"type": "Point", "coordinates": [-93.3356284, 32.1699781]}}
{"type": "Feature", "properties": {"hash": "9eda7af8a7fc331f", "number": "4546", "street": "HWY 783", "unit": "", "city": "RINGGOLD", "district": "", "region": "LA", "postcode": "71068", "id": ""}, "geometry": {"type": "Point", "coordinates": [-93.3287926, 32.2005584]}}
{"type": "Feature", "properties": {"hash": "8bcdbd321fa9ac02", "number": "4429", "street": "HWY 783", "unit": "", "city": "RINGGOLD", "district": "", "region": "LA", "postcode": "71068", "id": ""}, "geometry": {"type": "Point", "coordinates": [-93.3300096, 32.2087328]}}
{"type": "Feature", "properties": {"hash": "706a0bf7e240ed2c", "number": "5008", "street": "CUTOFF RD", "unit": "", "city": "COUSHATTA", "district": "", "region": "LA", "postcode": "71019", "id": ""}, "geometry": {"type": "Point", "coordinates": [-93.3400906, 32.0238704]}}
{"type": "Feature", "properties": {"hash": "c1a6cb39ee15e295", "number": "5025", "street": "CUTOFF RD", "unit": "", "city": "COUSHATTA", "district": "", "region": "LA", "postcode": "71019", "id": ""}, "geometry": {"type": "Point", "coordinates": [-93.3385218, 32.0229182]}}
{"type": "Feature", "properties": {"hash": "d747112fda7928bd", "number": "5035", "street": "CUTOFF RD", "unit": "", "city": "COUSHATTA", "district": "", "region": "LA", "postcode": "71019", "id": ""}, "geometry": {"type": "Point", "coordinates": [-93.338014, 32.0224414]}}
{"type": "Feature", "properties": {"hash": "b62825ecc4e955dd", "number": "5039", "street": "CUTOFF RD", "unit": "", "city": "COUSHATTA", "district": "", "region": "LA", "postcode": "71019", "id": ""}, "geometry": {"type": "Point", "coordinates": [-93.3376181, 32.0222673]}}
{"type": "Feature", "properties": {"hash": "a1715d3a8cccc44b", "number": "5041", "street": "CUTOFF RD", "unit": "", "city": "COUSHATTA", "district": "", "region": "LA", "postcode": "71019", "id": ""}, "geometry": {"type": "Point", "coordinates": [-93.33683, 32.0229362]}}
{"type": "Feature", "properties": {"hash": "a90b2a400b30466d", "number": "5022", "street": "CUTOFF RD", "unit": "", "city": "COUSHATTA", "district": "", "region": "LA", "postcode": "71019", "id": ""}, "geometry": {"type": "Point", "coordinates": [-93.3394619, 32.0227507]}}
{"type": "Feature", "properties": {"hash": "f597e8751aba08d0", "number": "5020", "street": "CUTOFF RD", "unit": "", "city": "COUSHATTA", "district": "", "region": "LA", "postcode": "71019", "id": ""}, "geometry": {"type": "Point", "coordinates": [-93.3399139, 32.0231065]}}
{"type": "Feature", "properties": {"hash": "742a31d5263722f0", "number": "5024", "street": "CUTOFF RD", "unit": "", "city": "COUSHATTA", "district": "", "region": "LA", "postcode": "71019", "id": ""}, "geometry": {"type": "Point", "coordinates": [-93.3396877, 32.0218072]}}
{"type": "Feature", "properties": {"hash": "1645b6c43627260d", "number": "5036", "street": "CUTOFF RD", "unit": "", "city": "COUSHATTA", "district": "", "region": "LA", "postcode": "71019", "id": ""}, "geometry": {"type": "Point", "coordinates": [-93.338517, 32.0216285]}}
{"type": "Feature", "properties": {"hash": "9dbac28aedd4c21a", "number": "5040", "street": "CUTOFF RD", "unit": "", "city": "COUSHATTA", "district": "", "region": "LA", "postcode": "71019", "id": ""}, "geometry": {"type": "Point", "coordinates": [-93.3381841, 32.0213869]}}
{"type": "Feature", "properties": {"hash": "f44eb3231863d4a8", "number": "5044", "street": "CUTOFF RD", "unit": "", "city": "COUSHATTA", "district": "", "region": "LA", "postcode": "71019", "id": ""}, "geometry": {"type": "Point", "coordinates": [-93.3377803, 32.0212061]}}
{"type": "Feature", "properties": {"hash": "9ee62c2d90671899", "number": "5048", "street": "CUTOFF RD", "unit": "", "city": "COUSHATTA", "district": "", "region": "LA", "postcode": "71019", "id": ""}, "geometry": {"type": "Point", "coordinates": [-93.337361, 32.0211399]}}
{"type": "Feature", "properties": {"hash": "a485432b538efe4a", "number": "5075", "street": "CUTOFF RD", "unit": "", "city": "COUSHATTA", "district": "", "region": "LA", "postcode": "71019", "id": ""}, "geometry": {"type": "Point", "coordinates": [-93.3350043, 32.0208902]}}
{"type": "Feature", "properties": {"hash": "7c126e044f6e6fdd", "number": "5076", "street": "CUTOFF RD", "unit": "", "city": "COUSHATTA", "district": "", "region": "LA", "postcode": "71019", "id": ""}, "geometry": {"type": "Point", "coordinates": [-93.3357608, 32.0202214]}}
{"type": "Feature", "properties": {"hash": "e3fc01798f09179b", "number": "5082", "street": "CUTOFF RD", "unit": "", "city": "COUSHATTA", "district": "", "region": "LA", "postcode": "71019", "id": ""}, "geometry": {"type": "Point", "coordinates": [-93.3352616, 32.0199264]}}
{"type": "Feature", "properties": {"hash": "d144379bcfa12d6a", "number": "5115", "street": "CUTOFF RD", "unit": "", "city": "COUSHATTA", "district": "", "region": "LA", "postcode": "71019", "id": ""}, "geometry": {"type": "Point", "coordinates": [-93.3321784, 32.019884]}}
{"type": "Feature", "properties": {"hash": "99f112a2134979f3", "number": "5113", "street": "CUTOFF RD", "unit": "", "city": "COUSHATTA", "district": "", "region": "LA", "postcode": "71019", "id": ""}, "geometry": {"type": "Point", "coordinates": [-93.3324715, 32.0200718]}}
{"type": "Feature", "properties": {"hash": "526a4ee83c0fdad5", "number": "1316", "street": "RINGGOLD AVE", "unit": "", "city": "COUSHATTA", "district": "", "region": "LA", "postcode": "71019", "id": ""}, "geometry": {"type": "Point", "coordinates": [-93.3401628, 32.0262916]}}
{"type": "Feature", "properties": {"hash": "e2b0d6ce717f640d", "number": "1414", "street": "RINGGOLD AVE", "unit": "", "city": "COUSHATTA", "district": "", "region": "LA", "postcode": "71019", "id": ""}, "geometry": {"type": "Point", "coordinates": [-93.3402214, 32.0250454]}}
{"type": "Feature", "properties": {"hash": "276d9150b3dab3a2", "number": "1500", "street": "RINGGOLD AVE", "unit": "", "city": "COUSHATTA", "district": "", "region": "LA", "postcode": "71019", "id": ""}, "geometry": {"type": "Point", "coordinates": [-93.3408811, 32.0238515]}}
{"type": "Feature", "properties": {"hash": "9fb72216dd5d78e9", "number": "1516", "street": "RINGGOLD AVE", "unit": "", "city": "COUSHATTA", "district": "", "region": "LA", "postcode": "71019", "id": ""}, "geometry": {"type": "Point", "coordinates": [-93.3413919, 32.0230082]}}
{"type": "Feature", "properties": {"hash": "f6eedf09ef83428a", "number": "1512", "street": "RINGGOLD AVE", "unit": "", "city": "COUSHATTA", "district": "", "region": "LA", "postcode": "71019", "id": ""}, "geometry": {"type": "Point", "coordinates": [-93.3413294, 32.0232239]}}
{"type": "Feature", "properties": {"hash": "810e65d412efe065", "number": "1508", "street": "RINGGOLD AVE", "unit": "", "city": "COUSHATTA", "district": "", "region": "LA", "postcode": "71019", "id": ""}, "geometry": {"type": "Point", "coordinates": [-93.3411329, 32.0235208]}}
{"type": "Feature", "properties": {"hash": "e58b47612f829cb8", "number": "5020N", "street": "RINGGOLD AVE", "unit": "", "city": "COUSHATTA", "district": "", "region": "LA", "postcode": "71019", "id": ""}, "geometry": {"type": "Point", "coordinates": [-93.3408066, 32.0229391]}}
{"type": "Feature", "properties": {"hash": "de5a08d1ce7371c6", "number": "245", "street": "WOODLAND DR", "unit": "", "city": "LAPLACE", "district": "", "region": "LA", "postcode": "70068", "id": ""}, "geometry": {"type": "Point", "coordinates": [-90.4538868, 30.0891004]}}
{"type": "Feature", "properties": {"hash": "47658a55c9788430", "number": "256", "street": "WOODLAND DR", "unit": "", "city": "LAPLACE", "district": "", "region": "LA", "postcode": "70068", "id": ""}, "geometry": {"type": "Point", "coordinates": [-90.4531889, 30.0904205]}}
{"type": "Feature", "properties": {"hash": "5901848393588b19", "number": "241", "street": "WOODLAND DR", "unit": "", "city": "LAPLACE", "district": "", "region": "LA", "postcode": "70068", "id": ""}, "geometry": {"type": "Point", "coordinates": [-90.4548872, 30.0881761]}}
{"type": "Feature", "properties": {"hash": "69063c6b9e901ff2", "number": "77", "street": "SAWGRASS DR", "unit": "", "city": "LAPLACE", "district": "", "region": "LA", "postcode": "70068", "id": ""}, "geometry": {"type": "Point", "coordinates": [-90.4556606, 30.0891664]}}
{"type": "Feature", "properties": {"hash": "dfc4e93c096c0550", "number": "124", "street": "DOTTIE LN", "unit": "", "city": "FRENIER", "district": "", "region": "LA", "postcode": "70068", "id": ""}, "geometry": {"type": "Point", "coordinates": [-90.4236477, 30.1062774]}}
{"type": "Feature", "properties": {"hash": "528a6ba150fcdf81", "number": "111", "street": "JEAN ST", "unit": "", "city": "LAPLACE", "district": "", "region": "LA", "postcode": "70068", "id": ""}, "geometry": {"type": "Point", "coordinates": [-90.4385762, 30.0888856]}}
{"type": "Feature", "properties": {"hash": "18efcbd291f64666", "number": "133", "street": "LAKE VIEW DR", "unit": "", "city": "FRENIER", "district": "", "region": "LA", "postcode": "70068", "id": ""}, "geometry": {"type": "Point", "coordinates": [-90.4240264, 30.1057319]}}
{"type": "Feature", "properties": {"hash": "49058390468f746c", "number": "127", "street": "LAKE VIEW DR", "unit": "", "city": "FRENIER", "district": "", "region": "LA", "postcode": "70068", "id": ""}, "geometry": {"type": "Point", "coordinates": [-90.4238754, 30.1057042]}}
{"type": "Feature", "properties": {"hash": "917f5780abcb029f", "number": "153", "street": "LAKE VIEW DR", "unit": "", "city": "FRENIER", "district": "", "region": "LA", "postcode": "70068", "id": ""}, "geometry": {"type": "Point", "coordinates": [-90.4248025, 30.1057879]}}
{"type": "Feature", "properties": {"hash": "69f85741b58e4161", "number": "125", "street": "DOTTIE LN", "unit": "", "city": "FRENIER", "district": "", "region": "LA", "postcode": "70068", "id": ""}, "geometry": {"type": "Point", "coordinates": [-90.4230677, 30.10628]}}
{"type": "Feature", "properties": {"hash": "a324c6f602d12c77", "number": "113", "street": "DOTTIE LN", "unit": "", "city": "FRENIER", "district": "", "region": "LA", "postcode": "70068", "id": ""}, "geometry": {"type": "Point", "coordinates": [-90.4226018, 30.1068286]}}
{"type": "Feature", "properties": {"hash": "1a5166b8ef968e08", "number": "117", "street": "PONTCHARTRAIN RD", "unit": "", "city": "FRENIER", "district": "", "region": "LA", "postcode": "70068", "id": ""}, "geometry": {"type": "Point", "coordinates": [-90.4238632, 30.1067419]}}
{"type": "Feature", "properties": {"hash": "5026daf38e2c497d", "number": "110", "street": "FRENIER RD", "unit": "", "city": "LAPLACE", "district": "", "region": "LA", "postcode": "70068", "id": ""}, "geometry": {"type": "Point", "coordinates": [-90.4363332, 30.095073]}}
{"type": "Feature", "properties": {"hash": "f5aed8151896d7f7", "number": "107", "street": "ESTRACA LN", "unit": "", "city": "FRENIER", "district": "", "region": "LA", "postcode": "70068", "id": ""}, "geometry": {"type": "Point", "coordinates": [-90.4257895, 30.1017589]}}
{"type": "Feature", "properties": {"hash": "e072e439726f23af", "number": "110", "street": "ESTRACA LN", "unit": "", "city": "FRENIER", "district": "", "region": "LA", "postcode": "70068", "id": ""}, "geometry": {"type": "Point", "coordinates": [-90.4254313, 30.1019195]}}
{"type": "Feature", "properties": {"hash": "2542ab95dcec7b75", "number": "117", "street": "DOTTIE LN", "unit": "", "city": "FRENIER", "district": "", "region": "LA", "postcode": "70068", "id": ""}, "geometry": {"type": "Point", "coordinates": [-90.4230837, 30.1066457]}}
{"type": "Feature", "properties": {"hash": "160718b405469536", "number": "326", "street": "FRENIER RD", "unit": "", "city": "FRENIER", "district": "", "region": "LA", "postcode": "70068", "id": ""}, "geometry": {"type": "Point", "coordinates": [-90.4288295, 30.0998622]}}
{"type": "Feature", "properties": {"hash": "7e935491ae701fea", "number": "175", "street": "LAKE VIEW DR", "unit": "", "city": "FRENIER", "district": "", "region": "LA", "postcode": "70068", "id": ""}, "geometry": {"type": "Point", "coordinates": [-90.4256494, 30.105752]}}
{"type": "Feature", "properties": {"hash": "b3d9f540b1e6110a", "number": "109", "street": "ESTRACA LN", "unit": "", "city": "FRENIER", "district": "", "region": "LA", "postcode": "70068", "id": ""}, "geometry": {"type": "Point", "coordinates": [-90.4256163, 30.1017363]}}
{"type": "Feature", "properties": {"hash": "48881c08f6036564", "number": "119", "street": "PEACOCK RD", "unit": "", "city": "FRENIER", "district": "", "region": "LA", "postcode": "70068", "id": ""}, "geometry": {"type": "Point", "coordinates": [-90.425065, 30.1082186]}}
{"type": "Feature", "properties": {"hash": "dddb201cd570a2ad", "number": "153", "street": "GARY RD", "unit": "", "city": "FRENIER", "district": "", "region": "LA", "postcode": "70068", "id": ""}, "geometry": {"type": "Point", "coordinates": [-90.4247705, 30.1089922]}}
{"type": "Feature", "properties": {"hash": "f19c1d06b73400c0", "number": "198", "street": "GARY RD", "unit": "", "city": "FRENIER", "district": "", "region": "LA", "postcode": "70068", "id": ""}, "geometry": {"type": "Point", "coordinates": [-90.4247293, 30.1105512]}}
{"type": "Feature", "properties": {"hash": "0f09d5d34f3e5f53", "number": "125", "street": "GARY RD", "unit": "", "city": "FRENIER", "district": "", "region": "LA", "postcode": "70068", "id": ""}, "geometry": {"type": "Point", "coordinates": [-90.4248422, 30.1079653]}}
{"type": "Feature", "properties": {"hash": "e1169e56dcbe2470", "number": "145", "street": "GARY RD", "unit": "", "city": "FRENIER", "district": "", "region": "LA", "postcode": "70068", "id": ""}, "geometry": {"type": "Point", "coordinates": [-90.4247864, 30.1086764]}}
{"type": "Feature", "properties": {"hash": "6f61f28dd3a6b768", "number": "135", "street": "GARY RD", "unit": "", "city": "FRENIER", "district": "", "region": "LA", "postcode": "70068", "id": ""}, "geometry": {"type": "Point", "coordinates": [-90.4246635, 30.1082984]}}
{"type": "Feature", "properties": {"hash": "db92b58742dda433", "number": "147", "street": "LAKE VIEW DR", "unit": "", "city": "FRENIER", "district": "", "region": "LA", "postcode": "70068", "id": ""}, "geometry": {"type": "Point", "coordinates": [-90.424621, 30.1057111]}}
{"type": "Feature", "properties": {"hash": "b0a46a20d4e210ee", "number": "141", "street": "LAKE VIEW DR", "unit": "", "city": "FRENIER", "district": "", "region": "LA", "postcode": "70068", "id": ""}, "geometry": {"type": "Point", "coordinates": [-90.4244058, 30.1057606]}}
{"type": "Feature", "properties": {"hash": "76b8c6033050f33f", "number": "117", "street": "GARY RD", "unit": "", "city": "FRENIER", "district": "", "region": "LA", "postcode": "70068", "id": ""}, "geometry": {"type": "Point", "coordinates": [-90.4245903, 30.1079073]}}
{"type": "Feature", "properties": {"hash": "c17cd3bea2d735bc", "number": "150", "street": "GARY RD", "unit": "", "city": "FRENIER", "district": "", "region": "LA", "postcode": "70068", "id": ""}, "geometry": {"type": "Point", "coordinates": [-90.4244479, 30.1089544]}}
{"type": "Feature", "properties": {"hash": "88cfbbaed7506f9a", "number": "157", "street": "GARY RD", "unit": "", "city": "FRENIER", "district": "", "region": "LA", "postcode": "70068", "id": ""}, "geometry": {"type": "Point", "coordinates": [-90.4248709, 30.1091845]}}
{"type": "Feature", "properties": {"hash": "054ab4a697f300a4", "number": "138", "street": "PEACOCK RD", "unit": "", "city": "FRENIER", "district": "", "region": "LA", "postcode": "70068", "id": ""}, "geometry": {"type": "Point", "coordinates": [-90.4255699, 30.1091503]}}
{"type": "Feature", "properties": {"hash": "2019fbc69a238307", "number": "137", "street": "LAKE VIEW DR", "unit": "", "city": "FRENIER", "district": "", "region": "LA", "postcode": "70068", "id": ""}, "geometry": {"type": "Point", "coordinates": [-90.424292, 30.1057802]}}
{"type": "Feature", "properties": {"hash": "efa0b94f786541ad", "number": "118", "street": "GARY RD", "unit": "", "city": "FRENIER", "district": "", "region": "LA", "postcode": "70068", "id": ""}, "geometry": {"type": "Point", "coordinates": [-90.4239386, 30.1078582]}}
