{"type": "Feature", "properties": {"hash": "91596ec0691b6362", "number": "17", "street": "ROBERTS STREET", "unit": "1", "city": "BROOKLINE", "district": "NORFOLK", "region": "MA", "postcode": "02445", "id": "1"}, "geometry": {"type": "Point", "coordinates": [-71.1228556, 42.3267429]}}
{"type": "Feature", "properties": {"hash": "7dd04dbac0250d91", "number": "22", "street": "SHEAFE STREET", "unit": "1", "city": "BROOKLINE", "district": "NORFOLK", "region": "MA", "postcode": "02467", "id": "2"}, "geometry": {"type": "Point", "coordinates": [-71.1644828, 42.322518]}}
{"type": "Feature", "properties": {"hash": "6a7c330b6077e011", "number": "28", "street": "BROWNE STREET", "unit": "1", "city": "BROOKLINE", "district": "NORFOLK", "region": "MA", "postcode": "02446", "id": "3"}, "geometry": {"type": "Point", "coordinates": [-71.1165005, 42.3453809]}}
{"type": "Feature", "properties": {"hash": "4770483bd23259cc", "number": "1531", "street": "BEACON STREET", "unit": "1", "city": "BROOKLINE", "district": "NORFOLK", "region": "MA", "postcode": "02446", "id": "4"}, "geometry": {"type": "Point", "coordinates": [-71.1307138, 42.3392747]}}
{"type": "Feature", "properties": {"hash": "a89c6abefcf79184", "number": "116", "street": "LAWTON STREET", "unit": "", "city": "BROOKLINE", "district": "NORFOLK", "region": "MA", "postcode": "02446", "id": "5"}, "geometry": {"type": "Point", "coordinates": [-71.1274303, 42.3497374]}}
{"type": "Feature", "properties": {"hash": "fe623f84e558302a", "number": "10", "street": "KENT SQUARE", "unit": "1", "city": "BROOKLINE", "district": "NORFOLK", "region": "MA", "postcode": "02446", "id": "6"}, "geometry": {"type": "Point", "coordinates": [-71.1130391, 42.3378318]}}
{"type": "Feature", "properties": {"hash": "5c518d8bf1985f5b", "number": "26", "street": "SHEAFE STREET", "unit": "1", "city": "BROOKLINE", "district": "NORFOLK", "region": "MA", "postcode": "02467", "id": "7"}, "geometry": {"type": "Point", "coordinates": [-71.1646201, 42.3224532]}}
{"type": "Feature", "properties": {"hash": "c69f945793da46aa", "number": "34", "street": "SHEAFE STREET", "unit": "1", "city": "BROOKLINE", "district": "NORFOLK", "region": "MA", "postcode": "02467", "id": "8"}, "geometry": {"type": "Point", "coordinates": [-71.1649473, 42.3222989]}}
{"type": "Feature", "properties": {"hash": "875152bc31934b01", "number": "8", "street": "SHEAFE STREET", "unit": "1", "city": "BROOKLINE", "district": "NORFOLK", "region": "MA", "postcode": "02467", "id": "9"}, "geometry": {"type": "Point", "coordinates": [-71.1639607, 42.3227712]}}
{"type": "Feature", "properties": {"hash": "ac42b3d44bd392b5", "number": "35", "street": "SHEAFE STREET", "unit": "1", "city": "BROOKLINE", "district": "NORFOLK", "region": "MA", "postcode": "02467", "id": "10"}, "geometry": {"type": "Point", "coordinates": [-71.1651026, 42.3226194]}}
{"type": "Feature", "properties": {"hash": "12b7216039c3a564", "number": "39", "street": "SHEAFE STREET", "unit": "1", "city": "BROOKLINE", "district": "NORFOLK", "region": "MA", "postcode": "02467", "id": "11"}, "geometry": {"type": "Point", "coordinates": [-71.1652768, 42.322547]}}
{"type": "Feature", "properties": {"hash": "e27fb7a8291db3ed", "number": "25", "street": "SHEAFE STREET", "unit": "1", "city": "BROOKLINE", "district": "NORFOLK", "region": "MA", "postcode": "02467", "id": "12"}, "geometry": {"type": "Point", "coordinates": [-71.1647253, 42.3227632]}}
{"type": "Feature", "properties": {"hash": "78b64e772782c7ef", "number": "21", "street": "SHEAFE STREET", "unit": "1", "city": "BROOKLINE", "district": "NORFOLK", "region": "MA", "postcode": "02467", "id": "13"}, "geometry": {"type": "Point", "coordinates": [-71.1645556, 42.322828]}}
{"type": "Feature", "properties": {"hash": "2cf3bd67d39ce6e9", "number": "26", "street": "VERNON STREET", "unit": "1", "city": "BROOKLINE", "district": "NORFOLK", "region": "MA", "postcode": "02446", "id": "14"}, "geometry": {"type": "Point", "coordinates": [-71.122697, 42.3386813]}}
{"type": "Feature", "properties": {"hash": "074062d92b184d5d", "number": "85", "street": "VERNDALE STREET", "unit": "1", "city": "BROOKLINE", "district": "NORFOLK", "region": "MA", "postcode": "02446", "id": "15"}, "geometry": {"type": "Point", "coordinates": [-71.1330014, 42.3468425]}}
{"type": "Feature", "properties": {"hash": "f36bb9928f9f9f46", "number": "184", "street": "WINCHESTER STREET", "unit": "1", "city": "BROOKLINE", "district": "NORFOLK", "region": "MA", "postcode": "02446", "id": "16"}, "geometry": {"type": "Point", "coordinates": [-71.1317197, 42.3447082]}}
{"type": "Feature", "properties": {"hash": "37fcb943e7d6313f", "number": "1531", "street": "BEACON STREET", "unit": "2", "city": "BROOKLINE", "district": "NORFOLK", "region": "MA", "postcode": "02446", "id": "17"}, "geometry": {"type": "Point", "coordinates": [-71.1307138, 42.3392747]}}
{"type": "Feature", "properties": {"hash": "3611dcf1ab6386cd", "number": "372", "street": "BOYLSTON STREET", "unit": "2", "city": "BROOKLINE", "district": "NORFOLK", "region": "MA", "postcode": "02445", "id": "18"}, "geometry": {"type": "Point", "coordinates": [-71.126663, 42.3297578]}}
{"type": "Feature", "properties": {"hash": "62b67af17e0e12ce", "number": "112", "street": "BEALS STREET", "unit": "2", "city": "BROOKLINE", "district": "NORFOLK", "region": "MA", "postcode": "02446", "id": "19"}, "geometry": {"type": "Point", "coordinates": [-71.1227015, 42.3480323]}}
{"type": "Feature", "properties": {"hash": "ccbebe84bedea961", "number": "91", "street": "HARVARD AVENUE", "unit": "2", "city": "BROOKLINE", "district": "NORFOLK", "region": "MA", "postcode": "02446", "id": "20"}, "geometry": {"type": "Point", "coordinates": [-71.1248699, 42.3373735]}}
{"type": "Feature", "properties": {"hash": "a7be2f5ba7c46357", "number": "9", "street": "COLUMBIA STREET", "unit": "2", "city": "BROOKLINE", "district": "NORFOLK", "region": "MA", "postcode": "02446", "id": "21"}, "geometry": {"type": "Point", "coordinates": [-71.129112, 42.3467144]}}
{"type": "Feature", "properties": {"hash": "2fae48760f2f6f87", "number": "28", "street": "BROWNE STREET", "unit": "2", "city": "BROOKLINE", "district": "NORFOLK", "region": "MA", "postcode": "02446", "id": "22"}, "geometry": {"type": "Point", "coordinates": [-71.1165013, 42.3453817]}}
{"type": "Feature", "properties": {"hash": "1e76157d0856b106", "number": "102", "street": "HARVARD STREET", "unit": "2", "city": "BROOKLINE", "district": "NORFOLK", "region": "MA", "postcode": "02446", "id": "23"}, "geometry": {"type": "Point", "coordinates": [-71.1212971, 42.3362352]}}
{"type": "Feature", "properties": {"hash": "9853024c7ae7f87d", "number": "34", "street": "NAPLES ROAD", "unit": "2", "city": "BROOKLINE", "district": "NORFOLK", "region": "MA", "postcode": "02446", "id": "24"}, "geometry": {"type": "Point", "coordinates": [-71.1257406, 42.3461772]}}
{"type": "Feature", "properties": {"hash": "d868623712fddc87", "number": "21", "street": "OSBORNE ROAD", "unit": "2", "city": "BROOKLINE", "district": "NORFOLK", "region": "MA", "postcode": "02446", "id": "25"}, "geometry": {"type": "Point", "coordinates": [-71.1227182, 42.3496386]}}
{"type": "Feature", "properties": {"hash": "a3fc5f795093be35", "number": "17", "street": "ROBERTS STREET", "unit": "2", "city": "BROOKLINE", "district": "NORFOLK", "region": "MA", "postcode": "02445", "id": "26"}, "geometry": {"type": "Point", "coordinates": [-71.1228556, 42.3267429]}}
{"type": "Feature", "properties": {"hash": "f3d4c1ccd6f13f0d", "number": "18", "street": "SHEAFE STREET", "unit": "2", "city": "BROOKLINE", "district": "NORFOLK", "region": "MA", "postcode": "02467", "id": "27"}, "geometry": {"type": "Point", "coordinates": [-71.1643296, 42.3225886]}}
{"type": "Feature", "properties": {"hash": "dcc0e964e1f49577", "number": "8", "street": "SHEAFE STREET", "unit": "2", "city": "BROOKLINE", "district": "NORFOLK", "region": "MA", "postcode": "02467", "id": "28"}, "geometry": {"type": "Point", "coordinates": [-71.1639607, 42.3227712]}}
{"type": "Feature", "properties": {"hash": "32c58be80e936753", "number": "21", "street": "SHEAFE STREET", "unit": "2", "city": "BROOKLINE", "district": "NORFOLK", "region": "MA", "postcode": "02467", "id": "29"}, "geometry": {"type": "Point", "coordinates": [-71.1645556, 42.322828]}}
{"type": "Feature", "properties": {"hash": "dcc7f40938979467", "number": "91", "street": "HARVARD AVENUE", "unit": "1", "city": "BROOKLINE", "district": "NORFOLK", "region": "MA", "postcode": "02446", "id": "30"}, "geometry": {"type": "Point", "coordinates": [-71.1248699, 42.3373735]}}
{"type": "Feature", "properties": {"hash": "96031db4f893af35", "number": "22", "street": "SHEAFE STREET", "unit": "2", "city": "BROOKLINE", "district": "NORFOLK", "region": "MA", "postcode": "02467", "id": "31"}, "geometry": {"type": "Point", "coordinates": [-71.1644828, 42.322518]}}
{"type": "Feature", "properties": {"hash": "b8b48181c5ef9dd0", "number": "30", "street": "SHEAFE STREET", "unit": "2", "city": "BROOKLINE", "district": "NORFOLK", "region": "MA", "postcode": "02467", "id": "32"}, "geometry": {"type": "Point", "coordinates": [-71.1647581, 42.3223871]}}
{"type": "Feature", "properties": {"hash": "55c1343987a9263e", "number": "34", "street": "SHEAFE STREET", "unit": "2", "city": "BROOKLINE", "district": "NORFOLK", "region": "MA", "postcode": "02467", "id": "33"}, "geometry": {"type": "Point", "coordinates": [-71.1649473, 42.3222989]}}
{"type": "Feature", "properties": {"hash": "6635f28964cd7ed4", "number": "18", "street": "SHEAFE STREET", "unit": "1", "city": "BROOKLINE", "district": "NORFOLK", "region": "MA", "postcode": "02467", "id": "34"}, "geometry": {"type": "Point", "coordinates": [-71.1643296, 42.3225886]}}
{"type": "Feature", "properties": {"hash": "e789ffa4d04aeb31", "number": "25", "street": "SHEAFE STREET", "unit": "2", "city": "BROOKLINE", "district": "NORFOLK", "region": "MA", "postcode": "02467", "id": "35"}, "geometry": {"type": "Point", "coordinates": [-71.1647253, 42.3227632]}}
{"type": "Feature", "properties": {"hash": "c184814cf2d12354", "number": "131", "street": "WINCHESTER STREET", "unit": "2", "city": "BROOKLINE", "district": "NORFOLK", "region": "MA", "postcode": "02446", "id": "36"}, "geometry": {"type": "Point", "coordinates": [-71.1293272, 42.3443192]}}
{"type": "Feature", "properties": {"hash": "9cae15179b6fbe0f", "number": "21", "street": "OSBORNE ROAD", "unit": "3", "city": "BROOKLINE", "district": "NORFOLK", "region": "MA", "postcode": "02446", "id": "37"}, "geometry": {"type": "Point", "coordinates": [-71.1227182, 42.3496386]}}
{"type": "Feature", "properties": {"hash": "6ad0f4d7e14c1006", "number": "91", "street": "HARVARD AVENUE", "unit": "3", "city": "BROOKLINE", "district": "NORFOLK", "region": "MA", "postcode": "02446", "id": "38"}, "geometry": {"type": "Point", "coordinates": [-71.1248699, 42.3373735]}}
{"type": "Feature", "properties": {"hash": "e0cfdba56725a6b1", "number": "150", "street": "NAPLES ROAD", "unit": "3", "city": "BROOKLINE", "district": "NORFOLK", "region": "MA", "postcode": "02446", "id": "39"}, "geometry": {"type": "Point", "coordinates": [-71.1240844, 42.3502537]}}
{"type": "Feature", "properties": {"hash": "83291c6ec6aa50ed", "number": "26", "street": "SHEAFE STREET", "unit": "2", "city": "BROOKLINE", "district": "NORFOLK", "region": "MA", "postcode": "02467", "id": "40"}, "geometry": {"type": "Point", "coordinates": [-71.1646201, 42.3224532]}}
{"type": "Feature", "properties": {"hash": "1500a53a6bd46c6c", "number": "30", "street": "SHEAFE STREET", "unit": "1", "city": "BROOKLINE", "district": "NORFOLK", "region": "MA", "postcode": "02467", "id": "41"}, "geometry": {"type": "Point", "coordinates": [-71.1647581, 42.3223871]}}
{"type": "Feature", "properties": {"hash": "249b0f8ee0f900e8", "number": "39", "street": "SHEAFE STREET", "unit": "2", "city": "BROOKLINE", "district": "NORFOLK", "region": "MA", "postcode": "02467", "id": "42"}, "geometry": {"type": "Point", "coordinates": [-71.1652768, 42.322547]}}
{"type": "Feature", "properties": {"hash": "bffa432d7efbb336", "number": "21", "street": "SHEAFE STREET", "unit": "3", "city": "BROOKLINE", "district": "NORFOLK", "region": "MA", "postcode": "02467", "id": "43"}, "geometry": {"type": "Point", "coordinates": [-71.1645556, 42.322828]}}
{"type": "Feature", "properties": {"hash": "673fdc8416189ebc", "number": "39", "street": "SHEAFE STREET", "unit": "3", "city": "BROOKLINE", "district": "NORFOLK", "region": "MA", "postcode": "02467", "id": "44"}, "geometry": {"type": "Point", "coordinates": [-71.1652768, 42.322547]}}
{"type": "Feature", "properties": {"hash": "9993348d1ec55695", "number": "8", "street": "SHEAFE STREET", "unit": "3", "city": "BROOKLINE", "district": "NORFOLK", "region": "MA", "postcode": "02467", "id": "45"}, "geometry": {"type": "Point", "coordinates": [-71.1639607, 42.3227712]}}
{"type": "Feature", "properties": {"hash": "4fbae51f1b0319ae", "number": "91", "street": "HARVARD AVENUE", "unit": "5", "city": "BROOKLINE", "district": "NORFOLK", "region": "MA", "postcode": "02446", "id": "46"}, "geometry": {"type": "Point", "coordinates": [-71.1248699, 42.3373735]}}
{"type": "Feature", "properties": {"hash": "099cba5e86d71081", "number": "35", "street": "SHEAFE STREET", "unit": "3", "city": "BROOKLINE", "district": "NORFOLK", "region": "MA", "postcode": "02467", "id": "47"}, "geometry": {"type": "Point", "coordinates": [-71.1651026, 42.3226194]}}
{"type": "Feature", "properties": {"hash": "c6fc3b33d268602d", "number": "91", "street": "HARVARD AVENUE", "unit": "4", "city": "BROOKLINE", "district": "NORFOLK", "region": "MA", "postcode": "02446", "id": "48"}, "geometry": {"type": "Point", "coordinates": [-71.1248699, 42.3373735]}}
{"type": "Feature", "properties": {"hash": "d206f2b5af89f70d", "number": "91", "street": "HARVARD AVENUE", "unit": "6", "city": "BROOKLINE", "district": "NORFOLK", "region": "MA", "postcode": "02446", "id": "49"}, "geometry": {"type": "Point", "coordinates": [-71.1248699, 42.3373735]}}
{"type": "Feature", "properties": {"hash": "c06d55d6fec9bfc0", "number": "50", "street": "BABCOCK STREET", "unit": "7", "city": "BROOKLINE", "district": "NORFOLK", "region": "MA", "postcode": "02446", "id": "50"}, "geometry": {"type": "Point", "coordinates": [-71.1223984, 42.3448248]}}
{"type": "Feature", "properties": {"hash": "6ee930c3f4926d50", "number": "35", "street": "SHEAFE STREET", "unit": "2", "city": "BROOKLINE", "district": "NORFOLK", "region": "MA", "postcode": "02467", "id": "51"}, "geometry": {"type": "Point", "coordinates": [-71.1651026, 42.3226194]}}
{"type": "Feature", "properties": {"hash": "6c05bc33bebdf3a9", "number": "50", "street": "BABCOCK STREET", "unit": "8", "city": "BROOKLINE", "district": "NORFOLK", "region": "MA", "postcode": "02446", "id": "52"}, "geometry": {"type": "Point", "coordinates": [-71.1224061, 42.3448328]}}
{"type": "Feature", "properties": {"hash": "7f898537af8a44dd", "number": "219", "street": "HARVARD STREET", "unit": "8", "city": "BROOKLINE", "district": "NORFOLK", "region": "MA", "postcode": "02446", "id": "53"}, "geometry": {"type": "Point", "coordinates": [-71.1203107, 42.3400793]}}
{"type": "Feature", "properties": {"hash": "ecc6dc3491cb502c", "number": "147", "street": "BABCOCK STREET", "unit": "7", "city": "BROOKLINE", "district": "NORFOLK", "region": "MA", "postcode": "02446", "id": "54"}, "geometry": {"type": "Point", "coordinates": [-71.1208449, 42.3480851]}}
{"type": "Feature", "properties": {"hash": "d9e3f903163c57d6", "number": "50", "street": "BABCOCK STREET", "unit": "9", "city": "BROOKLINE", "district": "NORFOLK", "region": "MA", "postcode": "02446", "id": "55"}, "geometry": {"type": "Point", "coordinates": [-71.1224158, 42.3448283]}}
{"type": "Feature", "properties": {"hash": "1dc1be0311e59bc2", "number": "289", "street": "KENT STREET", "unit": "6", "city": "BROOKLINE", "district": "NORFOLK", "region": "MA", "postcode": "02446", "id": "56"}, "geometry": {"type": "Point", "coordinates": [-71.1122307, 42.3408318]}}
{"type": "Feature", "properties": {"hash": "7759d54ad7169b83", "number": "17", "street": "ROBERTS STREET", "unit": "3", "city": "BROOKLINE", "district": "NORFOLK", "region": "MA", "postcode": "02445", "id": "57"}, "geometry": {"type": "Point", "coordinates": [-71.1228556, 42.3267429]}}
{"type": "Feature", "properties": {"hash": "38b04cd559374fb9", "number": "34", "street": "NAPLES ROAD", "unit": "3", "city": "BROOKLINE", "district": "NORFOLK", "region": "MA", "postcode": "02446", "id": "58"}, "geometry": {"type": "Point", "coordinates": [-71.1257223, 42.3461614]}}
{"type": "Feature", "properties": {"hash": "f9938983aa933abf", "number": "83", "street": "IVY STREET", "unit": "11", "city": "BROOKLINE", "district": "NORFOLK", "region": "MA", "postcode": "02446", "id": "59"}, "geometry": {"type": "Point", "coordinates": [-71.1074598, 42.3471841]}}
{"type": "Feature", "properties": {"hash": "29d0807a20b2e343", "number": "83", "street": "IVY STREET", "unit": "12", "city": "BROOKLINE", "district": "NORFOLK", "region": "MA", "postcode": "02446", "id": "60"}, "geometry": {"type": "Point", "coordinates": [-71.1074598, 42.3471841]}}
{"type": "Feature", "properties": {"hash": "2fd377022e5c09e4", "number": "219", "street": "HARVARD STREET", "unit": "11", "city": "BROOKLINE", "district": "NORFOLK", "region": "MA", "postcode": "02446", "id": "61"}, "geometry": {"type": "Point", "coordinates": [-71.120308, 42.3400827]}}
{"type": "Feature", "properties": {"hash": "350d9fec8ef7d39f", "number": "219", "street": "HARVARD STREET", "unit": "12", "city": "BROOKLINE", "district": "NORFOLK", "region": "MA", "postcode": "02446", "id": "62"}, "geometry": {"type": "Point", "coordinates": [-71.1203111, 42.3400819]}}
{"type": "Feature", "properties": {"hash": "24265ecbb1f460c4", "number": "83", "street": "IVY STREET", "unit": "14", "city": "BROOKLINE", "district": "NORFOLK", "region": "MA", "postcode": "02446", "id": "63"}, "geometry": {"type": "Point", "coordinates": [-71.1074598, 42.3471841]}}
{"type": "Feature", "properties": {"hash": "211d2c3150bc60db", "number": "219", "street": "HARVARD STREET", "unit": "14", "city": "BROOKLINE", "district": "NORFOLK", "region": "MA", "postcode": "02446", "id": "64"}, "geometry": {"type": "Point", "coordinates": [-71.120308, 42.3400804]}}
{"type": "Feature", "properties": {"hash": "e4c5c34d0b544420", "number": "219", "street": "HARVARD STREET", "unit": "15", "city": "BROOKLINE", "district": "NORFOLK", "region": "MA", "postcode": "02446", "id": "65"}, "geometry": {"type": "Point", "coordinates": [-71.1203091, 42.3400804]}}
{"type": "Feature", "properties": {"hash": "1aaece932228eafe", "number": "219", "street": "HARVARD STREET", "unit": "7", "city": "BROOKLINE", "district": "NORFOLK", "region": "MA", "postcode": "02446", "id": "66"}, "geometry": {"type": "Point", "coordinates": [-71.1203111, 42.3400819]}}
{"type": "Feature", "properties": {"hash": "6082f52249ff50a5", "number": "219", "street": "HARVARD STREET", "unit": "16", "city": "BROOKLINE", "district": "NORFOLK", "region": "MA", "postcode": "02446", "id": "67"}, "geometry": {"type": "Point", "coordinates": [-71.1203091, 42.3400819]}}
{"type": "Feature", "properties": {"hash": "082bb13e88bb4f90", "number": "219", "street": "HARVARD STREET", "unit": "10", "city": "BROOKLINE", "district": "NORFOLK", "region": "MA", "postcode": "02446", "id": "68"}, "geometry": {"type": "Point", "coordinates": [-71.1203132, 42.3400789]}}
{"type": "Feature", "properties": {"hash": "b8c8df880a48e784", "number": "219", "street": "HARVARD STREET", "unit": "17", "city": "BROOKLINE", "district": "NORFOLK", "region": "MA", "postcode": "02446", "id": "69"}, "geometry": {"type": "Point", "coordinates": [-71.1203132, 42.3400819]}}
{"type": "Feature", "properties": {"hash": "71c4a0b43c0bbfd5", "number": "219", "street": "HARVARD STREET", "unit": "20", "city": "BROOKLINE", "district": "NORFOLK", "region": "MA", "postcode": "02446", "id": "70"}, "geometry": {"type": "Point", "coordinates": [-71.1202947, 42.3400788]}}
{"type": "Feature", "properties": {"hash": "c82c99637c45c40e", "number": "219", "street": "HARVARD STREET", "unit": "22", "city": "BROOKLINE", "district": "NORFOLK", "region": "MA", "postcode": "02446", "id": "71"}, "geometry": {"type": "Point", "coordinates": [-71.120269, 42.3400803]}}
{"type": "Feature", "properties": {"hash": "2906dd1829655ff2", "number": "219", "street": "HARVARD STREET", "unit": "19", "city": "BROOKLINE", "district": "NORFOLK", "region": "MA", "postcode": "02446", "id": "72"}, "geometry": {"type": "Point", "coordinates": [-71.1203111, 42.3400812]}}
{"type": "Feature", "properties": {"hash": "9ceb3ee964d875ea", "number": "219", "street": "HARVARD STREET", "unit": "9", "city": "BROOKLINE", "district": "NORFOLK", "region": "MA", "postcode": "02446", "id": "73"}, "geometry": {"type": "Point", "coordinates": [-71.1203059, 42.3400903]}}
{"type": "Feature", "properties": {"hash": "9d07fcac332b25ab", "number": "83", "street": "IVY STREET", "unit": "21", "city": "BROOKLINE", "district": "NORFOLK", "region": "MA", "postcode": "02446", "id": "74"}, "geometry": {"type": "Point", "coordinates": [-71.1074598, 42.3471841]}}
{"type": "Feature", "properties": {"hash": "dfb440125fce0154", "number": "83", "street": "IVY STREET", "unit": "22", "city": "BROOKLINE", "district": "NORFOLK", "region": "MA", "postcode": "02446", "id": "75"}, "geometry": {"type": "Point", "coordinates": [-71.1074598, 42.3471841]}}
{"type": "Feature", "properties": {"hash": "b83c1adcd490c531", "number": "83", "street": "IVY STREET", "unit": "23", "city": "BROOKLINE", "district": "NORFOLK", "region": "MA", "postcode": "02446", "id": "76"}, "geometry": {"type": "Point", "coordinates": [-71.1074598, 42.3471841]}}
{"type": "Feature", "properties": {"hash": "84a74deceab0f6ca", "number": "219", "street": "HARVARD STREET", "unit": "23", "city": "BROOKLINE", "district": "NORFOLK", "region": "MA", "postcode": "02446", "id": "77"}, "geometry": {"type": "Point", "coordinates": [-71.1203049, 42.3400865]}}
{"type": "Feature", "properties": {"hash": "21d9075a3f7fb975", "number": "83", "street": "IVY STREET", "unit": "31", "city": "BROOKLINE", "district": "NORFOLK", "region": "MA", "postcode": "02446", "id": "78"}, "geometry": {"type": "Point", "coordinates": [-71.1074598, 42.3471841]}}
{"type": "Feature", "properties": {"hash": "9e3afbc74efff148", "number": "83", "street": "IVY STREET", "unit": "32", "city": "BROOKLINE", "district": "NORFOLK", "region": "MA", "postcode": "02446", "id": "79"}, "geometry": {"type": "Point", "coordinates": [-71.1074598, 42.3471841]}}
{"type": "Feature", "properties": {"hash": "26f4a344ca29e240", "number": "83", "street": "IVY STREET", "unit": "33", "city": "BROOKLINE", "district": "NORFOLK", "region": "MA", "postcode": "02446", "id": "80"}, "geometry": {"type": "Point", "coordinates": [-71.1074598, 42.3471841]}}
{"type": "Feature", "properties": {"hash": "abd7cedbfcc7248b", "number": "83", "street": "IVY STREET", "unit": "41", "city": "BROOKLINE", "district": "NORFOLK", "region": "MA", "postcode": "02446", "id": "81"}, "geometry": {"type": "Point", "coordinates": [-71.1074598, 42.3471841]}}
{"type": "Feature", "properties": {"hash": "e25de654a77b9ba4", "number": "83", "street": "IVY STREET", "unit": "24", "city": "BROOKLINE", "district": "NORFOLK", "region": "MA", "postcode": "02446", "id": "82"}, "geometry": {"type": "Point", "coordinates": [-71.1074598, 42.3471841]}}
{"type": "Feature", "properties": {"hash": "f72548cc614153aa", "number": "83", "street": "IVY STREET", "unit": "42", "city": "BROOKLINE", "district": "NORFOLK", "region": "MA", "postcode": "02446", "id": "83"}, "geometry": {"type": "Point", "coordinates": [-71.1074598, 42.3471841]}}
{"type": "Feature", "properties": {"hash": "e7a43f80b350e58a", "number": "83", "street": "IVY STREET", "unit": "43", "city": "BROOKLINE", "district": "NORFOLK", "region": "MA", "postcode": "02446", "id": "84"}, "geometry": {"type": "Point", "coordinates": [-71.1074598, 42.3471841]}}
{"type": "Feature", "properties": {"hash": "41d18f38c02edfce", "number": "83", "street": "IVY STREET", "unit": "44", "city": "BROOKLINE", "district": "NORFOLK", "region": "MA", "postcode": "02446", "id": "85"}, "geometry": {"type": "Point", "coordinates": [-71.1074598, 42.3471841]}}
{"type": "Feature", "properties": {"hash": "290e50d30d5c5a12", "number": "83", "street": "IVY STREET", "unit": "34", "city": "BROOKLINE", "district": "NORFOLK", "region": "MA", "postcode": "02446", "id": "86"}, "geometry": {"type": "Point", "coordinates": [-71.1074598, 42.3471841]}}
{"type": "Feature", "properties": {"hash": "a630888b29f8c804", "number": "56", "street": "GARRISON STREET", "unit": "56", "city": "BROOKLINE", "district": "NORFOLK", "region": "MA", "postcode": "02445", "id": "87"}, "geometry": {"type": "Point", "coordinates": [-71.1382024, 42.3373292]}}
{"type": "Feature", "properties": {"hash": "bf333cfb75d85183", "number": "1397", "street": "BEACON STREET", "unit": "203", "city": "BROOKLINE", "district": "NORFOLK", "region": "MA", "postcode": "02446", "id": "88"}, "geometry": {"type": "Point", "coordinates": [-71.1246278, 42.3408904]}}
{"type": "Feature", "properties": {"hash": "44404df7377b595e", "number": "1397", "street": "BEACON STREET", "unit": "103", "city": "BROOKLINE", "district": "NORFOLK", "region": "MA", "postcode": "02446", "id": "89"}, "geometry": {"type": "Point", "coordinates": [-71.1246278, 42.3408904]}}
{"type": "Feature", "properties": {"hash": "ac5b10cd3180cef1", "number": "1397", "street": "BEACON STREET", "unit": "201", "city": "BROOKLINE", "district": "NORFOLK", "region": "MA", "postcode": "02446", "id": "90"}, "geometry": {"type": "Point", "coordinates": [-71.1246278, 42.3408904]}}
{"type": "Feature", "properties": {"hash": "32a0689588744332", "number": "54", "street": "GARRISON STREET", "unit": "54", "city": "BROOKLINE", "district": "NORFOLK", "region": "MA", "postcode": "02445", "id": "91"}, "geometry": {"type": "Point", "coordinates": [-71.1382022, 42.3373301]}}
{"type": "Feature", "properties": {"hash": "e1f49cdfa3446f81", "number": "83", "street": "IVY STREET", "unit": "13", "city": "BROOKLINE", "district": "NORFOLK", "region": "MA", "postcode": "02446", "id": "92"}, "geometry": {"type": "Point", "coordinates": [-71.1074598, 42.3471841]}}
{"type": "Feature", "properties": {"hash": "e3c1d204ff00c263", "number": "1397", "street": "BEACON STREET", "unit": "306", "city": "BROOKLINE", "district": "NORFOLK", "region": "MA", "postcode": "02446", "id": "93"}, "geometry": {"type": "Point", "coordinates": [-71.1246278, 42.3408904]}}
{"type": "Feature", "properties": {"hash": "e88dae7f95caf251", "number": "1397", "street": "BEACON STREET", "unit": "301", "city": "BROOKLINE", "district": "NORFOLK", "region": "MA", "postcode": "02446", "id": "94"}, "geometry": {"type": "Point", "coordinates": [-71.1246278, 42.3408904]}}
{"type": "Feature", "properties": {"hash": "41c2fa41f999acb3", "number": "1397", "street": "BEACON STREET", "unit": "206", "city": "BROOKLINE", "district": "NORFOLK", "region": "MA", "postcode": "02446", "id": "95"}, "geometry": {"type": "Point", "coordinates": [-71.1246278, 42.3408904]}}
{"type": "Feature", "properties": {"hash": "7d2b6464f18ca1dd", "number": "1397", "street": "BEACON STREET", "unit": "407", "city": "BROOKLINE", "district": "NORFOLK", "region": "MA", "postcode": "02446", "id": "96"}, "geometry": {"type": "Point", "coordinates": [-71.1246278, 42.3408904]}}
{"type": "Feature", "properties": {"hash": "65b2efbb1783fff0", "number": "1397", "street": "BEACON STREET", "unit": "508", "city": "BROOKLINE", "district": "NORFOLK", "region": "MA", "postcode": "02446", "id": "97"}, "geometry": {"type": "Point", "coordinates": [-71.1246278, 42.3408904]}}
{"type": "Feature", "properties": {"hash": "1ab194fed8cead5a", "number": "1397", "street": "BEACON STREET", "unit": "505", "city": "BROOKLINE", "district": "NORFOLK", "region": "MA", "postcode": "02446", "id": "98"}, "geometry": {"type": "Point", "coordinates": [-71.1246278, 42.3408904]}}
{"type": "Feature", "properties": {"hash": "9b44325611a7a112", "number": "219", "street": "HARVARD STREET", "unit": "18", "city": "BROOKLINE", "district": "NORFOLK", "region": "MA", "postcode": "02446", "id": "99"}, "geometry": {"type": "Point", "coordinates": [-71.1203049, 42.3400834]}}
{"type": "Feature", "properties": {"hash": "104a7aa7497b8ca5", "number": "1397", "street": "BEACON STREET", "unit": "402", "city": "BROOKLINE", "district": "NORFOLK", "region": "MA", "postcode": "02446", "id": "100"}, "geometry": {"type": "Point", "coordinates": [-71.1246278, 42.3408904]}}
