{"type": "Feature", "properties": {"hash": "659341e6f3278bc1", "number": "2106", "street": "HARMONY WOODS RD", "unit": "", "city": "OWINGS MILLS", "district": "", "region": "MD", "postcode": "21117", "id": ""}, "geometry": {"type": "Point", "coordinates": [-76.7157594, 39.4601476]}}
{"type": "Feature", "properties": {"hash": "f9c3bf7088701712", "number": "8610", "street": "VALLEYFIELD RD", "unit": "", "city": "LUTHERVILLE TIMONIUM", "district": "", "region": "MD", "postcode": "21093", "id": ""}, "geometry": {"type": "Point", "coordinates": [-76.637655, 39.4276281]}}
{"type": "Feature", "properties": {"hash": "74798e110017a487", "number": "3605", "street": "JACKSON CABIN RD", "unit": "", "city": "PHOENIX", "district": "", "region": "MD", "postcode": "21131", "id": ""}, "geometry": {"type": "Point", "coordinates": [-76.5543247, 39.5168139]}}
{"type": "Feature", "properties": {"hash": "788b2a7ac242844d", "number": "1700", "street": "N  ROLLING RD", "unit": "", "city": "WINDSOR MILL", "district": "", "region": "MD", "postcode": "21244", "id": ""}, "geometry": {"type": "Point", "coordinates": [-76.7538035, 39.3080542]}}
{"type": "Feature", "properties": {"hash": "4375932265e8d5ba", "number": "8623", "street": "OAK RD", "unit": "", "city": "PARKVILLE", "district": "", "region": "MD", "postcode": "21234", "id": ""}, "geometry": {"type": "Point", "coordinates": [-76.5576585, 39.3954643]}}
{"type": "Feature", "properties": {"hash": "954fe4967754421e", "number": "1704", "street": "PARSONAGE RD", "unit": "", "city": "PARKTON", "district": "", "region": "MD", "postcode": "21120", "id": ""}, "geometry": {"type": "Point", "coordinates": [-76.7039263, 39.6539516]}}
{"type": "Feature", "properties": {"hash": "3b6a49cb7559e85d", "number": "54", "street": "TRAILWOOD RD", "unit": "", "city": "NOTTINGHAM", "district": "", "region": "MD", "postcode": "21236", "id": ""}, "geometry": {"type": "Point", "coordinates": [-76.4639956, 39.3815227]}}
{"type": "Feature", "properties": {"hash": "860a1730c3c7761f", "number": "3312", "street": "SHELBURNE RD", "unit": "", "city": "PIKESVILLE", "district": "", "region": "MD", "postcode": "21208", "id": ""}, "geometry": {"type": "Point", "coordinates": [-76.7041134, 39.3719755]}}
{"type": "Feature", "properties": {"hash": "6b3a9af9ca0e0f01", "number": "912", "street": "TIMBER RUN RD", "unit": "", "city": "REISTERSTOWN", "district": "", "region": "MD", "postcode": "21136", "id": ""}, "geometry": {"type": "Point", "coordinates": [-76.7928466, 39.4699346]}}
{"type": "Feature", "properties": {"hash": "1e1c2687b00fce89", "number": "1939", "street": "LINCOLN AVE", "unit": "", "city": "HALETHORPE", "district": "", "region": "MD", "postcode": "21227", "id": ""}, "geometry": {"type": "Point", "coordinates": [-76.6781747, 39.2388194]}}
{"type": "Feature", "properties": {"hash": "935e222a70c7ee9c", "number": "1321", "street": "GLENDALE RD", "unit": "", "city": "BALTIMORE", "district": "", "region": "MD", "postcode": "21239", "id": ""}, "geometry": {"type": "Point", "coordinates": [-76.5852592, 39.3793037]}}
{"type": "Feature", "properties": {"hash": "daef4b3e646d5631", "number": "8122", "street": "LONGPOINT RD", "unit": "", "city": "DUNDALK", "district": "", "region": "MD", "postcode": "21222", "id": ""}, "geometry": {"type": "Point", "coordinates": [-76.5024176, 39.2458175]}}
{"type": "Feature", "properties": {"hash": "94f0b29d0eb648e6", "number": "1914", "street": "EASTFIELD RD", "unit": "", "city": "DUNDALK", "district": "", "region": "MD", "postcode": "21222", "id": ""}, "geometry": {"type": "Point", "coordinates": [-76.5088715, 39.2687616]}}
{"type": "Feature", "properties": {"hash": "b37cf0dc5373b179", "number": "3670", "street": "CLIFMAR RD", "unit": "", "city": "WINDSOR MILL", "district": "", "region": "MD", "postcode": "21244", "id": ""}, "geometry": {"type": "Point", "coordinates": [-76.7683857, 39.3637156]}}
{"type": "Feature", "properties": {"hash": "d20961b0a2083a88", "number": "3204", "street": "RICHWOOD AVE", "unit": "", "city": "WINDSOR MILL", "district": "", "region": "MD", "postcode": "21244", "id": ""}, "geometry": {"type": "Point", "coordinates": [-76.7562168, 39.3422692]}}
{"type": "Feature", "properties": {"hash": "c30e567cacb76076", "number": "6814", "street": "CHIPPEWA DR", "unit": "", "city": "BALTIMORE", "district": "", "region": "MD", "postcode": "21209", "id": ""}, "geometry": {"type": "Point", "coordinates": [-76.6872538, 39.3776192]}}
{"type": "Feature", "properties": {"hash": "d6d3ed3fdbbad31e", "number": "13918", "street": "OLD HANOVER RD", "unit": "", "city": "REISTERSTOWN", "district": "", "region": "MD", "postcode": "21136", "id": ""}, "geometry": {"type": "Point", "coordinates": [-76.8319116, 39.5062511]}}
{"type": "Feature", "properties": {"hash": "423c4e20ee584155", "number": "2107", "street": "SOUTHLAND RD", "unit": "", "city": "GWYNN OAK", "district": "", "region": "MD", "postcode": "21207", "id": ""}, "geometry": {"type": "Point", "coordinates": [-76.7221296, 39.3198087]}}
{"type": "Feature", "properties": {"hash": "3bc84d6e279637e0", "number": "5", "street": "E  TIMONIUM RD", "unit": "", "city": "LUTHERVILLE TIMONIUM", "district": "", "region": "MD", "postcode": "21093", "id": ""}, "geometry": {"type": "Point", "coordinates": [-76.6253547, 39.4406981]}}
{"type": "Feature", "properties": {"hash": "6f346d830fa717df", "number": "8215", "street": "BRATTLE RD", "unit": "", "city": "PIKESVILLE", "district": "", "region": "MD", "postcode": "21208", "id": ""}, "geometry": {"type": "Point", "coordinates": [-76.7550619, 39.3727511]}}
{"type": "Feature", "properties": {"hash": "85e29da04eeb4c2c", "number": "449 A", "street": "W SOUTH  ST", "unit": "", "city": "FREDERICK", "district": "", "region": "MD", "postcode": "21701", "id": ""}, "geometry": {"type": "Point", "coordinates": [-77.420278, 39.4113288]}}
{"type": "Feature", "properties": {"hash": "10fcdbe3234d1bb9", "number": "1417 C", "street": "KEY  PKWY", "unit": "APT 3", "city": "FREDERICK", "district": "", "region": "MD", "postcode": "21702", "id": ""}, "geometry": {"type": "Point", "coordinates": [-77.4621908, 39.4252598]}}
{"type": "Feature", "properties": {"hash": "7b79e0046bdf0e99", "number": "509 A", "street": "WILSON  PL", "unit": "", "city": "FREDERICK", "district": "", "region": "MD", "postcode": "21702", "id": ""}, "geometry": {"type": "Point", "coordinates": [-77.4282942, 39.4287902]}}
{"type": "Feature", "properties": {"hash": "3974e8f0609d24ec", "number": "245", "street": "E SIXTH  ST", "unit": "", "city": "FREDERICK", "district": "", "region": "MD", "postcode": "21701", "id": ""}, "geometry": {"type": "Point", "coordinates": [-77.4052948, 39.4214427]}}
{"type": "Feature", "properties": {"hash": "c47061a0fa6e8c2d", "number": "501 1D", "street": "PROSPECT  BLVD", "unit": "UNIT D30", "city": "FREDERICK", "district": "", "region": "MD", "postcode": "21701", "id": ""}, "geometry": {"type": "Point", "coordinates": [-77.4272398, 39.4054645]}}
{"type": "Feature", "properties": {"hash": "895da146293a2583", "number": "2100 B", "street": "WHITTIER  DR", "unit": "APT 402", "city": "FREDERICK", "district": "", "region": "MD", "postcode": "21702", "id": ""}, "geometry": {"type": "Point", "coordinates": [-77.4491066, 39.4540522]}}
{"type": "Feature", "properties": {"hash": "6ac57b4b2f7485df", "number": "342 B", "street": "HIGHVIEW  TER", "unit": "APT 104", "city": "FREDERICK", "district": "", "region": "MD", "postcode": "21701", "id": ""}, "geometry": {"type": "Point", "coordinates": [-77.419978, 39.4019579]}}
{"type": "Feature", "properties": {"hash": "cd9b990d8791934b", "number": "1155 B", "street": "ORCHARD  TER", "unit": "APT 202", "city": "FREDERICK", "district": "", "region": "MD", "postcode": "21703", "id": ""}, "geometry": {"type": "Point", "coordinates": [-77.4476851, 39.4166618]}}
{"type": "Feature", "properties": {"hash": "17233f48691c0c0e", "number": "1499", "street": "N EAST  ST", "unit": "APT 9", "city": "FREDERICK", "district": "", "region": "MD", "postcode": "21701", "id": ""}, "geometry": {"type": "Point", "coordinates": [-77.4033671, 39.431973]}}
{"type": "Feature", "properties": {"hash": "2034be0feb52c6d5", "number": "1418 B", "street": "TANEY  AVE", "unit": "APT 102", "city": "FREDERICK", "district": "", "region": "MD", "postcode": "21702", "id": ""}, "geometry": {"type": "Point", "coordinates": [-77.4140792, 39.4350143]}}
{"type": "Feature", "properties": {"hash": "afe105fe2396615d", "number": "1369", "street": "HAMPSHIRE  DR", "unit": "", "city": "FREDERICK", "district": "", "region": "MD", "postcode": "21702", "id": ""}, "geometry": {"type": "Point", "coordinates": [-77.4562731, 39.4257092]}}
{"type": "Feature", "properties": {"hash": "973109a9decb6bf7", "number": "1411 C", "street": "KEY  PKWY", "unit": "APT 1", "city": "FREDERICK", "district": "", "region": "MD", "postcode": "21702", "id": ""}, "geometry": {"type": "Point", "coordinates": [-77.4613375, 39.4256026]}}
{"type": "Feature", "properties": {"hash": "7a56a0ea12a8c089", "number": "514", "street": "N MARKET  ST", "unit": "", "city": "FREDERICK", "district": "", "region": "MD", "postcode": "21701", "id": ""}, "geometry": {"type": "Point", "coordinates": [-77.4099556, 39.4207529]}}
{"type": "Feature", "properties": {"hash": "8e9271fa890c8d72", "number": "209", "street": "MAIN  ST", "unit": "", "city": "MYERSVILLE", "district": "", "region": "MD", "postcode": "21773", "id": ""}, "geometry": {"type": "Point", "coordinates": [-77.5662708, 39.5055393]}}
{"type": "Feature", "properties": {"hash": "7f471915b8d0dd84", "number": "795 C", "street": "WEMBLY  DR", "unit": "", "city": "FREDERICK", "district": "", "region": "MD", "postcode": "21701", "id": ""}, "geometry": {"type": "Point", "coordinates": [-77.3936756, 39.4310536]}}
{"type": "Feature", "properties": {"hash": "944e58ce18f66008", "number": "2080", "street": "YELLOW SPRINGS  RD", "unit": "", "city": "FREDERICK", "district": "", "region": "MD", "postcode": "21702", "id": ""}, "geometry": {"type": "Point", "coordinates": [-77.438329, 39.4409276]}}
{"type": "Feature", "properties": {"hash": "d7a356ad00642715", "number": "1415", "street": "TANEY  AVE", "unit": "", "city": "FREDERICK", "district": "", "region": "MD", "postcode": "21702", "id": ""}, "geometry": {"type": "Point", "coordinates": [-77.4149526, 39.4345548]}}
{"type": "Feature", "properties": {"hash": "fd40cff82b617d77", "number": "14", "street": "W FIFTH  ST", "unit": "", "city": "FREDERICK", "district": "", "region": "MD", "postcode": "21701", "id": ""}, "geometry": {"type": "Point", "coordinates": [-77.4112712, 39.420311]}}
{"type": "Feature", "properties": {"hash": "546771be22e9d5ca", "number": "160 F", "street": "WILLOWDALE  DR", "unit": "APT 104", "city": "FREDERICK", "district": "", "region": "MD", "postcode": "21702", "id": ""}, "geometry": {"type": "Point", "coordinates": [-77.4460384, 39.4244946]}}
{"type": "Feature", "properties": {"hash": "3bc784ddcd391bfc", "number": "7351 1", "street": "WILLOW  RD", "unit": "", "city": "FREDERICK", "district": "", "region": "MD", "postcode": "21702", "id": ""}, "geometry": {"type": "Point", "coordinates": [-77.4077212, 39.4715483]}}
{"type": "Feature", "properties": {"hash": "e478bad8ef8639c2", "number": "949", "street": "OLD RIVER RD", "unit": "UNIT C2", "city": "FRIENDSVILLE", "district": "GARRETT", "region": "MD", "postcode": "21531", "id": ""}, "geometry": {"type": "Point", "coordinates": [-79.3995403, 39.6657761]}}
{"type": "Feature", "properties": {"hash": "23d1558920072773", "number": "83", "street": "ALLEN MARPLE DR", "unit": "", "city": "OAKLAND", "district": "GARRETT", "region": "MD", "postcode": "21550", "id": ""}, "geometry": {"type": "Point", "coordinates": [-79.3483265, 39.3032293]}}
{"type": "Feature", "properties": {"hash": "781a565c2c1e12a7", "number": "3540", "street": "BEAR CREEK RD", "unit": "", "city": "FRIENDSVILLE", "district": "GARRETT", "region": "MD", "postcode": "21531", "id": ""}, "geometry": {"type": "Point", "coordinates": [-79.340901, 39.6567223]}}
{"type": "Feature", "properties": {"hash": "fb7ae29340a231e9", "number": "324", "street": "PINE HILL RD", "unit": "", "city": "SWANTON", "district": "GARRETT", "region": "MD", "postcode": "21561", "id": ""}, "geometry": {"type": "Point", "coordinates": [-79.2269993, 39.4628639]}}
{"type": "Feature", "properties": {"hash": "fc82ce7198190d2f", "number": "1040", "street": "JOHN DR", "unit": "", "city": "OAKLAND", "district": "GARRETT", "region": "MD", "postcode": "21550", "id": ""}, "geometry": {"type": "Point", "coordinates": [-79.3883895, 39.4101642]}}
{"type": "Feature", "properties": {"hash": "06e0af65a3fd0c4c", "number": "29", "street": "WINDING WAY", "unit": "", "city": "MCHENRY", "district": "GARRETT", "region": "MD", "postcode": "21541", "id": ""}, "geometry": {"type": "Point", "coordinates": [-79.3644551, 39.5492502]}}
{"type": "Feature", "properties": {"hash": "98573f5d4ae21ea3", "number": "315", "street": "SUNNYSIDE RD", "unit": "", "city": "OAKLAND", "district": "GARRETT", "region": "MD", "postcode": "21550", "id": ""}, "geometry": {"type": "Point", "coordinates": [-79.482933, 39.3449021]}}
{"type": "Feature", "properties": {"hash": "eed66eb4ce460fea", "number": "10", "street": "LAKEVIEW CT", "unit": "", "city": "MCHENRY", "district": "GARRETT", "region": "MD", "postcode": "21541", "id": ""}, "geometry": {"type": "Point", "coordinates": [-79.3612814, 39.5499162]}}
{"type": "Feature", "properties": {"hash": "ee78624c675b3647", "number": "203", "street": "SHENANDOAH AVE", "unit": "", "city": "OAKLAND", "district": "GARRETT", "region": "MD", "postcode": "21550", "id": ""}, "geometry": {"type": "Point", "coordinates": [-79.373212, 39.3922298]}}
{"type": "Feature", "properties": {"hash": "b2f65f55584d8d19", "number": "249", "street": "BRAY SCHOOL RD", "unit": "", "city": "OAKLAND", "district": "GARRETT", "region": "MD", "postcode": "21550", "id": ""}, "geometry": {"type": "Point", "coordinates": [-79.3894542, 39.4965567]}}
{"type": "Feature", "properties": {"hash": "61ee447f3d022981", "number": "591", "street": "YOUGH VIEW DR", "unit": "", "city": "OAKLAND", "district": "GARRETT", "region": "MD", "postcode": "21550", "id": ""}, "geometry": {"type": "Point", "coordinates": [-79.4451547, 39.3975283]}}
{"type": "Feature", "properties": {"hash": "c0ecce1bd38623bf", "number": "1684", "street": "FRIENDSVILLE RD", "unit": "", "city": "FRIENDSVILLE", "district": "GARRETT", "region": "MD", "postcode": "21531", "id": ""}, "geometry": {"type": "Point", "coordinates": [-79.3746874, 39.5938541]}}
{"type": "Feature", "properties": {"hash": "3957b7c6327fcee1", "number": "1151", "street": "FRIENDSVILLE RD", "unit": "", "city": "FRIENDSVILLE", "district": "GARRETT", "region": "MD", "postcode": "21531", "id": ""}, "geometry": {"type": "Point", "coordinates": [-79.3696595, 39.5888455]}}
{"type": "Feature", "properties": {"hash": "8c93c41bb6ef9e16", "number": "5475", "street": "WHITE ROCK RD", "unit": "", "city": "FRIENDSVILLE", "district": "GARRETT", "region": "MD", "postcode": "21531", "id": ""}, "geometry": {"type": "Point", "coordinates": [-79.4722939, 39.6269053]}}
{"type": "Feature", "properties": {"hash": "d613eb651955850e", "number": "11467", "street": "FRIENDSVILLE RD", "unit": "", "city": "FRIENDSVILLE", "district": "GARRETT", "region": "MD", "postcode": "21531", "id": ""}, "geometry": {"type": "Point", "coordinates": [-79.4514907, 39.6811932]}}
{"type": "Feature", "properties": {"hash": "6b76ae1550d4ac8a", "number": "373", "street": "FISH HATCHERY RD", "unit": "", "city": "ACCIDENT", "district": "GARRETT", "region": "MD", "postcode": "21520", "id": ""}, "geometry": {"type": "Point", "coordinates": [-79.2962724, 39.650709]}}
{"type": "Feature", "properties": {"hash": "2e6683c61444e2d4", "number": "1021", "street": "E HIGH ST", "unit": "", "city": "OAKLAND", "district": "GARRETT", "region": "MD", "postcode": "21550", "id": ""}, "geometry": {"type": "Point", "coordinates": [-79.3926832, 39.4057347]}}
{"type": "Feature", "properties": {"hash": "19dbee1dc7f9768b", "number": "702", "street": "VALLEY RIDGE RD", "unit": "", "city": "ACCIDENT", "district": "GARRETT", "region": "MD", "postcode": "21520", "id": ""}, "geometry": {"type": "Point", "coordinates": [-79.3351904, 39.6533645]}}
{"type": "Feature", "properties": {"hash": "5b95534bfd143747", "number": "50", "street": "WEBER RD", "unit": "", "city": "OAKLAND", "district": "GARRETT", "region": "MD", "postcode": "21550", "id": ""}, "geometry": {"type": "Point", "coordinates": [-79.3965143, 39.3980208]}}
{"type": "Feature", "properties": {"hash": "fa97717a1c316db3", "number": "403", "street": "D ST", "unit": "", "city": "OAKLAND", "district": "GARRETT", "region": "MD", "postcode": "21550", "id": ""}, "geometry": {"type": "Point", "coordinates": [-79.3849637, 39.3981056]}}
{"type": "Feature", "properties": {"hash": "e251cb0aa7c09275", "number": "16905", "street": "MELBOURNE DRIVE", "unit": "", "city": "LAUREL", "district": "", "region": "MD", "postcode": "20707", "id": ""}, "geometry": {"type": "Point", "coordinates": [-76.8890933, 39.1221193]}}
{"type": "Feature", "properties": {"hash": "053cabb710ef090b", "number": "16904", "street": "SUPPLEE LANE", "unit": "", "city": "LAUREL", "district": "", "region": "MD", "postcode": "20707", "id": ""}, "geometry": {"type": "Point", "coordinates": [-76.8868466, 39.1222007]}}
{"type": "Feature", "properties": {"hash": "1b3a4f16852dff9a", "number": "16215", "street": "JULIE LANE", "unit": "", "city": "LAUREL", "district": "", "region": "MD", "postcode": "20707", "id": ""}, "geometry": {"type": "Point", "coordinates": [-76.8981863, 39.1221219]}}
{"type": "Feature", "properties": {"hash": "40bf92e4cc2341b5", "number": "16910", "street": "MELBOURNE DRIVE", "unit": "", "city": "LAUREL", "district": "", "region": "MD", "postcode": "20707", "id": ""}, "geometry": {"type": "Point", "coordinates": [-76.8922704, 39.1220366]}}
{"type": "Feature", "properties": {"hash": "6d44241954acc873", "number": "16216", "street": "JULIE LANE", "unit": "", "city": "LAUREL", "district": "", "region": "MD", "postcode": "20707", "id": ""}, "geometry": {"type": "Point", "coordinates": [-76.8987924, 39.1218949]}}
{"type": "Feature", "properties": {"hash": "d36fa0ce3e2c28a7", "number": "16211", "street": "JULIE LANE", "unit": "", "city": "LAUREL", "district": "", "region": "MD", "postcode": "20707", "id": ""}, "geometry": {"type": "Point", "coordinates": [-76.89801, 39.121811]}}
{"type": "Feature", "properties": {"hash": "86dc30b229685948", "number": "16908", "street": "MELBOURNE DRIVE", "unit": "", "city": "LAUREL", "district": "", "region": "MD", "postcode": "20707", "id": ""}, "geometry": {"type": "Point", "coordinates": [-76.8921195, 39.1217422]}}
{"type": "Feature", "properties": {"hash": "0149477956f9c044", "number": "16824", "street": "CLARK TERRACE", "unit": "", "city": "LAUREL", "district": "", "region": "MD", "postcode": "20707", "id": ""}, "geometry": {"type": "Point", "coordinates": [-76.8938223, 39.1217532]}}
{"type": "Feature", "properties": {"hash": "10fd989e77309c56", "number": "16212", "street": "JULIE LANE", "unit": "", "city": "LAUREL", "district": "", "region": "MD", "postcode": "20707", "id": ""}, "geometry": {"type": "Point", "coordinates": [-76.898608, 39.1215938]}}
{"type": "Feature", "properties": {"hash": "0dfd39eb4cf14a5b", "number": "16818", "street": "CLARK TERRACE", "unit": "", "city": "LAUREL", "district": "", "region": "MD", "postcode": "20707", "id": ""}, "geometry": {"type": "Point", "coordinates": [-76.8936722, 39.1210627]}}
{"type": "Feature", "properties": {"hash": "dd019353e5eebc9c", "number": "16828", "street": "MELBOURNE DRIVE", "unit": "", "city": "LAUREL", "district": "", "region": "MD", "postcode": "20707", "id": ""}, "geometry": {"type": "Point", "coordinates": [-76.8913165, 39.1210628]}}
{"type": "Feature", "properties": {"hash": "9932f3dd8bf8e535", "number": "16720", "street": "DOUGHERTY AVENUE", "unit": "", "city": "LAUREL", "district": "", "region": "MD", "postcode": "20707", "id": ""}, "geometry": {"type": "Point", "coordinates": [-76.8947544, 39.1210062]}}
{"type": "Feature", "properties": {"hash": "188be4f1f4ded704", "number": "16204", "street": "JULIE LANE", "unit": "", "city": "LAUREL", "district": "", "region": "MD", "postcode": "20707", "id": ""}, "geometry": {"type": "Point", "coordinates": [-76.898283, 39.1209499]}}
{"type": "Feature", "properties": {"hash": "0b993605a6b58577", "number": "16813", "street": "CLARK TERRACE", "unit": "", "city": "LAUREL", "district": "", "region": "MD", "postcode": "20707", "id": ""}, "geometry": {"type": "Point", "coordinates": [-76.892181, 39.120899]}}
{"type": "Feature", "properties": {"hash": "ee21e0f3e2d6eb6f", "number": "16825", "street": "MELBOURNE DRIVE", "unit": "", "city": "LAUREL", "district": "", "region": "MD", "postcode": "20707", "id": ""}, "geometry": {"type": "Point", "coordinates": [-76.8906729, 39.1208592]}}
{"type": "Feature", "properties": {"hash": "798905afa29f362f", "number": "16111", "street": "JULIE LANE", "unit": "", "city": "LAUREL", "district": "", "region": "MD", "postcode": "20707", "id": ""}, "geometry": {"type": "Point", "coordinates": [-76.896615, 39.1206919]}}
{"type": "Feature", "properties": {"hash": "ce0a4664edde9647", "number": "16824", "street": "MELBOURNE DRIVE", "unit": "", "city": "LAUREL", "district": "", "region": "MD", "postcode": "20707", "id": ""}, "geometry": {"type": "Point", "coordinates": [-76.8912292, 39.1207421]}}
{"type": "Feature", "properties": {"hash": "059e7608871a9c83", "number": "16812", "street": "CLARK TERRACE", "unit": "", "city": "LAUREL", "district": "", "region": "MD", "postcode": "20707", "id": ""}, "geometry": {"type": "Point", "coordinates": [-76.8927811, 39.120692]}}
{"type": "Feature", "properties": {"hash": "9f6b3c0db0810cfd", "number": "16200", "street": "JULIE LANE", "unit": "", "city": "LAUREL", "district": "", "region": "MD", "postcode": "20707", "id": ""}, "geometry": {"type": "Point", "coordinates": [-76.8975807, 39.120642]}}
{"type": "Feature", "properties": {"hash": "637ad40c995d073b", "number": "16809", "street": "CLARK TERRACE", "unit": "", "city": "LAUREL", "district": "", "region": "MD", "postcode": "20707", "id": ""}, "geometry": {"type": "Point", "coordinates": [-76.8919943, 39.1205935]}}
{"type": "Feature", "properties": {"hash": "e86e009e9c8323fb", "number": "114", "street": "SPOTTED FAWN CT", "unit": "", "city": "CENTREVILLE", "district": "", "region": "MD", "postcode": "21617", "id": ""}, "geometry": {"type": "Point", "coordinates": [-75.9483328, 39.0626447]}}
{"type": "Feature", "properties": {"hash": "4b8ffa626fe555b0", "number": "1100", "street": "BUTTERWORTH CT", "unit": "", "city": "STEVENSVILLE", "district": "", "region": "MD", "postcode": "21666", "id": ""}, "geometry": {"type": "Point", "coordinates": [-76.3129951, 38.9742875]}}
{"type": "Feature", "properties": {"hash": "55c06fd079536588", "number": "100", "street": "LONGFELLOW DR", "unit": "", "city": "CHESTERTOWN", "district": "", "region": "MD", "postcode": "21620", "id": ""}, "geometry": {"type": "Point", "coordinates": [-76.0346275, 39.2071769]}}
{"type": "Feature", "properties": {"hash": "36f186060f154d54", "number": "1204", "street": "LITTLE CREEK RD", "unit": "", "city": "CHESTER", "district": "", "region": "MD", "postcode": "21619", "id": ""}, "geometry": {"type": "Point", "coordinates": [-76.2816435, 38.9464158]}}
{"type": "Feature", "properties": {"hash": "f8b085a952755337", "number": "125", "street": "ENCORE CT", "unit": "", "city": "CENTREVILLE", "district": "", "region": "MD", "postcode": "21617", "id": ""}, "geometry": {"type": "Point", "coordinates": [-76.0676588, 39.0281159]}}
{"type": "Feature", "properties": {"hash": "1918c2eb43143c96", "number": "308", "street": "CHESAPEAKE AVE", "unit": "", "city": "STEVENSVILLE", "district": "", "region": "MD", "postcode": "21666", "id": ""}, "geometry": {"type": "Point", "coordinates": [-76.3597149, 38.9137067]}}
{"type": "Feature", "properties": {"hash": "3074ed34885a85e2", "number": "317", "street": "SECOND ST", "unit": "", "city": "CRUMPTON", "district": "", "region": "MD", "postcode": "21628", "id": ""}, "geometry": {"type": "Point", "coordinates": [-75.9269894, 39.2390284]}}
{"type": "Feature", "properties": {"hash": "39d511a1a6aa680d", "number": "304", "street": "COCKEY LN", "unit": "", "city": "STEVENSVILLE", "district": "", "region": "MD", "postcode": "21666", "id": ""}, "geometry": {"type": "Point", "coordinates": [-76.3140722, 38.9849484]}}
{"type": "Feature", "properties": {"hash": "c44f57a9609bd16b", "number": "515", "street": "LITTLE KIDWELL AVE", "unit": "", "city": "CENTREVILLE", "district": "", "region": "MD", "postcode": "21617", "id": ""}, "geometry": {"type": "Point", "coordinates": [-76.0623199, 39.0384978]}}
{"type": "Feature", "properties": {"hash": "9f5340fafb4a2750", "number": "303", "street": "THIRD ST", "unit": "", "city": "CRUMPTON", "district": "", "region": "MD", "postcode": "21628", "id": ""}, "geometry": {"type": "Point", "coordinates": [-75.9252367, 39.2387517]}}
{"type": "Feature", "properties": {"hash": "b003d4302381acd5", "number": "139", "street": "HARMONY WAY", "unit": "", "city": "CENTREVILLE", "district": "", "region": "MD", "postcode": "21617", "id": ""}, "geometry": {"type": "Point", "coordinates": [-76.0710313, 39.0253651]}}
{"type": "Feature", "properties": {"hash": "3a3e3f3836b173ec", "number": "116", "street": "WOOD DUCK LN", "unit": "", "city": "CHESTERTOWN", "district": "", "region": "MD", "postcode": "21620", "id": ""}, "geometry": {"type": "Point", "coordinates": [-75.9805397, 39.2377457]}}
{"type": "Feature", "properties": {"hash": "7a5319f632f59370", "number": "1527", "street": "BRADLEY DR", "unit": "", "city": "CENTREVILLE", "district": "", "region": "MD", "postcode": "21617", "id": ""}, "geometry": {"type": "Point", "coordinates": [-76.0545414, 39.0424811]}}
{"type": "Feature", "properties": {"hash": "0574535fdd6d98d7", "number": "603", "street": "VICTORIA DR", "unit": "", "city": "STEVENSVILLE", "district": "", "region": "MD", "postcode": "21666", "id": ""}, "geometry": {"type": "Point", "coordinates": [-76.3340797, 38.9672603]}}
{"type": "Feature", "properties": {"hash": "417ab175f536a397", "number": "349", "street": "LOBLOLLY WAY", "unit": "", "city": "GRASONVILLE", "district": "", "region": "MD", "postcode": "21638", "id": ""}, "geometry": {"type": "Point", "coordinates": [-76.2113224, 38.968779]}}
{"type": "Feature", "properties": {"hash": "4d63ea43244ba4f0", "number": "69", "street": "LONG CREEK DR", "unit": "", "city": "STEVENSVILLE", "district": "", "region": "MD", "postcode": "21666", "id": ""}, "geometry": {"type": "Point", "coordinates": [-76.3506278, 38.9218509]}}
{"type": "Feature", "properties": {"hash": "67396b97fcc84173", "number": "207", "street": "SHREWSBURY FARM LN", "unit": "", "city": "CENTREVILLE", "district": "", "region": "MD", "postcode": "21617", "id": ""}, "geometry": {"type": "Point", "coordinates": [-76.0419646, 39.07698]}}
{"type": "Feature", "properties": {"hash": "7589269085dc08ad", "number": "304", "street": "ELLICOTT DR", "unit": "", "city": "CHESTER", "district": "", "region": "MD", "postcode": "21619", "id": ""}, "geometry": {"type": "Point", "coordinates": [-76.2949214, 38.9743591]}}
{"type": "Feature", "properties": {"hash": "29f68338298081bb", "number": "716", "street": "DEEP LANDING RD", "unit": "", "city": "CHESTERTOWN", "district": "", "region": "MD", "postcode": "21620", "id": ""}, "geometry": {"type": "Point", "coordinates": [-75.961168, 39.2371249]}}
{"type": "Feature", "properties": {"hash": "0e3d569b78d9e9ba", "number": "500", "street": "PRIMROSE POINT FARM LN", "unit": "", "city": "CHESTERTOWN", "district": "", "region": "MD", "postcode": "21620", "id": ""}, "geometry": {"type": "Point", "coordinates": [-76.059459, 39.1863735]}}
