{"type": "Feature", "properties": {"id": "", "unit": "", "number": "16959", "street": "48TH AVE", "city": "COOPERSVILLE", "district": "", "region": "MI", "postcode": "49404", "hash": "68b1c7ad81626b53"}, "geometry": {"type": "Point", "coordinates": [-85.9100551, 43.0779091]}}
{"type": "Feature", "properties": {"id": "", "unit": "", "number": "390", "street": "CREEKSIDE DR", "city": "COOPERSVILLE", "district": "", "region": "MI", "postcode": "49404", "hash": "ce8d882844ea93fe"}, "geometry": {"type": "Point", "coordinates": [-85.9172772, 43.0776078]}}
{"type": "Feature", "properties": {"id": "", "unit": "", "number": "94", "street": "ROBERTS CT", "city": "COOPERSVILLE", "district": "", "region": "MI", "postcode": "49404", "hash": "bda89f9da542d3f6"}, "geometry": {"type": "Point", "coordinates": [-85.9295459, 43.0718951]}}
{"type": "Feature", "properties": {"id": "", "unit": "", "number": "76", "street": "ROBERTS CT", "city": "COOPERSVILLE", "district": "", "region": "MI", "postcode": "49404", "hash": "89d760e84651eb85"}, "geometry": {"type": "Point", "coordinates": [-85.9290638, 43.0718737]}}
{"type": "Feature", "properties": {"id": "", "unit": "", "number": "60", "street": "ROBERTS CT", "city": "COOPERSVILLE", "district": "", "region": "MI", "postcode": "49404", "hash": "bfc9ab1019e1d710"}, "geometry": {"type": "Point", "coordinates": [-85.9286552, 43.0718548]}}
{"type": "Feature", "properties": {"id": "", "unit": "", "number": "165", "street": "ROBERTS CT", "city": "COOPERSVILLE", "district": "", "region": "MI", "postcode": "49404", "hash": "472ae2a7fad01930"}, "geometry": {"type": "Point", "coordinates": [-85.9288504, 43.0714341]}}
{"type": "Feature", "properties": {"id": "", "unit": "", "number": "149", "street": "ROBERTS CT", "city": "COOPERSVILLE", "district": "", "region": "MI", "postcode": "49404", "hash": "be3b20a76334737c"}, "geometry": {"type": "Point", "coordinates": [-85.929786, 43.0712234]}}
{"type": "Feature", "properties": {"id": "", "unit": "", "number": "157", "street": "ROBERTS CT", "city": "COOPERSVILLE", "district": "", "region": "MI", "postcode": "49404", "hash": "f1687b01959310e7"}, "geometry": {"type": "Point", "coordinates": [-85.929197, 43.0712114]}}
{"type": "Feature", "properties": {"id": "", "unit": "", "number": "135", "street": "ANN ST", "city": "COOPERSVILLE", "district": "", "region": "MI", "postcode": "49404", "hash": "a09eb723bec2d7bc"}, "geometry": {"type": "Point", "coordinates": [-85.9300489, 43.0708562]}}
{"type": "Feature", "properties": {"id": "", "unit": "", "number": "123", "street": "ANN ST", "city": "COOPERSVILLE", "district": "", "region": "MI", "postcode": "49404", "hash": "986f35a744730a04"}, "geometry": {"type": "Point", "coordinates": [-85.929761, 43.0707945]}}
{"type": "Feature", "properties": {"id": "", "unit": "", "number": "553", "street": "HARRISON ST", "city": "COOPERSVILLE", "district": "", "region": "MI", "postcode": "49404", "hash": "71260c267190af36"}, "geometry": {"type": "Point", "coordinates": [-85.9291606, 43.0707764]}}
{"type": "Feature", "properties": {"id": "", "unit": "", "number": "565", "street": "HARRISON ST", "city": "COOPERSVILLE", "district": "", "region": "MI", "postcode": "49404", "hash": "b514de297930004d"}, "geometry": {"type": "Point", "coordinates": [-85.92888, 43.0709169]}}
{"type": "Feature", "properties": {"id": "", "unit": "", "number": "113", "street": "E THACKERY AVE", "city": "FLINT", "district": "", "region": "MI", "postcode": "48505", "hash": "b5bb54ccdb4692ad"}, "geometry": {"type": "Point", "coordinates": [-83.7035232, 43.0578046]}}
{"type": "Feature", "properties": {"id": "", "unit": "", "number": "0", "street": "E SECOND AVE", "city": "FLINT", "district": "", "region": "MI", "postcode": "48502", "hash": "50865acb8bff9849"}, "geometry": {"type": "Point", "coordinates": [-83.6938916, 43.020156]}}
{"type": "Feature", "properties": {"id": "", "unit": "", "number": "0", "street": "W BOULEVARD DR", "city": "FLINT", "district": "", "region": "MI", "postcode": "48505", "hash": "d5c6fca9132e5730"}, "geometry": {"type": "Point", "coordinates": [-83.6737324, 43.0491159]}}
{"type": "Feature", "properties": {"id": "", "unit": "", "number": "0", "street": "W BOULEVARD DR", "city": "FLINT", "district": "", "region": "MI", "postcode": "48505", "hash": "7d1bd1a8b4d4e320"}, "geometry": {"type": "Point", "coordinates": [-83.6739807, 43.0484108]}}
{"type": "Feature", "properties": {"id": "", "unit": "", "number": "0", "street": "W BOULEVARD DR", "city": "FLINT", "district": "", "region": "MI", "postcode": "48505", "hash": "748208f27788079a"}, "geometry": {"type": "Point", "coordinates": [-83.6743377, 43.0476374]}}
{"type": "Feature", "properties": {"id": "", "unit": "", "number": "0", "street": "ROBERT T LONGWAY", "city": "FLINT", "district": "", "region": "MI", "postcode": "48503", "hash": "473f4525b0363706"}, "geometry": {"type": "Point", "coordinates": [-83.6553522, 43.0252985]}}
{"type": "Feature", "properties": {"id": "", "unit": "", "number": "0", "street": "CONCORD ST", "city": "FLINT", "district": "", "region": "MI", "postcode": "48503", "hash": "06bbc5838e9b9266"}, "geometry": {"type": "Point", "coordinates": [-83.7102555, 43.0261759]}}
{"type": "Feature", "properties": {"id": "", "unit": "", "number": "0", "street": "MASSACHUSETTS AV", "city": "FLINT", "district": "", "region": "MI", "postcode": "48505", "hash": "6407ceba12531680"}, "geometry": {"type": "Point", "coordinates": [-83.6752217, 43.0468572]}}
{"type": "Feature", "properties": {"id": "", "unit": "", "number": "0", "street": "CADILLAC ST", "city": "FLINT", "district": "", "region": "MI", "postcode": "48504", "hash": "1cf60a878d97ea7c"}, "geometry": {"type": "Point", "coordinates": [-83.714503, 43.0172275]}}
{"type": "Feature", "properties": {"id": "", "unit": "", "number": "0", "street": "LAPEER ST", "city": "FLINT", "district": "", "region": "MI", "postcode": "48503", "hash": "9bb0123a8a4baa9e"}, "geometry": {"type": "Point", "coordinates": [-83.6796985, 43.0139559]}}
{"type": "Feature", "properties": {"id": "", "unit": "", "number": "0", "street": "DUPONT ST", "city": "FLINT", "district": "", "region": "MI", "postcode": "48504", "hash": "891d7376bd49aae8"}, "geometry": {"type": "Point", "coordinates": [-83.7127725, 43.0230759]}}
{"type": "Feature", "properties": {"id": "", "unit": "", "number": "0", "street": "DURAND ST", "city": "FLINT", "district": "", "region": "MI", "postcode": "48503", "hash": "db8362c78b6f9190"}, "geometry": {"type": "Point", "coordinates": [-83.7140114, 43.0034645]}}
{"type": "Feature", "properties": {"hash": "2b648aa2c2c30781", "number": "1479", "street": "N MACOMB ST", "unit": "", "city": "MONROE", "district": "", "region": "MI", "postcode": "48162", "id": "146473"}, "geometry": {"type": "Point", "coordinates": [-83.3845212, 41.9347615]}}
{"type": "Feature", "properties": {"hash": "dd0341bb7530b3a7", "number": "920", "street": "KENTUCKY AVE", "unit": "", "city": "MONROE", "district": "", "region": "MI", "postcode": "48161", "id": "146474"}, "geometry": {"type": "Point", "coordinates": [-83.393407, 41.9024211]}}
{"type": "Feature", "properties": {"hash": "24a9a31dabf5cbaf", "number": "636", "street": "LAPLAISANCE ST", "unit": "", "city": "MONROE", "district": "", "region": "MI", "postcode": "48161", "id": "146475"}, "geometry": {"type": "Point", "coordinates": [-83.3984722, 41.9086964]}}
{"type": "Feature", "properties": {"hash": "b8c2f59a87443c78", "number": "633", "street": "SCOTT ST", "unit": "", "city": "MONROE", "district": "", "region": "MI", "postcode": "48161", "id": "146476"}, "geometry": {"type": "Point", "coordinates": [-83.3988801, 41.9087952]}}
{"type": "Feature", "properties": {"hash": "0ff98c16ada3be2f", "number": "640", "street": "LAPLAISANCE ST", "unit": "", "city": "MONROE", "district": "", "region": "MI", "postcode": "48161", "id": "146477"}, "geometry": {"type": "Point", "coordinates": [-83.3985824, 41.9086529]}}
{"type": "Feature", "properties": {"hash": "f4ea11049d2657f4", "number": "639", "street": "SCOTT ST", "unit": "", "city": "MONROE", "district": "", "region": "MI", "postcode": "48161", "id": "146478"}, "geometry": {"type": "Point", "coordinates": [-83.3989679, 41.9086928]}}
{"type": "Feature", "properties": {"hash": "5675cf6fe9be495d", "number": "642", "street": "LAPLAISANCE ST", "unit": "", "city": "MONROE", "district": "", "region": "MI", "postcode": "48161", "id": "146479"}, "geometry": {"type": "Point", "coordinates": [-83.3986234, 41.9085281]}}
{"type": "Feature", "properties": {"hash": "bcc3c6f1811385a4", "number": "608", "street": "LAPLAISANCE ST", "unit": "", "city": "MONROE", "district": "", "region": "MI", "postcode": "48161", "id": "146480"}, "geometry": {"type": "Point", "coordinates": [-83.3985835, 41.9092574]}}
{"type": "Feature", "properties": {"hash": "0a1a2f9853fbdb7f", "number": "614", "street": "LAPLAISANCE ST", "unit": "", "city": "MONROE", "district": "", "region": "MI", "postcode": "48161", "id": "146481"}, "geometry": {"type": "Point", "coordinates": [-83.3985706, 41.9088769]}}
{"type": "Feature", "properties": {"hash": "df1497d480b3b210", "number": "629", "street": "SCOTT ST", "unit": "", "city": "MONROE", "district": "", "region": "MI", "postcode": "48161", "id": "146482"}, "geometry": {"type": "Point", "coordinates": [-83.3987923, 41.9088655]}}
{"type": "Feature", "properties": {"hash": "d1075c5fafc57bd6", "number": "522", "street": "SCOTT ST", "unit": "", "city": "MONROE", "district": "", "region": "MI", "postcode": "48161", "id": "146483"}, "geometry": {"type": "Point", "coordinates": [-83.3983934, 41.9102076]}}
{"type": "Feature", "properties": {"hash": "19fe051c307a30df", "number": "512", "street": "SCOTT ST", "unit": "", "city": "MONROE", "district": "", "region": "MI", "postcode": "48161", "id": "146484"}, "geometry": {"type": "Point", "coordinates": [-83.3982615, 41.9104517]}}
{"type": "Feature", "properties": {"hash": "a9ef04c431ac48aa", "number": "3496", "street": "JOSEPHINE LANE", "unit": "", "city": "MASON", "district": "", "region": "MI", "postcode": "48854", "id": "1601"}, "geometry": {"type": "Point", "coordinates": [-84.4800465, 42.598621]}}
{"type": "Feature", "properties": {"hash": "f4dbba4b3cf41e33", "number": "2945", "street": "EVERY", "unit": "", "city": "MASON", "district": "", "region": "MI", "postcode": "48854", "id": "401"}, "geometry": {"type": "Point", "coordinates": [-84.382224, 42.6676231]}}
{"type": "Feature", "properties": {"hash": "9326b4051b3b1823", "number": "2515", "street": "SANDHILL", "unit": "", "city": "MASON", "district": "", "region": "MI", "postcode": "48854", "id": "402"}, "geometry": {"type": "Point", "coordinates": [-84.4434073, 42.6670353]}}
{"type": "Feature", "properties": {"hash": "2664c237e13d0ef0", "number": "3506", "street": "JOSEPHINE LANE", "unit": "", "city": "MASON", "district": "", "region": "MI", "postcode": "48854", "id": "1603"}, "geometry": {"type": "Point", "coordinates": [-84.4795755, 42.5984145]}}
{"type": "Feature", "properties": {"hash": "b79e13846d18f21b", "number": "556", "street": "HAGADORN", "unit": "", "city": "MASON", "district": "", "region": "MI", "postcode": "48854", "id": "1604"}, "geometry": {"type": "Point", "coordinates": [-84.4429499, 42.597597]}}
{"type": "Feature", "properties": {"hash": "da3aae0ef054c4fa", "number": "2769", "street": "SANDHILL", "unit": "", "city": "MASON", "district": "", "region": "MI", "postcode": "48854", "id": "405"}, "geometry": {"type": "Point", "coordinates": [-84.4550708, 42.6653175]}}
{"type": "Feature", "properties": {"hash": "21ef9a127bd481e5", "number": "2920", "street": "CHERITHBROOK", "unit": "", "city": "MASON", "district": "", "region": "MI", "postcode": "48854", "id": "406"}, "geometry": {"type": "Point", "coordinates": [-84.3977911, 42.6679254]}}
{"type": "Feature", "properties": {"hash": "474ab3e66a34f9c4", "number": "3516", "street": "JOSEPHINE LANE", "unit": "", "city": "MASON", "district": "", "region": "MI", "postcode": "48854", "id": "1606"}, "geometry": {"type": "Point", "coordinates": [-84.4789691, 42.5983657]}}
{"type": "Feature", "properties": {"hash": "7394c2dd17ad3fbc", "number": "2950", "street": "HAGADORN", "unit": "", "city": "MASON", "district": "", "region": "MI", "postcode": "48854", "id": "407"}, "geometry": {"type": "Point", "coordinates": [-84.4599899, 42.6676083]}}
{"type": "Feature", "properties": {"hash": "dd047d987d5147eb", "number": "3611", "street": "JOSEPHINE LANE", "unit": "", "city": "MASON", "district": "", "region": "MI", "postcode": "48854", "id": "1607"}, "geometry": {"type": "Point", "coordinates": [-84.4750979, 42.5983384]}}
{"type": "Feature", "properties": {"hash": "0de9b6f2a90f375c", "number": "2949", "street": "SANDHILL", "unit": "", "city": "MASON", "district": "", "region": "MI", "postcode": "48854", "id": "408"}, "geometry": {"type": "Point", "coordinates": [-84.4601377, 42.6688087]}}
{"type": "Feature", "properties": {"hash": "143666d5ad5ec084", "number": "3611", "street": "JOSEPHINE LANE", "unit": "", "city": "MASON", "district": "", "region": "MI", "postcode": "48854", "id": "1608"}, "geometry": {"type": "Point", "coordinates": [-84.4747896, 42.5983372]}}
{"type": "Feature", "properties": {"id": "", "unit": "", "number": "1876", "street": "Catherine Avenue", "city": "MUSKEGON", "district": "", "region": "MI", "postcode": "49442", "hash": "6620fbae47584a45"}, "geometry": {"type": "Point", "coordinates": [-86.1973731, 43.2317462]}}
{"type": "Feature", "properties": {"id": "", "unit": "", "number": "611", "street": "Center Street", "city": "MUSKEGON", "district": "", "region": "MI", "postcode": "49442", "hash": "ead865fe7b167a99"}, "geometry": {"type": "Point", "coordinates": [-86.1900947, 43.2413342]}}
{"type": "Feature", "properties": {"id": "", "unit": "", "number": "S", "street": "Dengler Road", "city": "MUSKEGON", "district": "", "region": "MI", "postcode": "49442", "hash": "af620b3455d1bace"}, "geometry": {"type": "Point", "coordinates": [-86.1137175, 43.2497108]}}
{"type": "Feature", "properties": {"id": "", "unit": "", "number": "1640", "street": "Moulton Avenue", "city": "MUSKEGON", "district": "", "region": "MI", "postcode": "49445", "hash": "a0c722d8e15e7020"}, "geometry": {"type": "Point", "coordinates": [-86.2662085, 43.2600679]}}
{"type": "Feature", "properties": {"id": "", "unit": "", "number": "1105", "street": "Mclaughlin Avenue", "city": "MUSKEGON", "district": "", "region": "MI", "postcode": "49442", "hash": "315e909e20d44ba5"}, "geometry": {"type": "Point", "coordinates": [-86.2168497, 43.2299567]}}
{"type": "Feature", "properties": {"id": "", "unit": "", "number": "169", "street": "Iona Avenue", "city": "MUSKEGON", "district": "", "region": "MI", "postcode": "49442", "hash": "bfe85a217b99f175"}, "geometry": {"type": "Point", "coordinates": [-86.2397509, 43.2306124]}}
{"type": "Feature", "properties": {"id": "", "unit": "", "number": "1725", "street": "Division Street", "city": "MUSKEGON", "district": "", "region": "MI", "postcode": "49441", "hash": "82ea442b1195e165"}, "geometry": {"type": "Point", "coordinates": [-86.2648987, 43.221288]}}
{"type": "Feature", "properties": {"id": "", "unit": "", "number": "1128", "street": "West Dale Avenue", "city": "MUSKEGON", "district": "", "region": "MI", "postcode": "49441", "hash": "f520b318121ebdef"}, "geometry": {"type": "Point", "coordinates": [-86.2709622, 43.2220248]}}
{"type": "Feature", "properties": {"id": "", "unit": "", "number": "1732", "street": "Davis Street", "city": "MUSKEGON", "district": "", "region": "MI", "postcode": "49441", "hash": "7690b87f5419bc7e"}, "geometry": {"type": "Point", "coordinates": [-86.2724345, 43.2212377]}}
{"type": "Feature", "properties": {"id": "", "unit": "", "number": "1021", "street": "West Dale Avenue", "city": "MUSKEGON", "district": "", "region": "MI", "postcode": "49441", "hash": "3030c465a1f06769"}, "geometry": {"type": "Point", "coordinates": [-86.268255, 43.2214928]}}
{"type": "Feature", "properties": {"id": "", "unit": "", "number": "1109", "street": "West Larch Avenue", "city": "MUSKEGON", "district": "", "region": "MI", "postcode": "49441", "hash": "ad5a2188d7bf2715"}, "geometry": {"type": "Point", "coordinates": [-86.2705461, 43.2206278]}}
{"type": "Feature", "properties": {"id": "", "unit": "", "number": "2230", "street": "Sherin Street", "city": "MUSKEGON", "district": "", "region": "MI", "postcode": "49441", "hash": "e364135e1f3adb16"}, "geometry": {"type": "Point", "coordinates": [-86.3066479, 43.2127319]}}
{"type": "Feature", "properties": {"hash": "c6922be825faf0de", "number": "1332", "street": "Davis Ave", "unit": "", "city": "Birmingham", "district": "", "region": "MI", "postcode": "48009", "id": ""}, "geometry": {"type": "Point", "coordinates": [-83.2032781, 42.5341206]}}
{"type": "Feature", "properties": {"hash": "1548e078f4ffa3ea", "number": "1344", "street": "Davis Ave", "unit": "", "city": "Birmingham", "district": "", "region": "MI", "postcode": "48009", "id": ""}, "geometry": {"type": "Point", "coordinates": [-83.2031298, 42.5341244]}}
{"type": "Feature", "properties": {"hash": "16f528cfd37828f8", "number": "1356", "street": "Davis Ave", "unit": "", "city": "Birmingham", "district": "", "region": "MI", "postcode": "48009", "id": ""}, "geometry": {"type": "Point", "coordinates": [-83.2029163, 42.5340972]}}
{"type": "Feature", "properties": {"hash": "076be75347daa7b5", "number": "1159", "street": "Smith Ave", "unit": "", "city": "Birmingham", "district": "", "region": "MI", "postcode": "48009", "id": ""}, "geometry": {"type": "Point", "coordinates": [-83.2050424, 42.5337456]}}
{"type": "Feature", "properties": {"hash": "7fd88bb69876db5c", "number": "1171", "street": "Smith Ave", "unit": "", "city": "Birmingham", "district": "", "region": "MI", "postcode": "48009", "id": ""}, "geometry": {"type": "Point", "coordinates": [-83.2048941, 42.5337495]}}
{"type": "Feature", "properties": {"hash": "5cbb51aff2814e66", "number": "1187", "street": "Smith Ave", "unit": "", "city": "Birmingham", "district": "", "region": "MI", "postcode": "48009", "id": ""}, "geometry": {"type": "Point", "coordinates": [-83.2047458, 42.5337533]}}
{"type": "Feature", "properties": {"hash": "bac0e6788a6bf8b8", "number": "1207", "street": "Smith Ave", "unit": "", "city": "Birmingham", "district": "", "region": "MI", "postcode": "48009", "id": ""}, "geometry": {"type": "Point", "coordinates": [-83.2045975, 42.5337571]}}
{"type": "Feature", "properties": {"hash": "31ea4ba7824f25ab", "number": "1223", "street": "Smith Ave", "unit": "", "city": "Birmingham", "district": "", "region": "MI", "postcode": "48009", "id": ""}, "geometry": {"type": "Point", "coordinates": [-83.2044492, 42.5337609]}}
{"type": "Feature", "properties": {"hash": "defad5263a26ce52", "number": "1241", "street": "Smith Ave", "unit": "", "city": "Birmingham", "district": "", "region": "MI", "postcode": "48009", "id": ""}, "geometry": {"type": "Point", "coordinates": [-83.2043008, 42.5337648]}}
{"type": "Feature", "properties": {"hash": "c865b6209616957f", "number": "1251", "street": "Smith Ave", "unit": "", "city": "Birmingham", "district": "", "region": "MI", "postcode": "48009", "id": ""}, "geometry": {"type": "Point", "coordinates": [-83.2041525, 42.5337686]}}
{"type": "Feature", "properties": {"hash": "244ff99159ff5ddc", "number": "1265", "street": "Smith Ave", "unit": "", "city": "Birmingham", "district": "", "region": "MI", "postcode": "48009", "id": ""}, "geometry": {"type": "Point", "coordinates": [-83.2040042, 42.5337724]}}
{"type": "Feature", "properties": {"hash": "e5c237ae4cea8d11", "number": "1305", "street": "Smith Ave", "unit": "", "city": "Birmingham", "district": "", "region": "MI", "postcode": "48009", "id": ""}, "geometry": {"type": "Point", "coordinates": [-83.2035592, 42.5337839]}}
{"type": "Feature", "properties": {"hash": "71e6f62ac386540e", "number": "4781", "street": "DORSHIRE", "unit": "", "city": "TROY", "district": "", "region": "MI", "postcode": "48085-4755", "id": "882015102007"}, "geometry": {"type": "Point", "coordinates": [-83.1475137, 42.5887174]}}
{"type": "Feature", "properties": {"hash": "80079b64298e009c", "number": "4806", "street": "LIVERNOIS", "unit": "", "city": "TROY", "district": "", "region": "MI", "postcode": "48098", "id": "882015102016"}, "geometry": {"type": "Point", "coordinates": [-83.1482746, 42.5886789]}}
{"type": "Feature", "properties": {"hash": "452ad92188f9a0c9", "number": "1631", "street": "LIVERNOIS", "unit": "", "city": "TROY", "district": "", "region": "MI", "postcode": "48083-1700", "id": "882028478030"}, "geometry": {"type": "Point", "coordinates": [-83.1474763, 42.5491392]}}
{"type": "Feature", "properties": {"hash": "f9d4aaa212afe002", "number": "110", "street": "W MAPLE", "unit": "", "city": "TROY", "district": "", "region": "MI", "postcode": "48084-5434", "id": "882028478014"}, "geometry": {"type": "Point", "coordinates": [-83.1486717, 42.5488334]}}
{"type": "Feature", "properties": {"hash": "bf8faee46c3a75f2", "number": "2895", "street": "CLAYTON", "unit": "", "city": "TROY", "district": "", "region": "MI", "postcode": "48083-6408", "id": "882025226001"}, "geometry": {"type": "Point", "coordinates": [-83.0934316, 42.5634137]}}
{"type": "Feature", "properties": {"hash": "56b1d3b93b20b2af", "number": "2882", "street": "DOWNEY", "unit": "", "city": "TROY", "district": "", "region": "MI", "postcode": "48083-2485", "id": "882025229006"}, "geometry": {"type": "Point", "coordinates": [-83.0900796, 42.5635196]}}
{"type": "Feature", "properties": {"hash": "f36461c213aa4f62", "number": "920", "street": "E LONG LAKE", "unit": "", "city": "TROY", "district": "", "region": "MI", "postcode": "48085-4876", "id": "882015201016"}, "geometry": {"type": "Point", "coordinates": [-83.1307761, 42.5915628]}}
{"type": "Feature", "properties": {"hash": "bc7e776578d5a692", "number": "2137", "street": "HARNED", "unit": "", "city": "TROY", "district": "", "region": "MI", "postcode": "48085-1001", "id": "882001101039"}, "geometry": {"type": "Point", "coordinates": [-83.1075994, 42.6228525]}}
{"type": "Feature", "properties": {"hash": "79d187b125702440", "number": "6810", "street": "NORTON", "unit": "", "city": "TROY", "district": "", "region": "MI", "postcode": "48085-1659", "id": "882003226024"}, "geometry": {"type": "Point", "coordinates": [-83.1364436, 42.6198988]}}
{"type": "Feature", "properties": {"hash": "099a4f705c4485f9", "number": "6898", "street": "VERNMOOR", "unit": "", "city": "TROY", "district": "", "region": "MI", "postcode": "48098-1760", "id": "882004204001"}, "geometry": {"type": "Point", "coordinates": [-83.1569958, 42.6201802]}}
{"type": "Feature", "properties": {"hash": "958bc2c7534ae91c", "number": "6990", "street": "LIMERICK", "unit": "", "city": "TROY", "district": "", "region": "MI", "postcode": "48098-2176", "id": "882006102001"}, "geometry": {"type": "Point", "coordinates": [-83.2048222, 42.6206965]}}
{"type": "Feature", "properties": {"hash": "99e41852d5971b44", "number": "6853", "street": "KILLARNEY", "unit": "", "city": "TROY", "district": "", "region": "MI", "postcode": "48098-2121", "id": "882006102023"}, "geometry": {"type": "Point", "coordinates": [-83.2041189, 42.6177165]}}
{"type": "Feature", "properties": {"hash": "8bc8130b47eb5a23", "number": "25351", "street": "FORD RD", "unit": "", "city": "DEARBORN", "district": "", "region": "MI", "postcode": "48128", "id": "32091712600100"}, "geometry": {"type": "Point", "coordinates": [-83.2866695, 42.3263623]}}
{"type": "Feature", "properties": {"hash": "a2003d50792e598c", "number": "2222", "street": "N GULLEY", "unit": "", "city": "DEARBORN", "district": "", "region": "MI", "postcode": "48128", "id": "32091712600200"}, "geometry": {"type": "Point", "coordinates": [-83.2866094, 42.3260857]}}
{"type": "Feature", "properties": {"hash": "c2ecad914d364e30", "number": "2212", "street": "N GULLEY", "unit": "", "city": "DEARBORN", "district": "", "region": "MI", "postcode": "48128", "id": "32091712600300"}, "geometry": {"type": "Point", "coordinates": [-83.2866068, 42.325984]}}
{"type": "Feature", "properties": {"hash": "f5def0299e4a7fed", "number": "2200", "street": "N GULLEY", "unit": "", "city": "DEARBORN", "district": "", "region": "MI", "postcode": "48128", "id": "32091712600400"}, "geometry": {"type": "Point", "coordinates": [-83.2866021, 42.32582]}}
{"type": "Feature", "properties": {"hash": "74f1cc4f63dedc64", "number": "2034", "street": "N GULLEY", "unit": "", "city": "DEARBORN", "district": "", "region": "MI", "postcode": "48128", "id": "32091712600500"}, "geometry": {"type": "Point", "coordinates": [-83.2865959, 42.3256012]}}
{"type": "Feature", "properties": {"hash": "22585a781a24337d", "number": "2016", "street": "N GULLEY", "unit": "", "city": "DEARBORN", "district": "", "region": "MI", "postcode": "48128", "id": "32091712900100"}, "geometry": {"type": "Point", "coordinates": [-83.2865875, 42.32526]}}
{"type": "Feature", "properties": {"hash": "9c9d02cf72cb7702", "number": "2006", "street": "N GULLEY", "unit": "", "city": "DEARBORN", "district": "", "region": "MI", "postcode": "48128", "id": "32091712900200"}, "geometry": {"type": "Point", "coordinates": [-83.2865841, 42.3251303]}}
{"type": "Feature", "properties": {"hash": "1442cf1d6f4a2cc5", "number": "1874", "street": "N GULLEY", "unit": "", "city": "DEARBORN", "district": "", "region": "MI", "postcode": "48128", "id": "32091712900300"}, "geometry": {"type": "Point", "coordinates": [-83.2865811, 42.3250067]}}
{"type": "Feature", "properties": {"hash": "6466484464be38af", "number": "1862", "street": "N GULLEY", "unit": "", "city": "DEARBORN", "district": "", "region": "MI", "postcode": "48128", "id": "32091712900400"}, "geometry": {"type": "Point", "coordinates": [-83.2865781, 42.3248849]}}
{"type": "Feature", "properties": {"hash": "266cc9edcc03723b", "number": "1854", "street": "N GULLEY", "unit": "", "city": "DEARBORN", "district": "", "region": "MI", "postcode": "48128", "id": "32091712900500"}, "geometry": {"type": "Point", "coordinates": [-83.2865748, 42.3247565]}}
{"type": "Feature", "properties": {"hash": "85fe0631b9c4d361", "number": "1846", "street": "N GULLEY", "unit": "", "city": "DEARBORN", "district": "", "region": "MI", "postcode": "48128", "id": "32091712900600"}, "geometry": {"type": "Point", "coordinates": [-83.2865716, 42.3246351]}}
{"type": "Feature", "properties": {"hash": "d877201cba7b70a7", "number": "1830", "street": "N GULLEY", "unit": "", "city": "DEARBORN", "district": "", "region": "MI", "postcode": "48128", "id": "32091712900700"}, "geometry": {"type": "Point", "coordinates": [-83.2865674, 42.324477]}}
