{"type": "Feature", "properties": {"id": "", "unit": "", "number": "5908", "street": "COUNTY ROAD 203", "city": "Cape Girardeau", "district": "", "region": "MO", "postcode": "63701", "hash": "a2de6c51aa16d87e"}, "geometry": {"type": "Point", "coordinates": [-89.606829, 37.3031809]}}
{"type": "Feature", "properties": {"id": "", "unit": "", "number": "200", "street": "FRANKS LN", "city": "Cape Girardeau", "district": "", "region": "MO", "postcode": "63701", "hash": "901b4658b18524a6"}, "geometry": {"type": "Point", "coordinates": [-89.5955206, 37.350981]}}
{"type": "Feature", "properties": {"id": "", "unit": "", "number": "204", "street": "FRANKS LN", "city": "Cape Girardeau", "district": "", "region": "MO", "postcode": "63701", "hash": "fdc2bb5fb610ffaf"}, "geometry": {"type": "Point", "coordinates": [-89.5952987, 37.351151]}}
{"type": "Feature", "properties": {"id": "", "unit": "", "number": "210", "street": "FRANKS LN", "city": "Cape Girardeau", "district": "", "region": "MO", "postcode": "63701", "hash": "0c2acb9a1cb9b2a9"}, "geometry": {"type": "Point", "coordinates": [-89.5950388, 37.3513092]}}
{"type": "Feature", "properties": {"id": "", "unit": "", "number": "1319", "street": "BLOOMFIELD ST", "city": "Cape Girardeau", "district": "", "region": "MO", "postcode": "63703", "hash": "44064fd9edc667bd"}, "geometry": {"type": "Point", "coordinates": [-89.53673, 37.2996335]}}
{"type": "Feature", "properties": {"id": "", "unit": "", "number": "1623", "street": "GOOD HOPE ST", "city": "Cape Girardeau", "district": "", "region": "MO", "postcode": "63703", "hash": "169e24010635df8b"}, "geometry": {"type": "Point", "coordinates": [-89.5409598, 37.301083]}}
{"type": "Feature", "properties": {"id": "", "unit": "APT REAR", "number": "1826", "street": "BLOOMFIELD ST", "city": "Cape Girardeau", "district": "", "region": "MO", "postcode": "63703", "hash": "f4c888f97d56ab7e"}, "geometry": {"type": "Point", "coordinates": [-89.5437518, 37.3009069]}}
{"type": "Feature", "properties": {"id": "", "unit": "", "number": "1820", "street": "BLOOMFIELD ST", "city": "Cape Girardeau", "district": "", "region": "MO", "postcode": "63703", "hash": "11c84894df211365"}, "geometry": {"type": "Point", "coordinates": [-89.5435669, 37.3008342]}}
{"type": "Feature", "properties": {"id": "", "unit": "APT REAR", "number": "1821", "street": "GOOD HOPE ST", "city": "Cape Girardeau", "district": "", "region": "MO", "postcode": "63703", "hash": "6c16ec32e70e7a79"}, "geometry": {"type": "Point", "coordinates": [-89.5435147, 37.3010203]}}
{"type": "Feature", "properties": {"id": "", "unit": "APT REAR", "number": "315", "street": "SHERIDAN DR", "city": "Cape Girardeau", "district": "", "region": "MO", "postcode": "63703", "hash": "f92a2a046a8422d3"}, "geometry": {"type": "Point", "coordinates": [-89.5474039, 37.3012218]}}
{"type": "Feature", "properties": {"id": "", "unit": "", "number": "320", "street": "S SPRING AVE", "city": "Cape Girardeau", "district": "", "region": "MO", "postcode": "63703", "hash": "9facfa87194f8026"}, "geometry": {"type": "Point", "coordinates": [-89.5479537, 37.3011706]}}
{"type": "Feature", "properties": {"id": "", "unit": "", "number": "2208", "street": "BLOOMFIELD ST", "city": "Cape Girardeau", "district": "", "region": "MO", "postcode": "63703", "hash": "5d11a1c895fe8607"}, "geometry": {"type": "Point", "coordinates": [-89.5490015, 37.300132]}}
{"type": "Feature", "properties": {"hash": "8e80f12a67302afd", "number": "569", "street": "Parkgate Dr", "unit": "", "city": "Lake Saint Louis", "district": "", "region": "MO", "postcode": "63367", "id": ""}, "geometry": {"type": "Point", "coordinates": [-90.8116997, 38.7515902]}}
{"type": "Feature", "properties": {"hash": "c73083a1a552ffd0", "number": "564", "street": "Parkgate Dr", "unit": "", "city": "Lake Saint Louis", "district": "", "region": "MO", "postcode": "63367", "id": ""}, "geometry": {"type": "Point", "coordinates": [-90.8113532, 38.752043]}}
{"type": "Feature", "properties": {"hash": "9bcb760982521782", "number": "562", "street": "Parkgate Dr", "unit": "", "city": "Lake Saint Louis", "district": "", "region": "MO", "postcode": "63367", "id": ""}, "geometry": {"type": "Point", "coordinates": [-90.8114163, 38.752148]}}
{"type": "Feature", "properties": {"hash": "8eb1f301dbef9314", "number": "549", "street": "Parkgate Dr", "unit": "", "city": "Lake Saint Louis", "district": "", "region": "MO", "postcode": "63367", "id": ""}, "geometry": {"type": "Point", "coordinates": [-90.812545, 38.7525252]}}
{"type": "Feature", "properties": {"hash": "cbf01a5cd3800934", "number": "553", "street": "Parkgate Dr", "unit": "", "city": "Lake Saint Louis", "district": "", "region": "MO", "postcode": "63367", "id": ""}, "geometry": {"type": "Point", "coordinates": [-90.8123479, 38.7523556]}}
{"type": "Feature", "properties": {"hash": "dabbd9a64579d3c0", "number": "566", "street": "Parkgate Dr", "unit": "", "city": "Lake Saint Louis", "district": "", "region": "MO", "postcode": "63367", "id": ""}, "geometry": {"type": "Point", "coordinates": [-90.8112845, 38.7519443]}}
{"type": "Feature", "properties": {"hash": "9cb11b30c29e7e1b", "number": "560", "street": "Parkgate Dr", "unit": "", "city": "Lake Saint Louis", "district": "", "region": "MO", "postcode": "63367", "id": ""}, "geometry": {"type": "Point", "coordinates": [-90.81149, 38.7522423]}}
{"type": "Feature", "properties": {"hash": "4ea05111e66e6d04", "number": "558", "street": "Parkgate Dr", "unit": "", "city": "Lake Saint Louis", "district": "", "region": "MO", "postcode": "63367", "id": ""}, "geometry": {"type": "Point", "coordinates": [-90.8115587, 38.7523365]}}
{"type": "Feature", "properties": {"hash": "caf6c255bb30d703", "number": "556", "street": "Parkgate Dr", "unit": "", "city": "Lake Saint Louis", "district": "", "region": "MO", "postcode": "63367", "id": ""}, "geometry": {"type": "Point", "coordinates": [-90.8116331, 38.7524325]}}
{"type": "Feature", "properties": {"hash": "80bcabc05470a8bc", "number": "554", "street": "Parkgate Dr", "unit": "", "city": "Lake Saint Louis", "district": "", "region": "MO", "postcode": "63367", "id": ""}, "geometry": {"type": "Point", "coordinates": [-90.8117487, 38.7525066]}}
{"type": "Feature", "properties": {"hash": "a053a3fe38753100", "number": "90", "street": "Castlewynd Ct", "unit": "", "city": "Lake Saint Louis", "district": "", "region": "MO", "postcode": "63367", "id": ""}, "geometry": {"type": "Point", "coordinates": [-90.8120057, 38.7526357]}}
{"type": "Feature", "properties": {"hash": "280344ab9d50483c", "number": "541", "street": "Parkgate Dr", "unit": "", "city": "Lake Saint Louis", "district": "", "region": "MO", "postcode": "63367", "id": ""}, "geometry": {"type": "Point", "coordinates": [-90.8129523, 38.7528524]}}
{"type": "Feature", "properties": {"id": "", "unit": "", "number": "2001", "street": "ST MARYS BLVD", "city": "JEFFERSON CITY", "district": "", "region": "MO", "postcode": "65109", "hash": "8a44b5c5c0f12668"}, "geometry": {"type": "Point", "coordinates": [-92.2031692, 38.5837034]}}
{"type": "Feature", "properties": {"id": "", "unit": "", "number": "2009", "street": "ST MARYS BLVD", "city": "JEFFERSON CITY", "district": "", "region": "MO", "postcode": "65109", "hash": "483355cde104bbdf"}, "geometry": {"type": "Point", "coordinates": [-92.2038854, 38.5837011]}}
{"type": "Feature", "properties": {"id": "", "unit": "APT 1A", "number": "2110", "street": "ST MARYS BLVD", "city": "JEFFERSON CITY", "district": "", "region": "MO", "postcode": "65109", "hash": "7987cee362e5f08c"}, "geometry": {"type": "Point", "coordinates": [-92.2066708, 38.5840484]}}
{"type": "Feature", "properties": {"id": "", "unit": "", "number": "2119", "street": "ST MARYS BLVD", "city": "JEFFERSON CITY", "district": "", "region": "MO", "postcode": "65109", "hash": "484342122f63b98e"}, "geometry": {"type": "Point", "coordinates": [-92.2069559, 38.5834108]}}
{"type": "Feature", "properties": {"id": "", "unit": "", "number": "2022", "street": "MISSOURI BLVD", "city": "JEFFERSON CITY", "district": "", "region": "MO", "postcode": "65109", "hash": "afae1070386cab52"}, "geometry": {"type": "Point", "coordinates": [-92.2050168, 38.5813774]}}
{"type": "Feature", "properties": {"id": "", "unit": "", "number": "2012", "street": "MISSOURI BLVD", "city": "JEFFERSON CITY", "district": "", "region": "MO", "postcode": "65109", "hash": "346438507b69f6fa"}, "geometry": {"type": "Point", "coordinates": [-92.2043335, 38.5813269]}}
{"type": "Feature", "properties": {"id": "", "unit": "STE B1", "number": "520", "street": "DIX RD", "city": "JEFFERSON CITY", "district": "", "region": "MO", "postcode": "65109", "hash": "bb5acb073870a3ab"}, "geometry": {"type": "Point", "coordinates": [-92.2027691, 38.5831393]}}
{"type": "Feature", "properties": {"id": "", "unit": "", "number": "2018", "street": "WILLIAM ST", "city": "JEFFERSON CITY", "district": "", "region": "MO", "postcode": "65109", "hash": "350297910831d644"}, "geometry": {"type": "Point", "coordinates": [-92.2044344, 38.583096]}}
{"type": "Feature", "properties": {"id": "", "unit": "", "number": "2300", "street": "MISSOURI BLVD", "city": "JEFFERSON CITY", "district": "", "region": "MO", "postcode": "65109", "hash": "6c86b0a55f402e2e"}, "geometry": {"type": "Point", "coordinates": [-92.2103134, 38.5818222]}}
{"type": "Feature", "properties": {"id": "", "unit": "", "number": "2300", "street": "ST MARYS BLVD", "city": "JEFFERSON CITY", "district": "", "region": "MO", "postcode": "65109", "hash": "6abbcf0088d17f76"}, "geometry": {"type": "Point", "coordinates": [-92.2109549, 38.5837906]}}
{"type": "Feature", "properties": {"id": "", "unit": "", "number": "2207", "street": "MISSOURI BLVD", "city": "JEFFERSON CITY", "district": "", "region": "MO", "postcode": "65109", "hash": "1b5c514db134ae42"}, "geometry": {"type": "Point", "coordinates": [-92.2085207, 38.5812025]}}
{"type": "Feature", "properties": {"id": "", "unit": "UNIT A", "number": "728", "street": "HEISINGER RD", "city": "JEFFERSON CITY", "district": "", "region": "MO", "postcode": "65109", "hash": "b3962d5f340c02a2"}, "geometry": {"type": "Point", "coordinates": [-92.2080521, 38.5793135]}}
{"type": "Feature", "properties": {"hash": "4b9613f78853f60b", "number": "11045", "street": "N TWIN BROOKS LN", "unit": "", "city": "WALNUT GROVE", "district": "", "region": "MO", "postcode": "65770", "id": ""}, "geometry": {"type": "Point", "coordinates": [-93.5198037, 37.4022311]}}
{"type": "Feature", "properties": {"hash": "0bbff9a5b1ce3d43", "number": "11230", "street": "W STATE HIGHWAY BB", "unit": "", "city": "WALNUT GROVE", "district": "", "region": "MO", "postcode": "65770", "id": ""}, "geometry": {"type": "Point", "coordinates": [-93.5196056, 37.4102579]}}
{"type": "Feature", "properties": {"hash": "125aa60e78395deb", "number": "11068", "street": "N TWIN BROOKS LN", "unit": "", "city": "WALNUT GROVE", "district": "", "region": "MO", "postcode": "65770", "id": ""}, "geometry": {"type": "Point", "coordinates": [-93.5186116, 37.4025589]}}
{"type": "Feature", "properties": {"hash": "c865cb4f637c494a", "number": "11373", "street": "W FARM ROAD 18", "unit": "", "city": "WALNUT GROVE", "district": "", "region": "MO", "postcode": "65770", "id": ""}, "geometry": {"type": "Point", "coordinates": [-93.5232138, 37.4036533]}}
{"type": "Feature", "properties": {"hash": "9683bf1e1cb143ad", "number": "10392", "street": "W STATE HIGHWAY BB", "unit": "", "city": "WALNUT GROVE", "district": "", "region": "MO", "postcode": "65770", "id": ""}, "geometry": {"type": "Point", "coordinates": [-93.4995157, 37.4102029]}}
{"type": "Feature", "properties": {"hash": "170b9d98edbe2c8d", "number": "10125", "street": "W FARM ROAD 22", "unit": "", "city": "WALNUT GROVE", "district": "", "region": "MO", "postcode": "65770", "id": ""}, "geometry": {"type": "Point", "coordinates": [-93.4941989, 37.3964278]}}
{"type": "Feature", "properties": {"hash": "2bb670d5e3fcdbfc", "number": "10811", "street": "N FRANKLIN LN", "unit": "", "city": "WALNUT GROVE", "district": "", "region": "MO", "postcode": "65770", "id": ""}, "geometry": {"type": "Point", "coordinates": [-93.4947674, 37.3973626]}}
{"type": "Feature", "properties": {"hash": "c69cc07efd9b6732", "number": "10121", "street": "W FARM ROAD 22", "unit": "", "city": "WALNUT GROVE", "district": "", "region": "MO", "postcode": "65770", "id": ""}, "geometry": {"type": "Point", "coordinates": [-93.4935751, 37.396461]}}
{"type": "Feature", "properties": {"hash": "c60cf38e055a71cd", "number": "11094", "street": "N FARM ROAD 65", "unit": "", "city": "WALNUT GROVE", "district": "", "region": "MO", "postcode": "65770", "id": ""}, "geometry": {"type": "Point", "coordinates": [-93.5009005, 37.4038256]}}
{"type": "Feature", "properties": {"hash": "5d2577d01407e2f2", "number": "9955", "street": "W FARM ROAD 22", "unit": "", "city": "WALNUT GROVE", "district": "", "region": "MO", "postcode": "65770", "id": ""}, "geometry": {"type": "Point", "coordinates": [-93.4899326, 37.3959633]}}
{"type": "Feature", "properties": {"hash": "f20811af9480596d", "number": "8903", "street": "W FARM ROAD 10", "unit": "", "city": "WALNUT GROVE", "district": "", "region": "MO", "postcode": "65770", "id": ""}, "geometry": {"type": "Point", "coordinates": [-93.4681919, 37.4067309]}}
{"type": "Feature", "properties": {"hash": "fdacabdf4e4bd730", "number": "11417", "street": "N FARM ROAD 93", "unit": "", "city": "WALNUT GROVE", "district": "", "region": "MO", "postcode": "65770", "id": ""}, "geometry": {"type": "Point", "coordinates": [-93.4579741, 37.4080308]}}
{"type": "Feature", "properties": {"hash": "987345d1f9a6e31e", "number": "5675", "street": "W COTTONWOOD LN", "unit": "", "city": "JOPLIN", "district": "", "region": "MO", "postcode": "64801", "id": ""}, "geometry": {"type": "Point", "coordinates": [-94.5878761, 37.0859236]}}
{"type": "Feature", "properties": {"hash": "cbb88311021fe197", "number": "932", "street": "S SPRING VALLEY LN", "unit": "", "city": "JOPLIN", "district": "", "region": "MO", "postcode": "64801", "id": ""}, "geometry": {"type": "Point", "coordinates": [-94.4321012, 37.080703]}}
{"type": "Feature", "properties": {"hash": "a1b6a5347fef1222", "number": "1095", "street": "COUNTY LANE 44", "unit": "", "city": "SARCOXIE", "district": "", "region": "MO", "postcode": "64862", "id": ""}, "geometry": {"type": "Point", "coordinates": [-94.140111, 37.0658738]}}
{"type": "Feature", "properties": {"hash": "7a3d60d730e27504", "number": "3460", "street": "W BELLE CENTER RD", "unit": "", "city": "JOPLIN", "district": "", "region": "MO", "postcode": "64801", "id": ""}, "geometry": {"type": "Point", "coordinates": [-94.5545034, 37.1003928]}}
{"type": "Feature", "properties": {"hash": "eedf9db66e1944c5", "number": "25471", "street": "BRUSSELS DR", "unit": "", "city": "JOPLIN", "district": "", "region": "MO", "postcode": "64801", "id": ""}, "geometry": {"type": "Point", "coordinates": [-94.5187327, 37.1523582]}}
{"type": "Feature", "properties": {"hash": "a872a387ff2d9245", "number": "24971", "street": "BASE LINE BLVD", "unit": "", "city": "ORONOGO", "district": "", "region": "MO", "postcode": "64855", "id": ""}, "geometry": {"type": "Point", "coordinates": [-94.5028826, 37.3023766]}}
{"type": "Feature", "properties": {"hash": "b048c86b63fa4ccb", "number": "9855", "street": "LAWRENCE COUNTY AVE", "unit": "", "city": "SARCOXIE", "district": "", "region": "MO", "postcode": "64862", "id": ""}, "geometry": {"type": "Point", "coordinates": [-94.055129, 37.1914508]}}
{"type": "Feature", "properties": {"hash": "a4e82342807819ff", "number": "3981", "street": "COUNTY ROAD 5", "unit": "", "city": "SARCOXIE", "district": "", "region": "MO", "postcode": "64862", "id": ""}, "geometry": {"type": "Point", "coordinates": [-94.0666975, 37.1061327]}}
{"type": "Feature", "properties": {"hash": "2b30cb77b610b836", "number": "3973", "street": "COUNTY ROAD 5", "unit": "", "city": "SARCOXIE", "district": "", "region": "MO", "postcode": "64862", "id": ""}, "geometry": {"type": "Point", "coordinates": [-94.0666991, 37.1060769]}}
{"type": "Feature", "properties": {"hash": "3d5e6ed2af25bb1b", "number": "716", "street": "S SUMMIT LN", "unit": "", "city": "JOPLIN", "district": "", "region": "MO", "postcode": "64801", "id": ""}, "geometry": {"type": "Point", "coordinates": [-94.4540794, 37.0829945]}}
{"type": "Feature", "properties": {"hash": "8178d0dc2a879b53", "number": "721", "street": "S SUMMIT LN", "unit": "", "city": "JOPLIN", "district": "", "region": "MO", "postcode": "64801", "id": ""}, "geometry": {"type": "Point", "coordinates": [-94.4539379, 37.0829629]}}
{"type": "Feature", "properties": {"hash": "83d89f227bbad817", "number": "730", "street": "S SUMMIT LN", "unit": "", "city": "JOPLIN", "district": "", "region": "MO", "postcode": "64801", "id": ""}, "geometry": {"type": "Point", "coordinates": [-94.4540913, 37.0826471]}}
{"type": "Feature", "properties": {"hash": "6c855a14dce61f63", "number": "147", "street": "POMODORA CIR", "unit": "", "city": "WENTZVILLE", "district": "", "region": "MO", "postcode": "63385", "id": ""}, "geometry": {"type": "Point", "coordinates": [-90.9009803, 38.8233063]}}
{"type": "Feature", "properties": {"hash": "9444437aab235512", "number": "201", "street": "BOSCHETTO DR", "unit": "", "city": "WENTZVILLE", "district": "", "region": "MO", "postcode": "63385", "id": ""}, "geometry": {"type": "Point", "coordinates": [-90.9002629, 38.8246817]}}
{"type": "Feature", "properties": {"hash": "636dc4bb063687c4", "number": "145", "street": "POMODORA CIR", "unit": "", "city": "WENTZVILLE", "district": "", "region": "MO", "postcode": "63385", "id": ""}, "geometry": {"type": "Point", "coordinates": [-90.9010643, 38.8230725]}}
{"type": "Feature", "properties": {"hash": "e753b78af75bf1b2", "number": "139", "street": "POMODORA CIR", "unit": "", "city": "WENTZVILLE", "district": "", "region": "MO", "postcode": "63385", "id": ""}, "geometry": {"type": "Point", "coordinates": [-90.9002104, 38.8229324]}}
{"type": "Feature", "properties": {"hash": "84821bfe30fa3ce4", "number": "137", "street": "POMODORA CIR", "unit": "", "city": "WENTZVILLE", "district": "", "region": "MO", "postcode": "63385", "id": ""}, "geometry": {"type": "Point", "coordinates": [-90.8999177, 38.8229048]}}
{"type": "Feature", "properties": {"hash": "6c9e7ddd397a5671", "number": "135", "street": "POMODORA CIR", "unit": "", "city": "WENTZVILLE", "district": "", "region": "MO", "postcode": "63385", "id": ""}, "geometry": {"type": "Point", "coordinates": [-90.8996434, 38.8228914]}}
{"type": "Feature", "properties": {"hash": "2901bf5ed4bec201", "number": "200", "street": "BOSCHETTO DR", "unit": "", "city": "WENTZVILLE", "district": "", "region": "MO", "postcode": "63385", "id": ""}, "geometry": {"type": "Point", "coordinates": [-90.8999643, 38.8246875]}}
{"type": "Feature", "properties": {"hash": "b88dbedf249e4cdc", "number": "101", "street": "POMODORA CIR", "unit": "", "city": "WENTZVILLE", "district": "", "region": "MO", "postcode": "63385", "id": ""}, "geometry": {"type": "Point", "coordinates": [-90.8997749, 38.8245976]}}
{"type": "Feature", "properties": {"hash": "4da26237bf0831e3", "number": "103", "street": "POMODORA CIR", "unit": "", "city": "WENTZVILLE", "district": "", "region": "MO", "postcode": "63385", "id": ""}, "geometry": {"type": "Point", "coordinates": [-90.8995128, 38.8245985]}}
{"type": "Feature", "properties": {"hash": "deecc4a4215fd306", "number": "105", "street": "POMODORA CIR", "unit": "", "city": "WENTZVILLE", "district": "", "region": "MO", "postcode": "63385", "id": ""}, "geometry": {"type": "Point", "coordinates": [-90.8992751, 38.8245945]}}
{"type": "Feature", "properties": {"hash": "7172f4f98152823e", "number": "107", "street": "POMODORA CIR", "unit": "", "city": "WENTZVILLE", "district": "", "region": "MO", "postcode": "63385", "id": ""}, "geometry": {"type": "Point", "coordinates": [-90.899007, 38.8245954]}}
{"type": "Feature", "properties": {"hash": "57fc5ba1fb477e00", "number": "109", "street": "POMODORA CIR", "unit": "", "city": "WENTZVILLE", "district": "", "region": "MO", "postcode": "63385", "id": ""}, "geometry": {"type": "Point", "coordinates": [-90.8987144, 38.8245773]}}
{"type": "Feature", "properties": {"hash": "68db1d33978a32f8", "number": "6241", "street": "LEMAY FERRY RD", "unit": "", "city": "SAINT LOUIS", "district": "", "region": "MO", "postcode": "63129", "id": ""}, "geometry": {"type": "Point", "coordinates": [-90.3585648, 38.4639037]}}
{"type": "Feature", "properties": {"hash": "79ac2eca10941b04", "number": "9500", "street": "BELLEFONTAINE RD", "unit": "", "city": "SAINT LOUIS", "district": "", "region": "MO", "postcode": "63137", "id": ""}, "geometry": {"type": "Point", "coordinates": [-90.2253186, 38.7372922]}}
{"type": "Feature", "properties": {"hash": "37ec14d381e5c906", "number": "681", "street": "ST CYR RD", "unit": "", "city": "SAINT LOUIS", "district": "", "region": "MO", "postcode": "63137", "id": ""}, "geometry": {"type": "Point", "coordinates": [-90.2241321, 38.737158]}}
{"type": "Feature", "properties": {"hash": "0e0e609bd942a981", "number": "736", "street": "W SPICEWOOD DR", "unit": "", "city": "CHESTERFIELD", "district": "", "region": "MO", "postcode": "63005", "id": ""}, "geometry": {"type": "Point", "coordinates": [-90.7080102, 38.6340255]}}
{"type": "Feature", "properties": {"hash": "c18975739a631e50", "number": "760", "street": "W SPICEWOOD DR", "unit": "", "city": "CHESTERFIELD", "district": "", "region": "MO", "postcode": "63005", "id": ""}, "geometry": {"type": "Point", "coordinates": [-90.7062391, 38.6318102]}}
{"type": "Feature", "properties": {"hash": "3978cffcf8417eb4", "number": "5682", "street": "BANEZ DR", "unit": "", "city": "SAINT LOUIS", "district": "", "region": "MO", "postcode": "63128", "id": ""}, "geometry": {"type": "Point", "coordinates": [-90.3730521, 38.4751623]}}
{"type": "Feature", "properties": {"hash": "9dbe6a64b916ba1d", "number": "6247", "street": "LEMAY FERRY RD", "unit": "", "city": "SAINT LOUIS", "district": "", "region": "MO", "postcode": "63129", "id": ""}, "geometry": {"type": "Point", "coordinates": [-90.3589413, 38.4636348]}}
{"type": "Feature", "properties": {"hash": "87b9a1b8310f5806", "number": "6245", "street": "LEMAY FERRY RD", "unit": "", "city": "SAINT LOUIS", "district": "", "region": "MO", "postcode": "63129", "id": ""}, "geometry": {"type": "Point", "coordinates": [-90.3588136, 38.4638134]}}
{"type": "Feature", "properties": {"hash": "3d0dff7e4b02838a", "number": "18012", "street": "MANCHESTER RD", "unit": "", "city": "GLENCOE", "district": "", "region": "MO", "postcode": "63038", "id": ""}, "geometry": {"type": "Point", "coordinates": [-90.6827037, 38.5772495]}}
{"type": "Feature", "properties": {"hash": "b29dd061b1631b40", "number": "1475", "street": "DUNN RD", "unit": "", "city": "SAINT LOUIS", "district": "", "region": "MO", "postcode": "63138", "id": ""}, "geometry": {"type": "Point", "coordinates": [-90.2200944, 38.7705062]}}
{"type": "Feature", "properties": {"hash": "e9e819ffbd7e7c7b", "number": "2804", "street": "HATHAWAY AVE", "unit": "", "city": "MARYLAND HEIGHTS", "district": "", "region": "MO", "postcode": "63043", "id": ""}, "geometry": {"type": "Point", "coordinates": [-90.4347612, 38.7256177]}}
{"type": "Feature", "properties": {"hash": "bb0e4c1d1d967727", "number": "2731", "street": "EDGEWORTH AVE", "unit": "", "city": "MARYLAND HEIGHTS", "district": "", "region": "MO", "postcode": "63043", "id": ""}, "geometry": {"type": "Point", "coordinates": [-90.4337386, 38.725435]}}
{"type": "Feature", "properties": {"hash": "1f85c5731d4d8781", "number": "104", "street": "6TH AVE", "unit": "", "city": "RIDGEDALE", "district": "", "region": "MO", "postcode": "65739", "id": ""}, "geometry": {"type": "Point", "coordinates": [-93.3129652, 36.5261204]}}
{"type": "Feature", "properties": {"hash": "5faa482c1d965b27", "number": "297", "street": "6TH AVE", "unit": "", "city": "RIDGEDALE", "district": "", "region": "MO", "postcode": "65739", "id": ""}, "geometry": {"type": "Point", "coordinates": [-93.3102982, 36.5266035]}}
{"type": "Feature", "properties": {"hash": "74ff12ea58873703", "number": "342", "street": "6TH AVE", "unit": "", "city": "RIDGEDALE", "district": "", "region": "MO", "postcode": "65739", "id": ""}, "geometry": {"type": "Point", "coordinates": [-93.3092451, 36.5262286]}}
{"type": "Feature", "properties": {"hash": "484ed374023ae681", "number": "1314", "street": "TATE RD", "unit": "", "city": "RIDGEDALE", "district": "", "region": "MO", "postcode": "65739", "id": ""}, "geometry": {"type": "Point", "coordinates": [-93.2908304, 36.5106588]}}
{"type": "Feature", "properties": {"hash": "1de886fe7889db02", "number": "140", "street": "CRESCENT LN", "unit": "", "city": "RIDGEDALE", "district": "", "region": "MO", "postcode": "65739", "id": ""}, "geometry": {"type": "Point", "coordinates": [-93.2900653, 36.5095852]}}
{"type": "Feature", "properties": {"hash": "1a98204ff62f6e91", "number": "145", "street": "CRESCENT LN", "unit": "", "city": "RIDGEDALE", "district": "", "region": "MO", "postcode": "65739", "id": ""}, "geometry": {"type": "Point", "coordinates": [-93.2897332, 36.5095044]}}
{"type": "Feature", "properties": {"hash": "882b6781b4d2d58b", "number": "107", "street": "ROCKY RD", "unit": "", "city": "RIDGEDALE", "district": "", "region": "MO", "postcode": "65739", "id": ""}, "geometry": {"type": "Point", "coordinates": [-93.2963936, 36.5243662]}}
{"type": "Feature", "properties": {"hash": "62283a7972387dea", "number": "968", "street": "RED BLUFF RD", "unit": "", "city": "BLUE EYE", "district": "", "region": "MO", "postcode": "65611", "id": ""}, "geometry": {"type": "Point", "coordinates": [-93.3018728, 36.5138526]}}
{"type": "Feature", "properties": {"hash": "be44bedaad2ac506", "number": "882", "street": "BRUSHY RD", "unit": "", "city": "BLUE EYE", "district": "", "region": "MO", "postcode": "65611", "id": ""}, "geometry": {"type": "Point", "coordinates": [-93.3064468, 36.5058932]}}
{"type": "Feature", "properties": {"hash": "746ba00c0b6accd1", "number": "2757", "street": "JONES RD", "unit": "", "city": "RIDGEDALE", "district": "", "region": "MO", "postcode": "65739", "id": ""}, "geometry": {"type": "Point", "coordinates": [-93.2900766, 36.4970049]}}
{"type": "Feature", "properties": {"hash": "e7a58ccf38496a00", "number": "295", "street": "6TH AVE", "unit": "", "city": "RIDGEDALE", "district": "", "region": "MO", "postcode": "65739", "id": ""}, "geometry": {"type": "Point", "coordinates": [-93.3104006, 36.5264692]}}
{"type": "Feature", "properties": {"hash": "3f4727005828e531", "number": "385", "street": "NATURE LN", "unit": "", "city": "RIDGEDALE", "district": "", "region": "MO", "postcode": "65739", "id": ""}, "geometry": {"type": "Point", "coordinates": [-93.2908275, 36.5145248]}}
