{"type": "Feature", "properties": {"hash": "c8c6d2ed263458aa", "number": "2330", "street": "ATKINSON RD", "unit": "", "city": "BILOXI", "district": "HARRISON", "region": "MS", "postcode": "39531", "id": ""}, "geometry": {"type": "Point", "coordinates": [-88.9722803, 30.4147019]}}
{"type": "Feature", "properties": {"hash": "a561ed164c6ab507", "number": "13464", "street": "SCRUGGS LN", "unit": "", "city": "BILOXI", "district": "HARRISON", "region": "MS", "postcode": "39532", "id": ""}, "geometry": {"type": "Point", "coordinates": [-88.9080866, 30.4840687]}}
{"type": "Feature", "properties": {"hash": "fc871395b231f993", "number": "13524", "street": "SCRUGGS LN", "unit": "", "city": "BILOXI", "district": "HARRISON", "region": "MS", "postcode": "39532", "id": ""}, "geometry": {"type": "Point", "coordinates": [-88.907601, 30.4857359]}}
{"type": "Feature", "properties": {"hash": "49ab2a2250f55340", "number": "13579", "street": "LAMEY BRIDGE RD", "unit": "", "city": "BILOXI", "district": "HARRISON", "region": "MS", "postcode": "39532", "id": ""}, "geometry": {"type": "Point", "coordinates": [-88.8994062, 30.48477]}}
{"type": "Feature", "properties": {"hash": "25f6833b274233fd", "number": "15039", "street": "LORRAINE RD", "unit": "", "city": "BILOXI", "district": "HARRISON", "region": "MS", "postcode": "39532", "id": ""}, "geometry": {"type": "Point", "coordinates": [-88.9831559, 30.5022221]}}
{"type": "Feature", "properties": {"hash": "5bd7b408f4d61eab", "number": "13325", "street": "JIM BYRD RD", "unit": "", "city": "BILOXI", "district": "HARRISON", "region": "MS", "postcode": "39532", "id": ""}, "geometry": {"type": "Point", "coordinates": [-88.9739321, 30.4807595]}}
{"type": "Feature", "properties": {"hash": "becee53391fee24f", "number": "0", "street": "PASS RD", "unit": "", "city": "BILOXI", "district": "HARRISON", "region": "MS", "postcode": "39531", "id": ""}, "geometry": {"type": "Point", "coordinates": [-88.9481424, 30.404763]}}
{"type": "Feature", "properties": {"hash": "477700884a5c7f1b", "number": "13171", "street": "PARADISE LN", "unit": "", "city": "BILOXI", "district": "HARRISON", "region": "MS", "postcode": "39532", "id": ""}, "geometry": {"type": "Point", "coordinates": [-88.9183372, 30.4751406]}}
{"type": "Feature", "properties": {"hash": "66ff94a59d31f45b", "number": "5081", "street": "EDEN PL", "unit": "", "city": "BILOXI", "district": "HARRISON", "region": "MS", "postcode": "39532", "id": ""}, "geometry": {"type": "Point", "coordinates": [-88.9195706, 30.4744338]}}
{"type": "Feature", "properties": {"hash": "43e613099ff1fabf", "number": "5169", "street": "EDEN PL", "unit": "", "city": "BILOXI", "district": "HARRISON", "region": "MS", "postcode": "39532", "id": ""}, "geometry": {"type": "Point", "coordinates": [-88.9224024, 30.4729156]}}
{"type": "Feature", "properties": {"hash": "c6610e6e01aa74ba", "number": "5180", "street": "EDEN PL", "unit": "", "city": "BILOXI", "district": "HARRISON", "region": "MS", "postcode": "39532", "id": ""}, "geometry": {"type": "Point", "coordinates": [-88.9232204, 30.4750797]}}
{"type": "Feature", "properties": {"hash": "ca8c849a64f0e7bb", "number": "3487", "street": "WELLS FERRY CV", "unit": "", "city": "BILOXI", "district": "HARRISON", "region": "MS", "postcode": "39532", "id": ""}, "geometry": {"type": "Point", "coordinates": [-88.8985923, 30.464071]}}
{"type": "Feature", "properties": {"hash": "dd5306926d2aab8f", "number": "13181", "street": "HWY 15", "unit": "", "city": "BILOXI", "district": "HARRISON", "region": "MS", "postcode": "39532", "id": ""}, "geometry": {"type": "Point", "coordinates": [-88.9123991, 30.4770451]}}
{"type": "Feature", "properties": {"hash": "72d217ab1a30589d", "number": "13284", "street": "PARADISE LN", "unit": "", "city": "BILOXI", "district": "HARRISON", "region": "MS", "postcode": "39532", "id": ""}, "geometry": {"type": "Point", "coordinates": [-88.9198777, 30.4773502]}}
{"type": "Feature", "properties": {"hash": "4a224f53eb93fd44", "number": "5125", "street": "EDEN PL", "unit": "", "city": "BILOXI", "district": "HARRISON", "region": "MS", "postcode": "39532", "id": ""}, "geometry": {"type": "Point", "coordinates": [-88.9203238, 30.4735857]}}
{"type": "Feature", "properties": {"hash": "60bba8c4a7a9b657", "number": "13240", "street": "PARADISE LN", "unit": "", "city": "BILOXI", "district": "HARRISON", "region": "MS", "postcode": "39532", "id": ""}, "geometry": {"type": "Point", "coordinates": [-88.9198238, 30.4765313]}}
{"type": "Feature", "properties": {"hash": "184e466af3f5fbec", "number": "12895", "street": "PARADISE LN", "unit": "", "city": "BILOXI", "district": "HARRISON", "region": "MS", "postcode": "39532", "id": ""}, "geometry": {"type": "Point", "coordinates": [-88.9189863, 30.472326]}}
{"type": "Feature", "properties": {"hash": "07a0eae13fa44481", "number": "12895", "street": "PARADISE LN", "unit": "", "city": "BILOXI", "district": "HARRISON", "region": "MS", "postcode": "39532", "id": ""}, "geometry": {"type": "Point", "coordinates": [-88.9173845, 30.4722608]}}
{"type": "Feature", "properties": {"hash": "9369ba138bfe7e8a", "number": "13328", "street": "PARADISE LN", "unit": "", "city": "BILOXI", "district": "HARRISON", "region": "MS", "postcode": "39532", "id": ""}, "geometry": {"type": "Point", "coordinates": [-88.9201613, 30.4781009]}}
{"type": "Feature", "properties": {"hash": "9b5c4128d95e8f8f", "number": "13170", "street": "PARADISE LN", "unit": "", "city": "BILOXI", "district": "HARRISON", "region": "MS", "postcode": "39532", "id": ""}, "geometry": {"type": "Point", "coordinates": [-88.9183308, 30.4761058]}}
{"type": "Feature", "properties": {"hash": "1625fadcc548ff2c", "number": "13145", "street": "REECE BERGERON RD", "unit": "", "city": "BILOXI", "district": "HARRISON", "region": "MS", "postcode": "39532", "id": ""}, "geometry": {"type": "Point", "coordinates": [-88.9126695, 30.476164]}}
{"type": "Feature", "properties": {"hash": "dc6957b740d16c3a", "number": "5129", "street": "EDEN PL", "unit": "", "city": "BILOXI", "district": "HARRISON", "region": "MS", "postcode": "39532", "id": ""}, "geometry": {"type": "Point", "coordinates": [-88.9209016, 30.4734715]}}
{"type": "Feature", "properties": {"hash": "1c4f24fe1799de5b", "number": "5139", "street": "EDEN PL", "unit": "", "city": "BILOXI", "district": "HARRISON", "region": "MS", "postcode": "39532", "id": ""}, "geometry": {"type": "Point", "coordinates": [-88.92134, 30.4732536]}}
{"type": "Feature", "properties": {"hash": "f59c84ccc6846e4b", "number": "3495", "street": "WELLS FERRY CV", "unit": "", "city": "BILOXI", "district": "HARRISON", "region": "MS", "postcode": "39532", "id": ""}, "geometry": {"type": "Point", "coordinates": [-88.8988043, 30.4639305]}}
{"type": "Feature", "properties": {"hash": "8b8fd8d1d0a7d9ff", "number": "3505", "street": "WELLS FERRY CV", "unit": "", "city": "BILOXI", "district": "HARRISON", "region": "MS", "postcode": "39532", "id": ""}, "geometry": {"type": "Point", "coordinates": [-88.8990402, 30.4637901]}}
{"type": "Feature", "properties": {"id": "", "unit": "", "number": "13420", "street": "CHANDLER CT", "city": "Gulfport", "district": "", "region": "MS", "postcode": "39503", "hash": "8db67dc36096e94b"}, "geometry": {"type": "Point", "coordinates": [-89.060149, 30.4844401]}}
{"type": "Feature", "properties": {"id": "", "unit": "", "number": "13416", "street": "CHANDLER CT", "city": "Gulfport", "district": "", "region": "MS", "postcode": "39503", "hash": "cab4ad80349f3a55"}, "geometry": {"type": "Point", "coordinates": [-89.0600565, 30.4847058]}}
{"type": "Feature", "properties": {"id": "", "unit": "", "number": "13412", "street": "CHANDLER CT", "city": "Gulfport", "district": "", "region": "MS", "postcode": "39503", "hash": "1343c19f7713b282"}, "geometry": {"type": "Point", "coordinates": [-89.0598063, 30.4847991]}}
{"type": "Feature", "properties": {"id": "", "unit": "", "number": "13404", "street": "CHANDLER CT", "city": "Gulfport", "district": "", "region": "MS", "postcode": "39503", "hash": "1741e4353aadd947"}, "geometry": {"type": "Point", "coordinates": [-89.0593009, 30.4849637]}}
{"type": "Feature", "properties": {"id": "", "unit": "", "number": "13400", "street": "CHANDLER CT", "city": "Gulfport", "district": "", "region": "MS", "postcode": "39503", "hash": "64446358689dc918"}, "geometry": {"type": "Point", "coordinates": [-89.0590198, 30.4849598]}}
{"type": "Feature", "properties": {"id": "", "unit": "", "number": "13446", "street": "ADDISON AVE", "city": "Gulfport", "district": "", "region": "MS", "postcode": "39503", "hash": "48f55a9d07868bb6"}, "geometry": {"type": "Point", "coordinates": [-89.0571336, 30.4817592]}}
{"type": "Feature", "properties": {"id": "", "unit": "", "number": "13472", "street": "ADDISON AVE", "city": "Gulfport", "district": "", "region": "MS", "postcode": "39503", "hash": "23b2e8ed4e16a770"}, "geometry": {"type": "Point", "coordinates": [-89.0578893, 30.4824339]}}
{"type": "Feature", "properties": {"id": "", "unit": "", "number": "13447", "street": "ADDISON AVE", "city": "Gulfport", "district": "", "region": "MS", "postcode": "39503", "hash": "8a09a924433c3ecd"}, "geometry": {"type": "Point", "coordinates": [-89.0572888, 30.4816166]}}
{"type": "Feature", "properties": {"id": "", "unit": "", "number": "13451", "street": "ADDISON AVE", "city": "Gulfport", "district": "", "region": "MS", "postcode": "39503", "hash": "ac438f1c50320ce6"}, "geometry": {"type": "Point", "coordinates": [-89.0576439, 30.4816516]}}
{"type": "Feature", "properties": {"id": "", "unit": "", "number": "13459", "street": "ADDISON AVE", "city": "Gulfport", "district": "", "region": "MS", "postcode": "39503", "hash": "42692ea1040d79b3"}, "geometry": {"type": "Point", "coordinates": [-89.0578671, 30.4817351]}}
{"type": "Feature", "properties": {"id": "", "unit": "", "number": "13450", "street": "ADDISON AVE", "city": "Gulfport", "district": "", "region": "MS", "postcode": "39503", "hash": "df7d426d33a34950"}, "geometry": {"type": "Point", "coordinates": [-89.0571781, 30.4819625]}}
{"type": "Feature", "properties": {"id": "", "unit": "", "number": "13454", "street": "ADDISON AVE", "city": "Gulfport", "district": "", "region": "MS", "postcode": "39503", "hash": "ea2d5cd1e0eff2c8"}, "geometry": {"type": "Point", "coordinates": [-89.057331, 30.4821045]}}
{"type": "Feature", "properties": {"id": "", "unit": "", "number": "13458", "street": "ADDISON AVE", "city": "Gulfport", "district": "", "region": "MS", "postcode": "39503", "hash": "34444b6c9609f1c0"}, "geometry": {"type": "Point", "coordinates": [-89.0574779, 30.4821932]}}
{"type": "Feature", "properties": {"id": "", "unit": "A", "number": "1274", "street": "CENTURY OAKS DR", "city": "Gulfport", "district": "", "region": "MS", "postcode": "39507", "hash": "4b6493e25986d3c4"}, "geometry": {"type": "Point", "coordinates": [-89.0286808, 30.3851958]}}
{"type": "Feature", "properties": {"id": "", "unit": "B", "number": "1274", "street": "CENTURY OAKS DR", "city": "Gulfport", "district": "", "region": "MS", "postcode": "39507", "hash": "bc5f36d37afdef28"}, "geometry": {"type": "Point", "coordinates": [-89.028626, 30.3852106]}}
{"type": "Feature", "properties": {"id": "", "unit": "A", "number": "1276", "street": "CENTURY OAKS DR", "city": "Gulfport", "district": "", "region": "MS", "postcode": "39507", "hash": "869b1291c5b0b146"}, "geometry": {"type": "Point", "coordinates": [-89.0284725, 30.3852225]}}
{"type": "Feature", "properties": {"id": "", "unit": "B", "number": "1276", "street": "CENTURY OAKS DR", "city": "Gulfport", "district": "", "region": "MS", "postcode": "39507", "hash": "309bdbfc9d296e1b"}, "geometry": {"type": "Point", "coordinates": [-89.028449, 30.3852645]}}
{"type": "Feature", "properties": {"id": "", "unit": "A", "number": "1283", "street": "CENTURY OAKS DR", "city": "Gulfport", "district": "", "region": "MS", "postcode": "39507", "hash": "044cdd12366d0eed"}, "geometry": {"type": "Point", "coordinates": [-89.0285116, 30.3859641]}}
{"type": "Feature", "properties": {"id": "", "unit": "B", "number": "1283", "street": "CENTURY OAKS DR", "city": "Gulfport", "district": "", "region": "MS", "postcode": "39507", "hash": "2b47931369fa93b0"}, "geometry": {"type": "Point", "coordinates": [-89.0284434, 30.3859768]}}
{"type": "Feature", "properties": {"id": "", "unit": "C", "number": "1283", "street": "CENTURY OAKS DR", "city": "Gulfport", "district": "", "region": "MS", "postcode": "39507", "hash": "dc4729fe03d52c3e"}, "geometry": {"type": "Point", "coordinates": [-89.0283874, 30.3859854]}}
{"type": "Feature", "properties": {"id": "", "unit": "D", "number": "1283", "street": "CENTURY OAKS DR", "city": "Gulfport", "district": "", "region": "MS", "postcode": "39507", "hash": "d2f0b563cbbccf45"}, "geometry": {"type": "Point", "coordinates": [-89.0283527, 30.3860062]}}
{"type": "Feature", "properties": {"id": "", "unit": "A", "number": "1285", "street": "CENTURY OAKS DR", "city": "Gulfport", "district": "", "region": "MS", "postcode": "39507", "hash": "a6aa2fc31f18adea"}, "geometry": {"type": "Point", "coordinates": [-89.0282162, 30.386035]}}
{"type": "Feature", "properties": {"id": "", "unit": "B", "number": "1285", "street": "CENTURY OAKS DR", "city": "Gulfport", "district": "", "region": "MS", "postcode": "39507", "hash": "be9a69d050058352"}, "geometry": {"type": "Point", "coordinates": [-89.0282021, 30.3859687]}}
{"type": "Feature", "properties": {"id": "", "unit": "A", "number": "1287", "street": "CENTURY OAKS DR", "city": "Gulfport", "district": "", "region": "MS", "postcode": "39507", "hash": "218cd663fe4ff981"}, "geometry": {"type": "Point", "coordinates": [-89.0281854, 30.3858203]}}
{"type": "Feature", "properties": {"id": "", "unit": "B", "number": "1287", "street": "CENTURY OAKS DR", "city": "Gulfport", "district": "", "region": "MS", "postcode": "39507", "hash": "53ba2c110b21a48e"}, "geometry": {"type": "Point", "coordinates": [-89.0281964, 30.385858]}}
{"type": "Feature", "properties": {"hash": "d7040b60830c2e78", "number": "5625", "street": "REILLY RD", "unit": "", "city": "OCEAN SPRINGS", "district": "", "region": "MS", "postcode": "39564", "id": ""}, "geometry": {"type": "Point", "coordinates": [-88.7495316, 30.4231065]}}
{"type": "Feature", "properties": {"hash": "a134d1a906c2dc1c", "number": "8604", "street": "OLD CCC CAMP RD", "unit": "", "city": "OCEAN SPRINGS", "district": "", "region": "MS", "postcode": "39564", "id": ""}, "geometry": {"type": "Point", "coordinates": [-88.7526968, 30.4226645]}}
{"type": "Feature", "properties": {"hash": "b95b3ec9921f0fe7", "number": "8612", "street": "OLD CCC CAMP RD", "unit": "", "city": "OCEAN SPRINGS", "district": "", "region": "MS", "postcode": "39564", "id": ""}, "geometry": {"type": "Point", "coordinates": [-88.7535226, 30.4213219]}}
{"type": "Feature", "properties": {"hash": "dc8d1ba4a45cc0d2", "number": "8616", "street": "OLD CCC CAMP RD", "unit": "", "city": "OCEAN SPRINGS", "district": "", "region": "MS", "postcode": "39564", "id": ""}, "geometry": {"type": "Point", "coordinates": [-88.7537887, 30.4212418]}}
{"type": "Feature", "properties": {"hash": "c04a8c83a9f2ac34", "number": "8700", "street": "OLD CCC CAMP RD", "unit": "", "city": "OCEAN SPRINGS", "district": "", "region": "MS", "postcode": "39564", "id": ""}, "geometry": {"type": "Point", "coordinates": [-88.7543041, 30.4213586]}}
{"type": "Feature", "properties": {"hash": "01f0d260f4815043", "number": "8708", "street": "OLD CCC CAMP RD", "unit": "", "city": "OCEAN SPRINGS", "district": "", "region": "MS", "postcode": "39564", "id": ""}, "geometry": {"type": "Point", "coordinates": [-88.7552091, 30.4212648]}}
{"type": "Feature", "properties": {"hash": "68df9582f11b40cc", "number": "0", "street": "OLD CCC CAMP RD", "unit": "", "city": "OCEAN SPRINGS", "district": "", "region": "MS", "postcode": "39564", "id": ""}, "geometry": {"type": "Point", "coordinates": [-88.7563515, 30.4211641]}}
{"type": "Feature", "properties": {"hash": "80dca7c3af5da5e1", "number": "8808", "street": "OLD CCC CAMP RD", "unit": "", "city": "OCEAN SPRINGS", "district": "", "region": "MS", "postcode": "39564", "id": ""}, "geometry": {"type": "Point", "coordinates": [-88.7566481, 30.4217195]}}
{"type": "Feature", "properties": {"hash": "106deff34d5db83c", "number": "8812", "street": "OLD CCC CAMP RD", "unit": "", "city": "OCEAN SPRINGS", "district": "", "region": "MS", "postcode": "39564", "id": ""}, "geometry": {"type": "Point", "coordinates": [-88.7571985, 30.4216556]}}
{"type": "Feature", "properties": {"hash": "39db659df6fe2574", "number": "8900", "street": "OLD CCC CAMP RD", "unit": "", "city": "OCEAN SPRINGS", "district": "", "region": "MS", "postcode": "39564", "id": ""}, "geometry": {"type": "Point", "coordinates": [-88.7577456, 30.4216174]}}
{"type": "Feature", "properties": {"hash": "90cbd68d616298ec", "number": "8904", "street": "OLD CCC CAMP RD", "unit": "", "city": "OCEAN SPRINGS", "district": "", "region": "MS", "postcode": "39564", "id": ""}, "geometry": {"type": "Point", "coordinates": [-88.7580741, 30.4212775]}}
{"type": "Feature", "properties": {"hash": "ea129ccf950c3ac6", "number": "8913", "street": "OLD CCC CAMP RD", "unit": "", "city": "OCEAN SPRINGS", "district": "", "region": "MS", "postcode": "39564", "id": ""}, "geometry": {"type": "Point", "coordinates": [-88.7587336, 30.4213939]}}
{"type": "Feature", "properties": {"hash": "6a75b225acc7eb5b", "number": "8916", "street": "OLD CCC CAMP RD", "unit": "", "city": "OCEAN SPRINGS", "district": "", "region": "MS", "postcode": "39564", "id": ""}, "geometry": {"type": "Point", "coordinates": [-88.7592874, 30.4213388]}}
{"type": "Feature", "properties": {"hash": "c2b7ea71171ba6b4", "number": "9013", "street": "OCEAN SPRINGS RD", "unit": "", "city": "OCEAN SPRINGS", "district": "", "region": "MS", "postcode": "39564", "id": ""}, "geometry": {"type": "Point", "coordinates": [-88.7598991, 30.4214369]}}
{"type": "Feature", "properties": {"hash": "572c317d175bbba2", "number": "5320", "street": "DEANA RD", "unit": "", "city": "OCEAN SPRINGS", "district": "", "region": "MS", "postcode": "39564", "id": ""}, "geometry": {"type": "Point", "coordinates": [-88.7633943, 30.4190905]}}
{"type": "Feature", "properties": {"hash": "fb6e188d8c1bebec", "number": "0", "street": "DEANA RD", "unit": "", "city": "OCEAN SPRINGS", "district": "", "region": "MS", "postcode": "39564", "id": ""}, "geometry": {"type": "Point", "coordinates": [-88.7630944, 30.4191352]}}
{"type": "Feature", "properties": {"hash": "6126e72d7fc576ea", "number": "5400", "street": "DEANA RD", "unit": "", "city": "OCEAN SPRINGS", "district": "", "region": "MS", "postcode": "39564", "id": ""}, "geometry": {"type": "Point", "coordinates": [-88.762762, 30.4192307]}}
{"type": "Feature", "properties": {"hash": "76110e158fe8bda4", "number": "9200", "street": "OCEAN SPRINGS RD", "unit": "", "city": "OCEAN SPRINGS", "district": "", "region": "MS", "postcode": "39566", "id": ""}, "geometry": {"type": "Point", "coordinates": [-88.7624065, 30.4205519]}}
{"type": "Feature", "properties": {"hash": "e17b83a63ee8d39a", "number": "9208", "street": "OCEAN SPRINGS RD", "unit": "", "city": "OCEAN SPRINGS", "district": "", "region": "MS", "postcode": "39564", "id": ""}, "geometry": {"type": "Point", "coordinates": [-88.7629006, 30.4202344]}}
{"type": "Feature", "properties": {"hash": "d9dc8b38a22df774", "number": "5412", "street": "DEANA RD", "unit": "", "city": "OCEAN SPRINGS", "district": "", "region": "MS", "postcode": "39564", "id": ""}, "geometry": {"type": "Point", "coordinates": [-88.763549, 30.4199141]}}
{"type": "Feature", "properties": {"hash": "05dc6de8b9756693", "number": "9117", "street": "OCEAN SPRINGS RD", "unit": "", "city": "OCEAN SPRINGS", "district": "", "region": "MS", "postcode": "39564", "id": ""}, "geometry": {"type": "Point", "coordinates": [-88.7620474, 30.4206588]}}
{"type": "Feature", "properties": {"hash": "b44590ba9c264e63", "number": "0", "street": "OCEAN SPRINGS RD", "unit": "", "city": "OCEAN SPRINGS", "district": "", "region": "MS", "postcode": "39564", "id": ""}, "geometry": {"type": "Point", "coordinates": [-88.7656363, 30.4193723]}}
{"type": "Feature", "properties": {"hash": "435d9e66463e9467", "number": "9400", "street": "OCEAN SPRINGS RD", "unit": "", "city": "OCEAN SPRINGS", "district": "", "region": "MS", "postcode": "39564", "id": ""}, "geometry": {"type": "Point", "coordinates": [-88.7653297, 30.4194871]}}
{"type": "Feature", "properties": {"hash": "732a8e4849db6129", "number": "9312", "street": "OCEAN SPRINGS RD", "unit": "", "city": "OCEAN SPRINGS", "district": "", "region": "MS", "postcode": "39564", "id": ""}, "geometry": {"type": "Point", "coordinates": [-88.7650518, 30.4196031]}}
{"type": "Feature", "properties": {"hash": "f366521e2fb1bba7", "number": "5417", "street": "DEANA RD", "unit": "", "city": "OCEAN SPRINGS", "district": "", "region": "MS", "postcode": "39564", "id": ""}, "geometry": {"type": "Point", "coordinates": [-88.7641443, 30.4199272]}}
{"type": "Feature", "properties": {"hash": "b4e294278b825abd", "number": "437", "street": "MULLICAN RD", "unit": "", "city": "FLORENCE", "district": "", "region": "MS", "postcode": "39073", "id": ""}, "geometry": {"type": "Point", "coordinates": [-90.246397, 32.0316795]}}
{"type": "Feature", "properties": {"hash": "4b06e2fc436c686b", "number": "1534", "street": "OLD PEARL RD", "unit": "", "city": "FLORENCE", "district": "", "region": "MS", "postcode": "39073", "id": ""}, "geometry": {"type": "Point", "coordinates": [-90.1758596, 32.0417836]}}
{"type": "Feature", "properties": {"hash": "ce5e011c5233c282", "number": "1725", "street": "OLD PEARL RD.", "unit": "", "city": "FLORENCE", "district": "", "region": "MS", "postcode": "39073", "id": ""}, "geometry": {"type": "Point", "coordinates": [-90.1669687, 32.0465624]}}
{"type": "Feature", "properties": {"hash": "8e64a960326c6788", "number": "1649", "street": "OLD PEARL RD", "unit": "", "city": "FLORENCE", "district": "", "region": "MS", "postcode": "39073", "id": ""}, "geometry": {"type": "Point", "coordinates": [-90.17133, 32.044928]}}
{"type": "Feature", "properties": {"hash": "c6376679bd338a85", "number": "118", "street": "DEAR FIELD DR", "unit": "", "city": "FLORENCE", "district": "", "region": "MS", "postcode": "39073", "id": ""}, "geometry": {"type": "Point", "coordinates": [-90.1716988, 32.0433601]}}
{"type": "Feature", "properties": {"hash": "d50399683e42d5aa", "number": "1640", "street": "OLD PEARL RD.", "unit": "", "city": "FLORENCE", "district": "", "region": "MS", "postcode": "39073", "id": ""}, "geometry": {"type": "Point", "coordinates": [-90.1725391, 32.0368046]}}
{"type": "Feature", "properties": {"hash": "7c42719b0c17b653", "number": "338", "street": "HANCOCK RD.", "unit": "", "city": "FLORENCE", "district": "", "region": "MS", "postcode": "39073", "id": ""}, "geometry": {"type": "Point", "coordinates": [-90.1611555, 32.0396295]}}
{"type": "Feature", "properties": {"hash": "0d32cc041548b93b", "number": "1669", "street": "OLD PEARL RD.", "unit": "", "city": "FLORENCE", "district": "", "region": "MS", "postcode": "39073", "id": ""}, "geometry": {"type": "Point", "coordinates": [-90.168453, 32.0393132]}}
{"type": "Feature", "properties": {"hash": "a91a53aa2edb4997", "number": "1640", "street": "OLD PEARL RD.", "unit": "", "city": "FLORENCE", "district": "", "region": "MS", "postcode": "39073", "id": ""}, "geometry": {"type": "Point", "coordinates": [-90.1748879, 32.0368152]}}
{"type": "Feature", "properties": {"hash": "703c3fcd6f78c0f8", "number": "1534", "street": "OLD PEARL RD", "unit": "", "city": "FLORENCE", "district": "", "region": "MS", "postcode": "39073", "id": ""}, "geometry": {"type": "Point", "coordinates": [-90.1743573, 32.0432072]}}
{"type": "Feature", "properties": {"hash": "470e2dfbf1f8c3ed", "number": "402", "street": "ROSES BLUFF DR", "unit": "", "city": "MADISON", "district": "", "region": "MS", "postcode": "39110", "id": ""}, "geometry": {"type": "Point", "coordinates": [-90.1740582, 32.0478549]}}
{"type": "Feature", "properties": {"hash": "342821c8f2ffb72b", "number": "1640", "street": "OLD PEARL RD", "unit": "", "city": "FLORENCE", "district": "", "region": "MS", "postcode": "39073", "id": ""}, "geometry": {"type": "Point", "coordinates": [-90.1720795, 32.0440848]}}
{"type": "Feature", "properties": {"hash": "f73fa8d6d16c1ea2", "number": "1652", "street": "OLD PEARL RD.", "unit": "", "city": "FLORENCE", "district": "", "region": "MS", "postcode": "39073", "id": ""}, "geometry": {"type": "Point", "coordinates": [-90.1713372, 32.0440116]}}
{"type": "Feature", "properties": {"hash": "1bfd878ea72031e2", "number": "1668", "street": "OLD PEARL RD", "unit": "", "city": "FLORENCE", "district": "", "region": "MS", "postcode": "39073", "id": ""}, "geometry": {"type": "Point", "coordinates": [-90.1700849, 32.0431638]}}
{"type": "Feature", "properties": {"hash": "7898d5ba18c35928", "number": "1737", "street": "OLD PEARL RD", "unit": "", "city": "FLORENCE", "district": "", "region": "MS", "postcode": "39073", "id": ""}, "geometry": {"type": "Point", "coordinates": [-90.1646799, 32.0476804]}}
{"type": "Feature", "properties": {"hash": "905fcfcb4efae1e1", "number": "300", "street": "W COUNTYLINE RD", "unit": "", "city": "FLORENCE", "district": "", "region": "MS", "postcode": "39073", "id": ""}, "geometry": {"type": "Point", "coordinates": [-90.1629611, 32.0482672]}}
{"type": "Feature", "properties": {"hash": "a7b2ee6a97d7c805", "number": "338", "street": "HANCOCK RD.", "unit": "", "city": "FLORENCE", "district": "", "region": "MS", "postcode": "39073", "id": ""}, "geometry": {"type": "Point", "coordinates": [-90.161239, 32.0451192]}}
{"type": "Feature", "properties": {"hash": "2086992d22c20f9f", "number": "203", "street": "HICKORY CIRCLE", "unit": "", "city": "PEARL", "district": "", "region": "MS", "postcode": "39208", "id": ""}, "geometry": {"type": "Point", "coordinates": [-90.1602673, 32.0474798]}}
{"type": "Feature", "properties": {"hash": "d765954a7b8f1a66", "number": "300", "street": "W COUNTYLINE RD", "unit": "", "city": "FLORENCE", "district": "", "region": "MS", "postcode": "39073", "id": ""}, "geometry": {"type": "Point", "coordinates": [-90.1595239, 32.0477072]}}
{"type": "Feature", "properties": {"hash": "5d309aa40608a8bc", "number": "338", "street": "HANCOCK RD.", "unit": "", "city": "FLORENCE", "district": "", "region": "MS", "postcode": "39073", "id": ""}, "geometry": {"type": "Point", "coordinates": [-90.1580666, 32.0451115]}}
{"type": "Feature", "properties": {"hash": "bd5e786967cd594d", "number": "1534", "street": "OLD PEARL RD", "unit": "", "city": "FLORENCE", "district": "", "region": "MS", "postcode": "39073", "id": ""}, "geometry": {"type": "Point", "coordinates": [-90.1581084, 32.0477141]}}
{"type": "Feature", "properties": {"hash": "ea4ad888e3fe219f", "number": "1894", "street": "OLD PEARL RD", "unit": "", "city": "FLORENCE", "district": "", "region": "MS", "postcode": "39073", "id": ""}, "geometry": {"type": "Point", "coordinates": [-90.1531435, 32.0488584]}}
{"type": "Feature", "properties": {"hash": "19af890fe17b2d9f", "number": "1534", "street": "OLD PEARL RD", "unit": "", "city": "FLORENCE", "district": "", "region": "MS", "postcode": "39073", "id": ""}, "geometry": {"type": "Point", "coordinates": [-90.1521767, 32.0479653]}}
{"type": "Feature", "properties": {"hash": "77c1b1ba75a36adb", "number": "338", "street": "HANCOCK RD.", "unit": "", "city": "FLORENCE", "district": "", "region": "MS", "postcode": "39073", "id": ""}, "geometry": {"type": "Point", "coordinates": [-90.1537869, 32.0455021]}}
{"type": "Feature", "properties": {"hash": "01d3d711ddbf562f", "number": "122", "street": "EVERGREEN DR", "unit": "", "city": "BRANDON", "district": "", "region": "MS", "postcode": "39042", "id": ""}, "geometry": {"type": "Point", "coordinates": [-90.1441302, 32.0441817]}}
