{"type": "Feature", "properties": {"id": "150743", "unit": "", "number": "4548", "street": "HASSELL CORBETT RD", "city": "BURLINGTON", "district": "ALAMANCE", "region": "NC", "postcode": "27217", "hash": "69263640faa00e62"}, "geometry": {"type": "Point", "coordinates": [-79.3825221, 36.2011191]}}
{"type": "Feature", "properties": {"id": "169802", "unit": "", "number": "6157", "street": "N NC 119 HWY", "city": "BURLINGTON", "district": "ALAMANCE", "region": "NC", "postcode": "27217", "hash": "375ff5e5379ddf05"}, "geometry": {"type": "Point", "coordinates": [-79.2969173, 36.2444756]}}
{"type": "Feature", "properties": {"id": "155532", "unit": "", "number": "2428", "street": "FOXFIRE LN", "city": "BURLINGTON", "district": "ALAMANCE", "region": "NC", "postcode": "27217", "hash": "371d27339a840c8a"}, "geometry": {"type": "Point", "coordinates": [-79.3380152, 36.1696896]}}
{"type": "Feature", "properties": {"id": "150535", "unit": "", "number": "651", "street": "MCCRAY RD", "city": "BURLINGTON", "district": "ALAMANCE", "region": "NC", "postcode": "27217", "hash": "1ad117a9032fb531"}, "geometry": {"type": "Point", "coordinates": [-79.3891148, 36.1785602]}}
{"type": "Feature", "properties": {"id": "150506", "unit": "", "number": "438", "street": "MCCRAY RD", "city": "BURLINGTON", "district": "ALAMANCE", "region": "NC", "postcode": "27217", "hash": "c2a2001f030728ad"}, "geometry": {"type": "Point", "coordinates": [-79.3908313, 36.184677]}}
{"type": "Feature", "properties": {"id": "150488", "unit": "", "number": "417", "street": "MCCRAY RD", "city": "BURLINGTON", "district": "ALAMANCE", "region": "NC", "postcode": "27217", "hash": "f9d4358adf8f37e5"}, "geometry": {"type": "Point", "coordinates": [-79.393045, 36.1850976]}}
{"type": "Feature", "properties": {"id": "150486", "unit": "", "number": "467", "street": "MCCRAY RD", "city": "BURLINGTON", "district": "ALAMANCE", "region": "NC", "postcode": "27217", "hash": "5b22054f2790eebe"}, "geometry": {"type": "Point", "coordinates": [-79.3922009, 36.1832112]}}
{"type": "Feature", "properties": {"hash": "145f5051828b2871", "number": "1237", "street": "CHURCH ST NW", "unit": "", "city": "Valdese", "district": "BURKE", "region": "NC", "postcode": "28690", "id": ""}, "geometry": {"type": "Point", "coordinates": [-81.56791, 35.7590976]}}
{"type": "Feature", "properties": {"hash": "3bc2c00bdd52e43a", "number": "211", "street": "TOWNSEND ST SE", "unit": "", "city": "Valdese", "district": "BURKE", "region": "NC", "postcode": "28690", "id": ""}, "geometry": {"type": "Point", "coordinates": [-81.5296121, 35.7386959]}}
{"type": "Feature", "properties": {"hash": "40b03fec852de050", "number": "1400", "street": "FALLS RD NW", "unit": "", "city": "Valdese", "district": "BURKE", "region": "NC", "postcode": "28690", "id": ""}, "geometry": {"type": "Point", "coordinates": [-81.5695624, 35.764208]}}
{"type": "Feature", "properties": {"hash": "2a341cb00b9c630f", "number": "370", "street": "LOVELADY RD", "unit": "", "city": "Connelly Springs", "district": "BURKE", "region": "NC", "postcode": "28612", "id": ""}, "geometry": {"type": "Point", "coordinates": [-81.5404255, 35.7615586]}}
{"type": "Feature", "properties": {"hash": "97259b1af9c4971e", "number": "1831", "street": "US 70  E", "unit": "", "city": "Morganton", "district": "BURKE", "region": "NC", "postcode": "28655", "id": ""}, "geometry": {"type": "Point", "coordinates": [-81.6461346, 35.753489]}}
{"type": "Feature", "properties": {"hash": "113faa2714a3840e", "number": "1000", "street": "PERKINS RD SE", "unit": "", "city": "Valdese", "district": "BURKE", "region": "NC", "postcode": "28690", "id": ""}, "geometry": {"type": "Point", "coordinates": [-81.5296568, 35.7363775]}}
{"type": "Feature", "properties": {"hash": "20ca0abd7f5f92b5", "number": "101", "street": "US 70", "unit": "", "city": "Valdese", "district": "BURKE", "region": "NC", "postcode": "28690", "id": ""}, "geometry": {"type": "Point", "coordinates": [-81.5294181, 35.7400006]}}
{"type": "Feature", "properties": {"hash": "9713b48b794d2d42", "number": "1", "street": "BUFFALO AVE NW", "unit": "", "city": "CONCORD", "district": "", "region": "NC", "postcode": "28025", "id": ""}, "geometry": {"type": "Point", "coordinates": [-80.5896109, 35.4181041]}}
{"type": "Feature", "properties": {"hash": "954c857f04ef7ac9", "number": "1", "street": "CARPENTER CT NW", "unit": "500", "city": "CONCORD", "district": "", "region": "NC", "postcode": "28027", "id": ""}, "geometry": {"type": "Point", "coordinates": [-80.6693123, 35.3659905]}}
{"type": "Feature", "properties": {"hash": "32c4668240536c41", "number": "1", "street": "CONCORD COMMONS PL SW", "unit": "", "city": "CONCORD", "district": "", "region": "NC", "postcode": "28027", "id": ""}, "geometry": {"type": "Point", "coordinates": [-80.6246914, 35.3906175]}}
{"type": "Feature", "properties": {"hash": "60ec125f4a253db9", "number": "1", "street": "HICKORY ST SW", "unit": "", "city": "CONCORD", "district": "", "region": "NC", "postcode": "28027", "id": ""}, "geometry": {"type": "Point", "coordinates": [-80.59361, 35.3826854]}}
{"type": "Feature", "properties": {"hash": "819a75930d3deb7b", "number": "1", "street": "KEPLEY PL NW", "unit": "", "city": "CONCORD", "district": "", "region": "NC", "postcode": "28027", "id": ""}, "geometry": {"type": "Point", "coordinates": [-80.6230362, 35.4156772]}}
{"type": "Feature", "properties": {"hash": "f07d178c84bc5bc9", "number": "1", "street": "TARRYMORE LN SW", "unit": "", "city": "CONCORD", "district": "", "region": "NC", "postcode": "28027", "id": ""}, "geometry": {"type": "Point", "coordinates": [-80.6020113, 35.3719825]}}
{"type": "Feature", "properties": {"hash": "205f3581a79ef0e4", "number": "1", "street": "TOWER CIR NW", "unit": "", "city": "CONCORD", "district": "", "region": "NC", "postcode": "28027", "id": ""}, "geometry": {"type": "Point", "coordinates": [-80.6056768, 35.4115672]}}
{"type": "Feature", "properties": {"hash": "2543a8ce46142136", "number": "2306", "street": "FORT MACON", "unit": "", "city": "ATLANTIC BEACH", "district": "CARTERET", "region": "NC", "postcode": "28512", "id": ""}, "geometry": {"type": "Point", "coordinates": [-76.6807275, 34.694795]}}
{"type": "Feature", "properties": {"hash": "7adff2c5e34e4c6e", "number": "2291", "street": "FORT MACON", "unit": "", "city": "ATLANTIC BEACH", "district": "CARTERET", "region": "NC", "postcode": "28512", "id": ""}, "geometry": {"type": "Point", "coordinates": [-76.6813942, 34.6961086]}}
{"type": "Feature", "properties": {"hash": "605282e45c38d872", "number": "100", "street": "SHORELINE", "unit": "", "city": "ATLANTIC BEACH", "district": "CARTERET", "region": "NC", "postcode": "28512", "id": ""}, "geometry": {"type": "Point", "coordinates": [-76.7814951, 34.7037959]}}
{"type": "Feature", "properties": {"hash": "5380ca9a13ecd296", "number": "102", "street": "SHORELINE", "unit": "", "city": "ATLANTIC BEACH", "district": "CARTERET", "region": "NC", "postcode": "28512", "id": ""}, "geometry": {"type": "Point", "coordinates": [-76.7817589, 34.7036774]}}
{"type": "Feature", "properties": {"hash": "be34e0521b0dd233", "number": "104", "street": "SHORELINE", "unit": "", "city": "ATLANTIC BEACH", "district": "CARTERET", "region": "NC", "postcode": "28512", "id": ""}, "geometry": {"type": "Point", "coordinates": [-76.7820165, 34.7038055]}}
{"type": "Feature", "properties": {"hash": "43b6dc593b8adf35", "number": "200", "street": "SHORELINE", "unit": "", "city": "ATLANTIC BEACH", "district": "CARTERET", "region": "NC", "postcode": "28512", "id": ""}, "geometry": {"type": "Point", "coordinates": [-76.7822689, 34.7036832]}}
{"type": "Feature", "properties": {"hash": "9861671bf2387d26", "number": "202", "street": "SHORELINE", "unit": "", "city": "ATLANTIC BEACH", "district": "CARTERET", "region": "NC", "postcode": "28512", "id": ""}, "geometry": {"type": "Point", "coordinates": [-76.7825664, 34.7035931]}}
{"type": "Feature", "properties": {"id": "", "unit": "", "number": "1607", "street": "SWORDFISH LN", "city": "CB", "district": "", "region": "NC", "postcode": "28428", "hash": "3c8e4aa9793add5a"}, "geometry": {"type": "Point", "coordinates": [-77.9021358, 34.0155779]}}
{"type": "Feature", "properties": {"id": "", "unit": "", "number": "302", "street": "CANAL DR", "city": "CB", "district": "", "region": "NC", "postcode": "28428", "hash": "e25b7f381808e5c5"}, "geometry": {"type": "Point", "coordinates": [-77.8916177, 34.0369268]}}
{"type": "Feature", "properties": {"id": "", "unit": "", "number": "319", "street": "N CAROLINA BEACH AVE", "city": "CB", "district": "", "region": "NC", "postcode": "28428", "hash": "96670a7f69aff693"}, "geometry": {"type": "Point", "coordinates": [-77.8906239, 34.0377209]}}
{"type": "Feature", "properties": {"id": "", "unit": "", "number": "415", "street": "CANAL DR", "city": "CB", "district": "", "region": "NC", "postcode": "28428", "hash": "851d76d114f12285"}, "geometry": {"type": "Point", "coordinates": [-77.891342, 34.039135]}}
{"type": "Feature", "properties": {"id": "", "unit": "", "number": "413", "street": "CANAL DR", "city": "CB", "district": "", "region": "NC", "postcode": "28428", "hash": "8042074eb39778f6"}, "geometry": {"type": "Point", "coordinates": [-77.8913783, 34.0390012]}}
{"type": "Feature", "properties": {"id": "", "unit": "", "number": "715", "street": "CANAL DR", "city": "CB", "district": "", "region": "NC", "postcode": "28428", "hash": "b9512938faa21373"}, "geometry": {"type": "Point", "coordinates": [-77.889545, 34.0432122]}}
{"type": "Feature", "properties": {"id": "", "unit": "", "number": "801", "street": "CANAL DR", "city": "CB", "district": "", "region": "NC", "postcode": "28428", "hash": "57a9158c72ca9b18"}, "geometry": {"type": "Point", "coordinates": [-77.8893494, 34.0436916]}}
{"type": "Feature", "properties": {"id": "", "unit": "", "number": "225", "street": "HARREL ST", "city": "SALISBURY", "district": "", "region": "NC", "postcode": "28144", "hash": "3fbe21ceda6b32fe"}, "geometry": {"type": "Point", "coordinates": [-80.4691561, 35.6521378]}}
{"type": "Feature", "properties": {"id": "", "unit": "", "number": "2715", "street": "STATESVILLE BLVD", "city": "SALISBURY", "district": "", "region": "NC", "postcode": "28147", "hash": "e8cee5f902375498"}, "geometry": {"type": "Point", "coordinates": [-80.5370995, 35.7004319]}}
{"type": "Feature", "properties": {"id": "", "unit": "APT 110", "number": "2715", "street": "STATESVILLE BLVD", "city": "SALISBURY", "district": "", "region": "NC", "postcode": "28147", "hash": "81b3570ea00aafc8"}, "geometry": {"type": "Point", "coordinates": [-80.5366172, 35.7004909]}}
{"type": "Feature", "properties": {"id": "", "unit": "APT 111", "number": "2715", "street": "STATESVILLE BLVD", "city": "SALISBURY", "district": "", "region": "NC", "postcode": "28147", "hash": "19dbfd61d93e9ed8"}, "geometry": {"type": "Point", "coordinates": [-80.5364968, 35.7004314]}}
{"type": "Feature", "properties": {"id": "", "unit": "", "number": "103", "street": "LANCELOT RD", "city": "SALISBURY", "district": "", "region": "NC", "postcode": "28147", "hash": "047b858be94823f1"}, "geometry": {"type": "Point", "coordinates": [-80.5427401, 35.6378204]}}
{"type": "Feature", "properties": {"id": "", "unit": "", "number": "104", "street": "PEARL ST", "city": "SALISBURY", "district": "", "region": "NC", "postcode": "28146", "hash": "7a0dc26f54672fa9"}, "geometry": {"type": "Point", "coordinates": [-80.4659, 35.6396619]}}
{"type": "Feature", "properties": {"id": "", "unit": "", "number": "1002", "street": "FRANKS DR", "city": "SALISBURY", "district": "", "region": "NC", "postcode": "28147", "hash": "98246a9de68aef1e"}, "geometry": {"type": "Point", "coordinates": [-80.5261939, 35.6296045]}}
{"type": "Feature", "properties": {"id": "", "unit": "", "number": "4699", "street": "UZZLE RD", "city": "ROUGEMONT", "district": "", "region": "NC", "postcode": "27572", "hash": "df1f447cd137c54d"}, "geometry": {"type": "Point", "coordinates": [-78.7871513, 36.2710047]}}
{"type": "Feature", "properties": {"id": "", "unit": "", "number": "1159", "street": "SMITH CREEK WAY", "city": "WAKE FOREST", "district": "", "region": "NC", "postcode": "27587", "hash": "cd520109d6da4c2f"}, "geometry": {"type": "Point", "coordinates": [-78.5829021, 36.078637]}}
{"type": "Feature", "properties": {"id": "", "unit": "", "number": "1174", "street": "SMITH CREEK WAY", "city": "WAKE FOREST", "district": "", "region": "NC", "postcode": "27587", "hash": "11593e0e39687661"}, "geometry": {"type": "Point", "coordinates": [-78.5846914, 36.0811856]}}
{"type": "Feature", "properties": {"id": "", "unit": "", "number": "1175", "street": "SMITH CREEK WAY", "city": "WAKE FOREST", "district": "", "region": "NC", "postcode": "27587", "hash": "1571eadbed87e519"}, "geometry": {"type": "Point", "coordinates": [-78.5853604, 36.0807623]}}
{"type": "Feature", "properties": {"id": "", "unit": "", "number": "1173", "street": "SMITH CREEK WAY", "city": "WAKE FOREST", "district": "", "region": "NC", "postcode": "27587", "hash": "e15507e5eb07fef4"}, "geometry": {"type": "Point", "coordinates": [-78.5850805, 36.0805814]}}
{"type": "Feature", "properties": {"id": "", "unit": "", "number": "1171", "street": "SMITH CREEK WAY", "city": "WAKE FOREST", "district": "", "region": "NC", "postcode": "27587", "hash": "754c5551923497f7"}, "geometry": {"type": "Point", "coordinates": [-78.5846196, 36.0802595]}}
{"type": "Feature", "properties": {"id": "", "unit": "", "number": "1167", "street": "SMITH CREEK WAY", "city": "WAKE FOREST", "district": "", "region": "NC", "postcode": "27587", "hash": "28c1119879f705e9"}, "geometry": {"type": "Point", "coordinates": [-78.5842829, 36.0799262]}}
{"type": "Feature", "properties": {"id": "", "unit": "", "number": "4677", "street": "CHAPEL RIDGE DR", "city": "PCTYGR", "district": "", "region": "NC", "postcode": "27405", "hash": "d810b70ba6a170be"}, "geometry": {"type": "Point", "coordinates": [-79.7640512, 36.1418192]}}
{"type": "Feature", "properties": {"id": "", "unit": "", "number": "1737", "street": "MIRABEAU CT", "city": "PCTYHP", "district": "", "region": "NC", "postcode": "27265", "hash": "cfa099f169ee0009"}, "geometry": {"type": "Point", "coordinates": [-80.0110425, 36.0171039]}}
{"type": "Feature", "properties": {"id": "", "unit": "", "number": "1987", "street": "WHEELER BRIDGE RD", "city": "PCTYBU", "district": "", "region": "NC", "postcode": "27215", "hash": "f9eab0124525841a"}, "geometry": {"type": "Point", "coordinates": [-79.5487278, 36.0279245]}}
{"type": "Feature", "properties": {"id": "", "unit": "", "number": "3066", "street": "RENAISSANCE PKWY", "city": "PCTYJA", "district": "", "region": "NC", "postcode": "27282", "hash": "97d5dd7b6791e979"}, "geometry": {"type": "Point", "coordinates": [-79.9186727, 36.019066]}}
{"type": "Feature", "properties": {"id": "", "unit": "", "number": "3055", "street": "RENAISSANCE PKWY", "city": "PCTYJA", "district": "", "region": "NC", "postcode": "27282", "hash": "2fa0cd96e537d014"}, "geometry": {"type": "Point", "coordinates": [-79.9180216, 36.0200071]}}
{"type": "Feature", "properties": {"id": "", "unit": "", "number": "803", "street": "JARMAN DR", "city": "PCTYJA", "district": "", "region": "NC", "postcode": "27282", "hash": "ffb670187d218282"}, "geometry": {"type": "Point", "coordinates": [-79.9183187, 36.0265167]}}
{"type": "Feature", "properties": {"id": "", "unit": "", "number": "3066", "street": "RENAISSANCE PKWY", "city": "PCTYJA", "district": "", "region": "NC", "postcode": "27282", "hash": "65d4b1d4dc9ad175"}, "geometry": {"type": "Point", "coordinates": [-79.9187974, 36.0189528]}}
{"type": "Feature", "properties": {"hash": "7aeda3b164ad39cd", "number": "9753", "street": "NC 27 E", "unit": "", "city": "BENSON", "district": "", "region": "NC", "postcode": "27504", "id": "42825"}, "geometry": {"type": "Point", "coordinates": [-78.5806038, 35.3904569]}}
{"type": "Feature", "properties": {"hash": "88a62c3964e58b86", "number": "9840", "street": "NC 27 E", "unit": "", "city": "BENSON", "district": "", "region": "NC", "postcode": "27504", "id": "19691"}, "geometry": {"type": "Point", "coordinates": [-78.5792033, 35.3892177]}}
{"type": "Feature", "properties": {"hash": "ec0245be941d8a38", "number": "9829", "street": "NC 27 E", "unit": "", "city": "BENSON", "district": "", "region": "NC", "postcode": "27504", "id": "19761"}, "geometry": {"type": "Point", "coordinates": [-78.5793096, 35.3898659]}}
{"type": "Feature", "properties": {"hash": "ed980e31eae493fb", "number": "9868", "street": "NC 27 E", "unit": "", "city": "BENSON", "district": "", "region": "NC", "postcode": "27504", "id": "42826"}, "geometry": {"type": "Point", "coordinates": [-78.5786905, 35.3891741]}}
{"type": "Feature", "properties": {"hash": "d3d139834059f2ce", "number": "280", "street": "AUGER HOLE RD", "unit": "", "city": "HOLLY SPRINGS", "district": "", "region": "NC", "postcode": "27540", "id": "32883"}, "geometry": {"type": "Point", "coordinates": [-78.9170893, 35.5732505]}}
{"type": "Feature", "properties": {"hash": "534716f3224c125d", "number": "117", "street": "REX LN", "unit": "", "city": "HOLLY SPRINGS", "district": "", "region": "NC", "postcode": "27540", "id": "32555"}, "geometry": {"type": "Point", "coordinates": [-78.8903971, 35.5671806]}}
{"type": "Feature", "properties": {"hash": "f8fec37354d9b603", "number": "55", "street": "REX LN", "unit": "", "city": "HOLLY SPRINGS", "district": "", "region": "NC", "postcode": "27540", "id": "29944"}, "geometry": {"type": "Point", "coordinates": [-78.89128, 35.5678529]}}
{"type": "Feature", "properties": {"id": "1", "unit": "", "number": "127", "street": "CINNAMON WAY", "city": "FLAT ROCK", "district": "HENDERSON", "region": "NC", "postcode": "28731", "hash": "ce15a839b1f9a3e5"}, "geometry": {"type": "Point", "coordinates": [-82.4199828, 35.2647132]}}
{"type": "Feature", "properties": {"id": "2", "unit": "", "number": "117", "street": "CINNAMON WAY", "city": "FLAT ROCK", "district": "HENDERSON", "region": "NC", "postcode": "28731", "hash": "d00613989f0a8654"}, "geometry": {"type": "Point", "coordinates": [-82.4201015, 35.2659958]}}
{"type": "Feature", "properties": {"id": "3", "unit": "", "number": "115", "street": "CINNAMON WAY", "city": "FLAT ROCK", "district": "HENDERSON", "region": "NC", "postcode": "28731", "hash": "e4651a571df27f0b"}, "geometry": {"type": "Point", "coordinates": [-82.4201662, 35.266297]}}
{"type": "Feature", "properties": {"id": "4", "unit": "", "number": "204", "street": "MINT WAY", "city": "FLAT ROCK", "district": "HENDERSON", "region": "NC", "postcode": "28731", "hash": "1cbf3746ec742245"}, "geometry": {"type": "Point", "coordinates": [-82.4196363, 35.2665657]}}
{"type": "Feature", "properties": {"id": "5", "unit": "", "number": "206", "street": "MINT WAY", "city": "FLAT ROCK", "district": "HENDERSON", "region": "NC", "postcode": "28731", "hash": "9172f00642bfce00"}, "geometry": {"type": "Point", "coordinates": [-82.4194554, 35.2664115]}}
{"type": "Feature", "properties": {"id": "6", "unit": "", "number": "209", "street": "MINT WAY", "city": "FLAT ROCK", "district": "HENDERSON", "region": "NC", "postcode": "28731", "hash": "2c5899891c63b5c5"}, "geometry": {"type": "Point", "coordinates": [-82.4186035, 35.2660012]}}
{"type": "Feature", "properties": {"id": "7", "unit": "", "number": "105", "street": "CINNAMON WAY", "city": "FLAT ROCK", "district": "HENDERSON", "region": "NC", "postcode": "28731", "hash": "d93de5b02ac3b4f8"}, "geometry": {"type": "Point", "coordinates": [-82.4188873, 35.2669033]}}
{"type": "Feature", "properties": {"id": "", "unit": "", "number": "717", "street": "EDGEWOOD DR", "city": "MURFREESBORO", "district": "", "region": "NC", "postcode": "27855", "hash": "7d6a419d2f886bd2"}, "geometry": {"type": "Point", "coordinates": [-77.1052714, 36.429033]}}
{"type": "Feature", "properties": {"id": "", "unit": "", "number": "715", "street": "EDGEWOOD DR", "city": "MURFREESBORO", "district": "", "region": "NC", "postcode": "27855", "hash": "95d7f604c80e5fa7"}, "geometry": {"type": "Point", "coordinates": [-77.1048137, 36.4294206]}}
{"type": "Feature", "properties": {"id": "", "unit": "", "number": "716", "street": "EDGEWOOD DR", "city": "MURFREESBORO", "district": "", "region": "NC", "postcode": "27855", "hash": "6a56722bd6da93d1"}, "geometry": {"type": "Point", "coordinates": [-77.1058133, 36.4295132]}}
{"type": "Feature", "properties": {"id": "", "unit": "", "number": "713", "street": "EDGEWOOD DR", "city": "MURFREESBORO", "district": "", "region": "NC", "postcode": "27855", "hash": "c52dd676dd703353"}, "geometry": {"type": "Point", "coordinates": [-77.1044193, 36.4298113]}}
{"type": "Feature", "properties": {"id": "", "unit": "", "number": "714", "street": "EDGEWOOD DR", "city": "MURFREESBORO", "district": "", "region": "NC", "postcode": "27855", "hash": "8f3e7d2d01153e5a"}, "geometry": {"type": "Point", "coordinates": [-77.1053826, 36.4299301]}}
{"type": "Feature", "properties": {"id": "", "unit": "", "number": "710", "street": "EDGEWOOD DR", "city": "MURFREESBORO", "district": "", "region": "NC", "postcode": "27855", "hash": "6c39e4f162661f98"}, "geometry": {"type": "Point", "coordinates": [-77.1050292, 36.4302848]}}
{"type": "Feature", "properties": {"id": "", "unit": "", "number": "711", "street": "EDGEWOOD DR", "city": "MURFREESBORO", "district": "", "region": "NC", "postcode": "27855", "hash": "89a6e1e685ba7298"}, "geometry": {"type": "Point", "coordinates": [-77.104098, 36.4302404]}}
{"type": "Feature", "properties": {"id": "", "unit": "", "number": "4813", "street": "SUGAR MAPLE RD", "city": "SANFORD", "district": "", "region": "NC", "postcode": "27332", "hash": "024583932608efae"}, "geometry": {"type": "Point", "coordinates": [-79.222445, 35.3755418]}}
{"type": "Feature", "properties": {"id": "", "unit": "", "number": "364", "street": "MCCORMICK RD", "city": "SANFORD", "district": "", "region": "NC", "postcode": "27332", "hash": "c2228836c1d7489b"}, "geometry": {"type": "Point", "coordinates": [-79.1980506, 35.3842207]}}
{"type": "Feature", "properties": {"id": "", "unit": "", "number": "6345", "street": "SHERIFF WATSON RD", "city": "SANFORD", "district": "", "region": "NC", "postcode": "27332", "hash": "930304a73409a285"}, "geometry": {"type": "Point", "coordinates": [-79.1582603, 35.3368133]}}
{"type": "Feature", "properties": {"id": "", "unit": "", "number": "320", "street": "LULA LN", "city": "SANFORD", "district": "", "region": "NC", "postcode": "27332", "hash": "fa4c00dcdc11c541"}, "geometry": {"type": "Point", "coordinates": [-79.1342999, 35.3617091]}}
{"type": "Feature", "properties": {"id": "", "unit": "", "number": "279", "street": "LULA LN", "city": "SANFORD", "district": "", "region": "NC", "postcode": "27332", "hash": "32f20f611b26b513"}, "geometry": {"type": "Point", "coordinates": [-79.1347439, 35.3621402]}}
{"type": "Feature", "properties": {"id": "", "unit": "", "number": "300", "street": "LULA LN", "city": "SANFORD", "district": "", "region": "NC", "postcode": "27332", "hash": "7f62894986331812"}, "geometry": {"type": "Point", "coordinates": [-79.134634, 35.3617245]}}
{"type": "Feature", "properties": {"id": "", "unit": "", "number": "7016", "street": "CEDAR RD", "city": "SANFORD", "district": "", "region": "NC", "postcode": "27332", "hash": "750aa9fe064403f4"}, "geometry": {"type": "Point", "coordinates": [-79.1083128, 35.3967026]}}
{"type": "Feature", "properties": {"hash": "5d8b35ae144e57a6", "number": "105", "street": "HILLARD DRIVE", "unit": "", "city": "PLYMOUTH", "district": "", "region": "NC", "postcode": "27962", "id": ""}, "geometry": {"type": "Point", "coordinates": [-76.735368, 35.8532846]}}
{"type": "Feature", "properties": {"hash": "afe0e09bd7fc8796", "number": "107", "street": "HILLARD DRIVE", "unit": "", "city": "PLYMOUTH", "district": "", "region": "NC", "postcode": "27962", "id": ""}, "geometry": {"type": "Point", "coordinates": [-76.7350284, 35.8530897]}}
{"type": "Feature", "properties": {"hash": "77821633c9a60bf1", "number": "108", "street": "HILLARD DRIVE", "unit": "", "city": "PLYMOUTH", "district": "", "region": "NC", "postcode": "27962", "id": ""}, "geometry": {"type": "Point", "coordinates": [-76.7349652, 35.8537626]}}
{"type": "Feature", "properties": {"hash": "c46cee876ee19e75", "number": "104", "street": "HILLARD DRIVE", "unit": "", "city": "PLYMOUTH", "district": "", "region": "NC", "postcode": "27962", "id": ""}, "geometry": {"type": "Point", "coordinates": [-76.7356303, 35.854124]}}
{"type": "Feature", "properties": {"hash": "87b41e0dec414f7c", "number": "103", "street": "HILLY CIRCLE", "unit": "", "city": "PLYMOUTH", "district": "", "region": "NC", "postcode": "27962", "id": ""}, "geometry": {"type": "Point", "coordinates": [-76.7359503, 35.8535026]}}
{"type": "Feature", "properties": {"hash": "547369bb824f3f9d", "number": "111", "street": "HILLARD DRIVE", "unit": "", "city": "PLYMOUTH", "district": "", "region": "NC", "postcode": "27962", "id": ""}, "geometry": {"type": "Point", "coordinates": [-76.7342768, 35.8528942]}}
{"type": "Feature", "properties": {"hash": "0b262a7e02fd35f5", "number": "117", "street": "HILLARD DRIVE", "unit": "", "city": "PLYMOUTH", "district": "", "region": "NC", "postcode": "27962", "id": ""}, "geometry": {"type": "Point", "coordinates": [-76.7331012, 35.8528404]}}
{"type": "Feature", "properties": {"hash": "e9088573c39093cf", "number": "260", "street": "KING RD", "unit": "", "city": "GOLDSBORO", "district": "WAYNE", "region": "NC", "postcode": "27530", "id": ""}, "geometry": {"type": "Point", "coordinates": [-78.215544, 35.2950954]}}
{"type": "Feature", "properties": {"hash": "f87ede0c247c392c", "number": "1702", "street": "N US 117 BYP", "unit": "", "city": "GOLDSBORO", "district": "WAYNE", "region": "NC", "postcode": "27530", "id": ""}, "geometry": {"type": "Point", "coordinates": [-77.9887859, 35.4040225]}}
{"type": "Feature", "properties": {"hash": "0e2f1ada13e27810", "number": "1669", "street": "NOR-AM RD", "unit": "", "city": "PIKEVILLE", "district": "WAYNE", "region": "NC", "postcode": "27863", "id": ""}, "geometry": {"type": "Point", "coordinates": [-78.0359657, 35.5123197]}}
{"type": "Feature", "properties": {"hash": "7483c3fd4b030907", "number": "315", "street": "RANDALL LN", "unit": "E", "city": "GOLDSBORO", "district": "WAYNE", "region": "NC", "postcode": "27534", "id": ""}, "geometry": {"type": "Point", "coordinates": [-77.919544, 35.3809972]}}
{"type": "Feature", "properties": {"hash": "fa6af531181b016c", "number": "315", "street": "RANDALL LN", "unit": "D", "city": "GOLDSBORO", "district": "WAYNE", "region": "NC", "postcode": "27534", "id": ""}, "geometry": {"type": "Point", "coordinates": [-77.9195156, 35.3809578]}}
{"type": "Feature", "properties": {"hash": "325b05be4b5125e7", "number": "305", "street": "RANDALL LN", "unit": "C", "city": "GOLDSBORO", "district": "WAYNE", "region": "NC", "postcode": "27534", "id": ""}, "geometry": {"type": "Point", "coordinates": [-77.9209166, 35.3807113]}}
{"type": "Feature", "properties": {"hash": "ccf4b2cc3c393e8a", "number": "305", "street": "RANDALL LN", "unit": "E", "city": "GOLDSBORO", "district": "WAYNE", "region": "NC", "postcode": "27534", "id": ""}, "geometry": {"type": "Point", "coordinates": [-77.9208222, 35.3806673]}}
