{"type": "Feature", "properties": {"hash": "db80020eadf1b292", "number": "6303", "street": "W OLD CHENEY RD", "unit": "", "city": "DENTON", "district": "", "region": "NE", "postcode": "68339", "id": ""}, "geometry": {"type": "Point", "coordinates": [-96.8071792, 40.7549478]}}
{"type": "Feature", "properties": {"hash": "1ae67db282326db4", "number": "6455", "street": "W OLD CHENEY RD", "unit": "", "city": "DENTON", "district": "", "region": "NE", "postcode": "68339", "id": ""}, "geometry": {"type": "Point", "coordinates": [-96.8093344, 40.7508592]}}
{"type": "Feature", "properties": {"hash": "c80919bd7f153c82", "number": "5810", "street": "PINE KNOT DR", "unit": "", "city": "DENTON", "district": "", "region": "NE", "postcode": "68339", "id": ""}, "geometry": {"type": "Point", "coordinates": [-96.801401, 40.7476382]}}
{"type": "Feature", "properties": {"hash": "26cec4b04b2a6391", "number": "5910", "street": "PINE KNOT DR", "unit": "", "city": "DENTON", "district": "", "region": "NE", "postcode": "68339", "id": ""}, "geometry": {"type": "Point", "coordinates": [-96.8027474, 40.7472846]}}
{"type": "Feature", "properties": {"hash": "ffa127a23f666139", "number": "6000", "street": "PINE KNOT DR", "unit": "", "city": "DENTON", "district": "", "region": "NE", "postcode": "68339", "id": ""}, "geometry": {"type": "Point", "coordinates": [-96.8041442, 40.7472381]}}
{"type": "Feature", "properties": {"hash": "54b3edea01ce71cf", "number": "6100", "street": "PINE KNOT DR", "unit": "", "city": "DENTON", "district": "", "region": "NE", "postcode": "68339", "id": ""}, "geometry": {"type": "Point", "coordinates": [-96.8057044, 40.7466957]}}
{"type": "Feature", "properties": {"hash": "6710fe283af2832c", "number": "5600", "street": "PINE CREEK CIR", "unit": "", "city": "DENTON", "district": "", "region": "NE", "postcode": "68339", "id": ""}, "geometry": {"type": "Point", "coordinates": [-96.7980852, 40.7427599]}}
{"type": "Feature", "properties": {"hash": "70c9d91847e0e71a", "number": "6601", "street": "CARDINAL COVE CT", "unit": "", "city": "DENTON", "district": "", "region": "NE", "postcode": "68339", "id": ""}, "geometry": {"type": "Point", "coordinates": [-96.7991968, 40.7452226]}}
{"type": "Feature", "properties": {"hash": "db8983d7d11bec3a", "number": "6600", "street": "CARDINAL COVE CT", "unit": "", "city": "DENTON", "district": "", "region": "NE", "postcode": "68339", "id": ""}, "geometry": {"type": "Point", "coordinates": [-96.7976925, 40.7453239]}}
{"type": "Feature", "properties": {"hash": "09bd26fbe57e9087", "number": "5700", "street": "PINE CREEK CIR", "unit": "", "city": "DENTON", "district": "", "region": "NE", "postcode": "68339", "id": ""}, "geometry": {"type": "Point", "coordinates": [-96.7990448, 40.7422029]}}
{"type": "Feature", "properties": {"hash": "8e0236ebd25015f7", "number": "5605", "street": "PINE CREEK CIR", "unit": "", "city": "DENTON", "district": "", "region": "NE", "postcode": "68339", "id": ""}, "geometry": {"type": "Point", "coordinates": [-96.7979671, 40.7417622]}}
{"type": "Feature", "properties": {"hash": "52b9a5d894971c40", "number": "5901", "street": "PINE KNOT DR", "unit": "", "city": "DENTON", "district": "", "region": "NE", "postcode": "68339", "id": ""}, "geometry": {"type": "Point", "coordinates": [-96.8019752, 40.7464721]}}
{"type": "Feature", "properties": {"hash": "1c6177c1ac6da765", "number": "6620", "street": "RAVEN RIDGE CT", "unit": "", "city": "DENTON", "district": "", "region": "NE", "postcode": "68339", "id": ""}, "geometry": {"type": "Point", "coordinates": [-96.8008875, 40.7444517]}}
{"type": "Feature", "properties": {"hash": "a0c7148a4c86fe55", "number": "13301", "street": "W SPRING RD", "unit": "", "city": "DENTON", "district": "", "region": "NE", "postcode": "68339", "id": ""}, "geometry": {"type": "Point", "coordinates": [-96.9016771, 40.728684]}}
{"type": "Feature", "properties": {"hash": "1e009bf8305e6084", "number": "13501", "street": "W SPRING RD", "unit": "", "city": "DENTON", "district": "", "region": "NE", "postcode": "68339", "id": ""}, "geometry": {"type": "Point", "coordinates": [-96.9049979, 40.7288299]}}
{"type": "Feature", "properties": {"hash": "46e39cd549b7cbd4", "number": "7400", "street": "SW 61ST ST", "unit": "", "city": "DENTON", "district": "", "region": "NE", "postcode": "68339", "id": ""}, "geometry": {"type": "Point", "coordinates": [-96.8029148, 40.7373206]}}
{"type": "Feature", "properties": {"hash": "23fff2e283c2bf43", "number": "6101", "street": "W YANKEE LAKE RD", "unit": "", "city": "DENTON", "district": "", "region": "NE", "postcode": "68339", "id": ""}, "geometry": {"type": "Point", "coordinates": [-96.8035814, 40.7347629]}}
{"type": "Feature", "properties": {"hash": "16245c5a4e20146c", "number": "5770", "street": "W YANKEE LAKE RD", "unit": "", "city": "DENTON", "district": "", "region": "NE", "postcode": "68339", "id": ""}, "geometry": {"type": "Point", "coordinates": [-96.7992563, 40.7369686]}}
{"type": "Feature", "properties": {"hash": "170372ff62b01a24", "number": "5701", "street": "W YANKEE LAKE RD", "unit": "", "city": "DENTON", "district": "", "region": "NE", "postcode": "68339", "id": ""}, "geometry": {"type": "Point", "coordinates": [-96.7992828, 40.7358665]}}
{"type": "Feature", "properties": {"hash": "7a5be2a07cd97fa2", "number": "5901", "street": "W YANKEE LAKE RD", "unit": "", "city": "DENTON", "district": "", "region": "NE", "postcode": "68339", "id": ""}, "geometry": {"type": "Point", "coordinates": [-96.80081, 40.7357146]}}
{"type": "Feature", "properties": {"hash": "0b1833a1ed53965f", "number": "6100", "street": "W YANKEE LAKE RD", "unit": "", "city": "DENTON", "district": "", "region": "NE", "postcode": "68339", "id": ""}, "geometry": {"type": "Point", "coordinates": [-96.8043605, 40.7358746]}}
{"type": "Feature", "properties": {"hash": "eeb708fe4a0238d5", "number": "8300", "street": "W MOUNTAIN ASH DR", "unit": "", "city": "DENTON", "district": "", "region": "NE", "postcode": "68339", "id": ""}, "geometry": {"type": "Point", "coordinates": [-96.8338032, 40.7234518]}}
{"type": "Feature", "properties": {"hash": "3dba739ded04d0b5", "number": "8301", "street": "W MOUNTAIN ASH DR", "unit": "", "city": "DENTON", "district": "", "region": "NE", "postcode": "68339", "id": ""}, "geometry": {"type": "Point", "coordinates": [-96.8338728, 40.7226971]}}
{"type": "Feature", "properties": {"hash": "b33adfb17ccbd5cb", "number": "8101", "street": "W MOUNTAIN ASH DR", "unit": "", "city": "DENTON", "district": "", "region": "NE", "postcode": "68339", "id": ""}, "geometry": {"type": "Point", "coordinates": [-96.8313534, 40.7223438]}}
{"type": "Feature", "properties": {"hash": "2588a940165eda46", "number": "8100", "street": "W GINKGO LN", "unit": "", "city": "DENTON", "district": "", "region": "NE", "postcode": "68339", "id": ""}, "geometry": {"type": "Point", "coordinates": [-96.8313242, 40.7205893]}}
{"type": "Feature", "properties": {"hash": "4e6ed27a32b02223", "number": "8200", "street": "W GINKGO LN", "unit": "", "city": "DENTON", "district": "", "region": "NE", "postcode": "68339", "id": ""}, "geometry": {"type": "Point", "coordinates": [-96.8319236, 40.7205003]}}
{"type": "Feature", "properties": {"hash": "94a3d9b0fda3b3b3", "number": "8250", "street": "W GINKGO LN", "unit": "", "city": "DENTON", "district": "", "region": "NE", "postcode": "68339", "id": ""}, "geometry": {"type": "Point", "coordinates": [-96.8330878, 40.7207762]}}
{"type": "Feature", "properties": {"hash": "64d8eac1b7b50cc6", "number": "8301", "street": "W GINKGO LN", "unit": "", "city": "DENTON", "district": "", "region": "NE", "postcode": "68339", "id": ""}, "geometry": {"type": "Point", "coordinates": [-96.8340314, 40.7197314]}}
{"type": "Feature", "properties": {"hash": "2bed9566aa31a631", "number": "9500", "street": "SW 84TH ST", "unit": "", "city": "DENTON", "district": "", "region": "NE", "postcode": "68339", "id": ""}, "geometry": {"type": "Point", "coordinates": [-96.8339293, 40.716917]}}
{"type": "Feature", "properties": {"hash": "d462df51c3ba638f", "number": "8800", "street": "SW 81ST STREET CT", "unit": "", "city": "DENTON", "district": "", "region": "NE", "postcode": "68339", "id": ""}, "geometry": {"type": "Point", "coordinates": [-96.8296993, 40.7239301]}}
{"type": "Feature", "properties": {"hash": "6ab7fd62b8064891", "number": "8700", "street": "SW 81ST STREET CT", "unit": "", "city": "DENTON", "district": "", "region": "NE", "postcode": "68339", "id": ""}, "geometry": {"type": "Point", "coordinates": [-96.8296931, 40.7248034]}}
{"type": "Feature", "properties": {"hash": "84f40469c7d5fa2c", "number": "8701", "street": "SW 81ST STREET CT", "unit": "", "city": "DENTON", "district": "", "region": "NE", "postcode": "68339", "id": ""}, "geometry": {"type": "Point", "coordinates": [-96.8310526, 40.7247311]}}
{"type": "Feature", "properties": {"hash": "185adaa293f67fab", "number": "8350", "street": "W GINKGO LN", "unit": "", "city": "DENTON", "district": "", "region": "NE", "postcode": "68339", "id": ""}, "geometry": {"type": "Point", "coordinates": [-96.8341789, 40.7206774]}}
{"type": "Feature", "properties": {"hash": "728b691f64561950", "number": "8201", "street": "W GINKGO LN", "unit": "", "city": "DENTON", "district": "", "region": "NE", "postcode": "68339", "id": ""}, "geometry": {"type": "Point", "coordinates": [-96.8318421, 40.7197642]}}
{"type": "Feature", "properties": {"hash": "f2d848d95456f8cd", "number": "8001", "street": "W YANKEE HILL RD", "unit": "", "city": "DENTON", "district": "", "region": "NE", "postcode": "68339", "id": ""}, "geometry": {"type": "Point", "coordinates": [-96.8305653, 40.7261897]}}
{"type": "Feature", "properties": {"hash": "81620501070508e4", "number": "8600", "street": "SW 84TH ST", "unit": "", "city": "DENTON", "district": "", "region": "NE", "postcode": "68339", "id": ""}, "geometry": {"type": "Point", "coordinates": [-96.8338103, 40.7261114]}}
{"type": "Feature", "properties": {"hash": "3be023ace011e71d", "number": "8501", "street": "W TREVISA CT", "unit": "", "city": "MALCOLM", "district": "", "region": "NE", "postcode": "68402", "id": ""}, "geometry": {"type": "Point", "coordinates": [-96.8367844, 40.9163701]}}
{"type": "Feature", "properties": {"hash": "98f3934cba4f5240", "number": "8400", "street": "W TREVISA CT", "unit": "", "city": "MALCOLM", "district": "", "region": "NE", "postcode": "68402", "id": ""}, "geometry": {"type": "Point", "coordinates": [-96.835031, 40.9177331]}}
{"type": "Feature", "properties": {"hash": "8dcacbc41d0ead72", "number": "8401", "street": "W TREVISA CT", "unit": "", "city": "MALCOLM", "district": "", "region": "NE", "postcode": "68402", "id": ""}, "geometry": {"type": "Point", "coordinates": [-96.8347859, 40.9162396]}}
{"type": "Feature", "properties": {"hash": "24225c0c33baee98", "number": "8300", "street": "NW 70TH ST", "unit": "", "city": "MALCOLM", "district": "", "region": "NE", "postcode": "68402", "id": ""}, "geometry": {"type": "Point", "coordinates": [-96.8134325, 40.894812]}}
{"type": "Feature", "properties": {"hash": "bba26805ba081588", "number": "8100", "street": "NW 70TH ST", "unit": "", "city": "MALCOLM", "district": "", "region": "NE", "postcode": "68402", "id": ""}, "geometry": {"type": "Point", "coordinates": [-96.8144682, 40.8926473]}}
{"type": "Feature", "properties": {"hash": "bb72e07eb7979192", "number": "7800", "street": "NW 70TH ST", "unit": "", "city": "MALCOLM", "district": "", "region": "NE", "postcode": "68402", "id": ""}, "geometry": {"type": "Point", "coordinates": [-96.8145789, 40.8911503]}}
{"type": "Feature", "properties": {"hash": "cea04b9090e28767", "number": "12100", "street": "W FLETCHER AVE", "unit": "", "city": "LINCOLN", "district": "", "region": "NE", "postcode": "68524", "id": ""}, "geometry": {"type": "Point", "coordinates": [-96.8835866, 40.8728502]}}
{"type": "Feature", "properties": {"hash": "f5c9288ea3e1db61", "number": "14401", "street": "COUNTRY LN", "unit": "", "city": "LINCOLN", "district": "", "region": "NE", "postcode": "68517", "id": ""}, "geometry": {"type": "Point", "coordinates": [-96.6420069, 40.9530567]}}
{"type": "Feature", "properties": {"hash": "2b28841b7ff367fb", "number": "14900", "street": "COUNTRY LN", "unit": "", "city": "LINCOLN", "district": "", "region": "NE", "postcode": "68517", "id": ""}, "geometry": {"type": "Point", "coordinates": [-96.6403677, 40.9578586]}}
{"type": "Feature", "properties": {"hash": "1b1ea7264029c250", "number": "14800", "street": "COUNTRY LN", "unit": "", "city": "LINCOLN", "district": "", "region": "NE", "postcode": "68517", "id": ""}, "geometry": {"type": "Point", "coordinates": [-96.640105, 40.9569292]}}
{"type": "Feature", "properties": {"hash": "b68dd631e1fba48f", "number": "13701", "street": "W SPRING RD", "unit": "", "city": "DENTON", "district": "", "region": "NE", "postcode": "68339", "id": ""}, "geometry": {"type": "Point", "coordinates": [-96.9064703, 40.7287896]}}
{"type": "Feature", "properties": {"hash": "66672983be3d2f4d", "number": "25660", "street": "S 12TH ST", "unit": "", "city": "MARTELL", "district": "", "region": "NE", "postcode": "68404", "id": ""}, "geometry": {"type": "Point", "coordinates": [-96.7004025, 40.5613246]}}
{"type": "Feature", "properties": {"hash": "627b8ba35922b217", "number": "12300", "street": "SW 14TH ST", "unit": "", "city": "ROCA", "district": "", "region": "NE", "postcode": "68430", "id": ""}, "geometry": {"type": "Point", "coordinates": [-96.7367628, 40.689606]}}
{"type": "Feature", "properties": {"hash": "02b20e1431038f4e", "number": "1400", "street": "STELLA MARIA AVE", "unit": "", "city": "ROCA", "district": "", "region": "NE", "postcode": "68430", "id": ""}, "geometry": {"type": "Point", "coordinates": [-96.7433935, 40.67311]}}
{"type": "Feature", "properties": {"hash": "256826e70361ecbf", "number": "1555", "street": "DEER TRL", "unit": "", "city": "ROCA", "district": "", "region": "NE", "postcode": "68430", "id": ""}, "geometry": {"type": "Point", "coordinates": [-96.6992564, 40.6363179]}}
{"type": "Feature", "properties": {"hash": "7e0a733bd4335c53", "number": "1501", "street": "DEER TRL", "unit": "", "city": "ROCA", "district": "", "region": "NE", "postcode": "68430", "id": ""}, "geometry": {"type": "Point", "coordinates": [-96.7006071, 40.6364078]}}
{"type": "Feature", "properties": {"hash": "c7b659f1d24cfcfd", "number": "1401", "street": "DEER TRL", "unit": "", "city": "ROCA", "district": "", "region": "NE", "postcode": "68430", "id": ""}, "geometry": {"type": "Point", "coordinates": [-96.7014787, 40.6366266]}}
{"type": "Feature", "properties": {"hash": "5adbd195057b0762", "number": "1410", "street": "DEER TRL", "unit": "", "city": "ROCA", "district": "", "region": "NE", "postcode": "68430", "id": ""}, "geometry": {"type": "Point", "coordinates": [-96.7008426, 40.6374762]}}
{"type": "Feature", "properties": {"hash": "4ed5b1d05ee701ee", "number": "1530", "street": "DEER TRL", "unit": "", "city": "ROCA", "district": "", "region": "NE", "postcode": "68430", "id": ""}, "geometry": {"type": "Point", "coordinates": [-96.6997817, 40.6372988]}}
{"type": "Feature", "properties": {"hash": "7b16ab192e3b5e7f", "number": "3000", "street": "RUHLMAN CIR", "unit": "", "city": "MARTELL", "district": "", "region": "NE", "postcode": "68404", "id": ""}, "geometry": {"type": "Point", "coordinates": [-96.7636669, 40.6581251]}}
{"type": "Feature", "properties": {"hash": "55198f7f3ffd0af1", "number": "3200", "street": "RUHLMAN CIR", "unit": "", "city": "MARTELL", "district": "", "region": "NE", "postcode": "68404", "id": ""}, "geometry": {"type": "Point", "coordinates": [-96.7653068, 40.6587431]}}
{"type": "Feature", "properties": {"hash": "e713d9cfc94a82fc", "number": "3300", "street": "RUHLMAN CIR", "unit": "", "city": "MARTELL", "district": "", "region": "NE", "postcode": "68404", "id": ""}, "geometry": {"type": "Point", "coordinates": [-96.7662092, 40.6595798]}}
{"type": "Feature", "properties": {"hash": "f9bb2169f5e66df7", "number": "3330", "street": "RUHLMAN CIR", "unit": "", "city": "MARTELL", "district": "", "region": "NE", "postcode": "68404", "id": ""}, "geometry": {"type": "Point", "coordinates": [-96.7671897, 40.6594956]}}
{"type": "Feature", "properties": {"hash": "df4acd951ee490a1", "number": "3303", "street": "RUHLMAN CIR", "unit": "", "city": "MARTELL", "district": "", "region": "NE", "postcode": "68404", "id": ""}, "geometry": {"type": "Point", "coordinates": [-96.7672183, 40.6586358]}}
{"type": "Feature", "properties": {"hash": "63c0f8eb6cbeec12", "number": "3201", "street": "RUHLMAN CIR", "unit": "", "city": "MARTELL", "district": "", "region": "NE", "postcode": "68404", "id": ""}, "geometry": {"type": "Point", "coordinates": [-96.7663298, 40.6581999]}}
{"type": "Feature", "properties": {"hash": "a0a4b9c0b52fcba2", "number": "3131", "street": "RUHLMAN CIR", "unit": "", "city": "MARTELL", "district": "", "region": "NE", "postcode": "68404", "id": ""}, "geometry": {"type": "Point", "coordinates": [-96.7648536, 40.6573642]}}
{"type": "Feature", "properties": {"hash": "6be9a6592a33d317", "number": "3001", "street": "RUHLMAN CIR", "unit": "", "city": "MARTELL", "district": "", "region": "NE", "postcode": "68404", "id": ""}, "geometry": {"type": "Point", "coordinates": [-96.7638682, 40.6571622]}}
{"type": "Feature", "properties": {"hash": "fedece13118479e2", "number": "2901", "street": "RUHLMAN CIR", "unit": "", "city": "MARTELL", "district": "", "region": "NE", "postcode": "68404", "id": ""}, "geometry": {"type": "Point", "coordinates": [-96.7628481, 40.6570803]}}
{"type": "Feature", "properties": {"hash": "4defa9e29ff9dad5", "number": "18101", "street": "SW 42ND ST", "unit": "", "city": "MARTELL", "district": "", "region": "NE", "postcode": "68404", "id": ""}, "geometry": {"type": "Point", "coordinates": [-96.781821, 40.6326504]}}
{"type": "Feature", "properties": {"hash": "2e7053877083cf96", "number": "4300", "street": "W BLUESTEM RD", "unit": "", "city": "MARTELL", "district": "", "region": "NE", "postcode": "68404", "id": ""}, "geometry": {"type": "Point", "coordinates": [-96.7830435, 40.637439]}}
{"type": "Feature", "properties": {"hash": "8d2ace2eef771af2", "number": "17701", "street": "SW 44TH ST", "unit": "", "city": "MARTELL", "district": "", "region": "NE", "postcode": "68404", "id": ""}, "geometry": {"type": "Point", "coordinates": [-96.7843737, 40.6357661]}}
{"type": "Feature", "properties": {"hash": "ed44ba0068debce8", "number": "4251", "street": "SUNFLOWER RD", "unit": "", "city": "MARTELL", "district": "", "region": "NE", "postcode": "68404", "id": ""}, "geometry": {"type": "Point", "coordinates": [-96.7828741, 40.6341252]}}
{"type": "Feature", "properties": {"hash": "85d667b580ac93de", "number": "4400", "street": "BASSWOOD RD", "unit": "", "city": "MARTELL", "district": "", "region": "NE", "postcode": "68404", "id": ""}, "geometry": {"type": "Point", "coordinates": [-96.784742, 40.6353259]}}
{"type": "Feature", "properties": {"hash": "94da2ae3f6d60c8c", "number": "17550", "street": "SW 44TH ST", "unit": "", "city": "MARTELL", "district": "", "region": "NE", "postcode": "68404", "id": ""}, "geometry": {"type": "Point", "coordinates": [-96.7834653, 40.6378648]}}
{"type": "Feature", "properties": {"hash": "eb4e06377dc1c507", "number": "3949", "street": "WAVERLY RD", "unit": "", "city": "DAVEY", "district": "", "region": "NE", "postcode": "68336", "id": ""}, "geometry": {"type": "Point", "coordinates": [-96.6630814, 40.9289668]}}
{"type": "Feature", "properties": {"hash": "268bd06992765bce", "number": "12550", "street": "N 84TH ST", "unit": "", "city": "LINCOLN", "district": "", "region": "NE", "postcode": "68517", "id": ""}, "geometry": {"type": "Point", "coordinates": [-96.604613, 40.9346277]}}
{"type": "Feature", "properties": {"hash": "e0c715bb6925f581", "number": "12600", "street": "N 84TH ST", "unit": "", "city": "LINCOLN", "district": "", "region": "NE", "postcode": "68517", "id": ""}, "geometry": {"type": "Point", "coordinates": [-96.6049244, 40.9353913]}}
{"type": "Feature", "properties": {"hash": "963d391578d90d3f", "number": "8500", "street": "PEARLE RD", "unit": "", "city": "LINCOLN", "district": "", "region": "NE", "postcode": "68517", "id": ""}, "geometry": {"type": "Point", "coordinates": [-96.6020381, 40.935381]}}
{"type": "Feature", "properties": {"hash": "fb2e5024082a4640", "number": "9000", "street": "PEARLE RD", "unit": "", "city": "LINCOLN", "district": "", "region": "NE", "postcode": "68517", "id": ""}, "geometry": {"type": "Point", "coordinates": [-96.5966368, 40.9348664]}}
{"type": "Feature", "properties": {"hash": "374025aebd79b7a2", "number": "8930", "street": "PEARLE RD", "unit": "", "city": "LINCOLN", "district": "", "region": "NE", "postcode": "68517", "id": ""}, "geometry": {"type": "Point", "coordinates": [-96.5974433, 40.9349652]}}
{"type": "Feature", "properties": {"hash": "609505e433a4dca9", "number": "8900", "street": "PEARLE RD", "unit": "", "city": "LINCOLN", "district": "", "region": "NE", "postcode": "68517", "id": ""}, "geometry": {"type": "Point", "coordinates": [-96.5982498, 40.9350054]}}
{"type": "Feature", "properties": {"hash": "46349625e9f98b81", "number": "8400", "street": "WAVERLY RD", "unit": "", "city": "LINCOLN", "district": "", "region": "NE", "postcode": "68517", "id": ""}, "geometry": {"type": "Point", "coordinates": [-96.6050355, 40.9294785]}}
{"type": "Feature", "properties": {"hash": "0b0214fa504a31e2", "number": "9000", "street": "WAVERLY RD", "unit": "", "city": "LINCOLN", "district": "", "region": "NE", "postcode": "68517", "id": ""}, "geometry": {"type": "Point", "coordinates": [-96.5963461, 40.9292087]}}
{"type": "Feature", "properties": {"hash": "5f0ac0ca56a67177", "number": "8833", "street": "EDWIN LN", "unit": "", "city": "LINCOLN", "district": "", "region": "NE", "postcode": "68517", "id": ""}, "geometry": {"type": "Point", "coordinates": [-96.5987824, 40.932029]}}
{"type": "Feature", "properties": {"hash": "1cf4775fb1b2d392", "number": "8921", "street": "EDWIN LN", "unit": "", "city": "LINCOLN", "district": "", "region": "NE", "postcode": "68517", "id": ""}, "geometry": {"type": "Point", "coordinates": [-96.5971251, 40.9321392]}}
{"type": "Feature", "properties": {"hash": "bf5c016903290b2f", "number": "8939", "street": "EDWIN LN", "unit": "", "city": "LINCOLN", "district": "", "region": "NE", "postcode": "68517", "id": ""}, "geometry": {"type": "Point", "coordinates": [-96.5966868, 40.9328238]}}
{"type": "Feature", "properties": {"hash": "9612b53f000990d6", "number": "8901", "street": "EDWIN LN", "unit": "", "city": "LINCOLN", "district": "", "region": "NE", "postcode": "68517", "id": ""}, "geometry": {"type": "Point", "coordinates": [-96.5981658, 40.9320195]}}
{"type": "Feature", "properties": {"hash": "7e5504ab5c087cd7", "number": "12401", "street": "FINIGAN RD", "unit": "", "city": "LINCOLN", "district": "", "region": "NE", "postcode": "68517", "id": ""}, "geometry": {"type": "Point", "coordinates": [-96.600864, 40.9336749]}}
{"type": "Feature", "properties": {"hash": "bd26c2ab8d0d25c0", "number": "8700", "street": "PEARLE RD", "unit": "", "city": "LINCOLN", "district": "", "region": "NE", "postcode": "68517", "id": ""}, "geometry": {"type": "Point", "coordinates": [-96.6009742, 40.9355255]}}
{"type": "Feature", "properties": {"hash": "2fc30d20b655fa75", "number": "12200", "street": "FINIGAN RD", "unit": "", "city": "LINCOLN", "district": "", "region": "NE", "postcode": "68517", "id": ""}, "geometry": {"type": "Point", "coordinates": [-96.6010835, 40.9313601]}}
{"type": "Feature", "properties": {"hash": "ecfc5631dba5ad31", "number": "12301", "street": "FINIGAN RD", "unit": "", "city": "LINCOLN", "district": "", "region": "NE", "postcode": "68517", "id": ""}, "geometry": {"type": "Point", "coordinates": [-96.6026252, 40.9320277]}}
{"type": "Feature", "properties": {"hash": "e1d54308f9897623", "number": "12201", "street": "FINIGAN RD", "unit": "", "city": "LINCOLN", "district": "", "region": "NE", "postcode": "68517", "id": ""}, "geometry": {"type": "Point", "coordinates": [-96.6026717, 40.9314616]}}
{"type": "Feature", "properties": {"hash": "62c4df6a64fa8f1f", "number": "12500", "street": "N 84TH ST", "unit": "", "city": "LINCOLN", "district": "", "region": "NE", "postcode": "68517", "id": ""}, "geometry": {"type": "Point", "coordinates": [-96.6045895, 40.9341167]}}
{"type": "Feature", "properties": {"hash": "16f9513b055e6edd", "number": "12440", "street": "N 84TH ST", "unit": "", "city": "LINCOLN", "district": "", "region": "NE", "postcode": "68517", "id": ""}, "geometry": {"type": "Point", "coordinates": [-96.6045859, 40.9334255]}}
{"type": "Feature", "properties": {"hash": "c70911783621f6dc", "number": "12400", "street": "N 84TH ST", "unit": "", "city": "LINCOLN", "district": "", "region": "NE", "postcode": "68517", "id": ""}, "geometry": {"type": "Point", "coordinates": [-96.6046462, 40.9328208]}}
{"type": "Feature", "properties": {"hash": "fc18338e68955675", "number": "8955", "street": "EDWIN LN", "unit": "", "city": "LINCOLN", "district": "", "region": "NE", "postcode": "68517", "id": ""}, "geometry": {"type": "Point", "coordinates": [-96.5967678, 40.9339029]}}
{"type": "Feature", "properties": {"hash": "dca2dff8c62af7dc", "number": "12700", "street": "N 84TH ST", "unit": "", "city": "LINCOLN", "district": "", "region": "NE", "postcode": "68517", "id": ""}, "geometry": {"type": "Point", "coordinates": [-96.604953, 40.9359236]}}
{"type": "Feature", "properties": {"hash": "cbdc2c265814430b", "number": "8501", "street": "PEARLE RD", "unit": "", "city": "LINCOLN", "district": "", "region": "NE", "postcode": "68517", "id": ""}, "geometry": {"type": "Point", "coordinates": [-96.6020438, 40.9346855]}}
{"type": "Feature", "properties": {"hash": "957543d5109e07f5", "number": "11901", "street": "N 79TH ST", "unit": "", "city": "LINCOLN", "district": "", "region": "NE", "postcode": "68517", "id": ""}, "geometry": {"type": "Point", "coordinates": [-96.6130843, 40.9285563]}}
{"type": "Feature", "properties": {"hash": "733ad830c5c42efb", "number": "11855", "street": "N 79TH ST", "unit": "", "city": "LINCOLN", "district": "", "region": "NE", "postcode": "68517", "id": ""}, "geometry": {"type": "Point", "coordinates": [-96.6132443, 40.9280523]}}
{"type": "Feature", "properties": {"hash": "e2d6b9753d4e22d0", "number": "11801", "street": "N 79TH ST", "unit": "", "city": "LINCOLN", "district": "", "region": "NE", "postcode": "68517", "id": ""}, "geometry": {"type": "Point", "coordinates": [-96.6130655, 40.927484]}}
{"type": "Feature", "properties": {"hash": "f38a8a81d2acf6e0", "number": "11777", "street": "N 79TH ST", "unit": "", "city": "LINCOLN", "district": "", "region": "NE", "postcode": "68517", "id": ""}, "geometry": {"type": "Point", "coordinates": [-96.6132202, 40.9267846]}}
{"type": "Feature", "properties": {"hash": "ef18c070086c5b24", "number": "11701", "street": "N 79TH ST", "unit": "", "city": "LINCOLN", "district": "", "region": "NE", "postcode": "68517", "id": ""}, "geometry": {"type": "Point", "coordinates": [-96.6131845, 40.9262267]}}
{"type": "Feature", "properties": {"hash": "b9e123bde5d74519", "number": "11601", "street": "N 79TH ST", "unit": "", "city": "LINCOLN", "district": "", "region": "NE", "postcode": "68517", "id": ""}, "geometry": {"type": "Point", "coordinates": [-96.6132155, 40.9256433]}}
