{"type": "Feature", "properties": {"hash": "ea17c524b952af31", "number": "5", "street": "TROLL LN", "unit": "", "city": "ROCKAWAY", "district": "", "region": "NJ", "postcode": "07866", "id": ""}, "geometry": {"type": "Point", "coordinates": [-74.495841, 40.9569259]}}
{"type": "Feature", "properties": {"hash": "3364b57fb91d90aa", "number": "15", "street": "LAFAYETTE PL", "unit": "", "city": "DENVILLE", "district": "", "region": "NJ", "postcode": "07834", "id": ""}, "geometry": {"type": "Point", "coordinates": [-74.4865797, 40.9032092]}}
{"type": "Feature", "properties": {"hash": "a28367c951913e4a", "number": "78", "street": "WOODLAND RD", "unit": "", "city": "CHATHAM", "district": "", "region": "NJ", "postcode": "07928", "id": ""}, "geometry": {"type": "Point", "coordinates": [-74.3974325, 40.7435201]}}
{"type": "Feature", "properties": {"hash": "cb1e5024e695c385", "number": "55", "street": "MOUNTAINSIDE DR", "unit": "", "city": "RANDOLPH", "district": "", "region": "NJ", "postcode": "07869", "id": ""}, "geometry": {"type": "Point", "coordinates": [-74.5430871, 40.8653677]}}
{"type": "Feature", "properties": {"hash": "85e34105137b6250", "number": "7", "street": "GREEN HILLS RD", "unit": "", "city": "MENDHAM", "district": "", "region": "NJ", "postcode": "07945", "id": ""}, "geometry": {"type": "Point", "coordinates": [-74.5560017, 40.7807695]}}
{"type": "Feature", "properties": {"hash": "895c6ac49135a28f", "number": "36", "street": "MARGARET RD", "unit": "", "city": "OAK RIDGE", "district": "", "region": "NJ", "postcode": "07438", "id": ""}, "geometry": {"type": "Point", "coordinates": [-74.5220726, 41.0303787]}}
{"type": "Feature", "properties": {"hash": "9a53516994d3aae4", "number": "23", "street": "COBBLESTONE TER", "unit": "", "city": "MONTVILLE", "district": "", "region": "NJ", "postcode": "07045", "id": ""}, "geometry": {"type": "Point", "coordinates": [-74.3513245, 40.9137137]}}
{"type": "Feature", "properties": {"hash": "bcda50967668a090", "number": "10", "street": "SMITH RD", "unit": "", "city": "DENVILLE", "district": "", "region": "NJ", "postcode": "07834", "id": ""}, "geometry": {"type": "Point", "coordinates": [-74.515303, 40.8658638]}}
{"type": "Feature", "properties": {"hash": "c7ff49e1846dd695", "number": "15", "street": "STARLING RD", "unit": "", "city": "RANDOLPH", "district": "", "region": "NJ", "postcode": "07869", "id": ""}, "geometry": {"type": "Point", "coordinates": [-74.5600009, 40.8593071]}}
{"type": "Feature", "properties": {"hash": "3285e61c1cf3894e", "number": "11", "street": "LUDLOW ST", "unit": "", "city": "WHARTON", "district": "", "region": "NJ", "postcode": "07885", "id": ""}, "geometry": {"type": "Point", "coordinates": [-74.589448, 40.9317159]}}
{"type": "Feature", "properties": {"hash": "33921b9e344f0316", "number": "1", "street": "GARWOOD TRL", "unit": "", "city": "DENVILLE", "district": "", "region": "NJ", "postcode": "07834", "id": ""}, "geometry": {"type": "Point", "coordinates": [-74.4678182, 40.8909779]}}
{"type": "Feature", "properties": {"hash": "04cba6f8aa6be549", "number": "68", "street": "TAYLORTOWN RD", "unit": "", "city": "MONTVILLE", "district": "", "region": "NJ", "postcode": "07045", "id": ""}, "geometry": {"type": "Point", "coordinates": [-74.3873823, 40.9260533]}}
{"type": "Feature", "properties": {"hash": "8c6e14600aa40b9e", "number": "17", "street": "WOOD CHASE LN", "unit": "", "city": "BUTLER", "district": "", "region": "NJ", "postcode": "07405", "id": ""}, "geometry": {"type": "Point", "coordinates": [-74.3617744, 40.9627613]}}
{"type": "Feature", "properties": {"hash": "28b9fdf02543177b", "number": "44", "street": "BERLIN RD", "unit": "", "city": "PARSIPPANY", "district": "", "region": "NJ", "postcode": "07054", "id": ""}, "geometry": {"type": "Point", "coordinates": [-74.4351279, 40.8571771]}}
{"type": "Feature", "properties": {"hash": "76b538736bee7914", "number": "14", "street": "STRUBLE AVE", "unit": "", "city": "BUTLER", "district": "", "region": "NJ", "postcode": "07405", "id": ""}, "geometry": {"type": "Point", "coordinates": [-74.3327577, 40.9962113]}}
{"type": "Feature", "properties": {"hash": "30ccc136597caa4f", "number": "20", "street": "PINE ST", "unit": "", "city": "MORRISTOWN", "district": "", "region": "NJ", "postcode": "07960", "id": ""}, "geometry": {"type": "Point", "coordinates": [-74.4781316, 40.7953496]}}
{"type": "Feature", "properties": {"hash": "0e4302d9ad03e8f0", "number": "31", "street": "DARTMOOR RD", "unit": "", "city": "EAST HANOVER", "district": "", "region": "NJ", "postcode": "07936", "id": ""}, "geometry": {"type": "Point", "coordinates": [-74.3377514, 40.8195236]}}
{"type": "Feature", "properties": {"hash": "04f3b941478d2f00", "number": "6", "street": "RIVERSIDE DR", "unit": "", "city": "PEQUANNOCK", "district": "", "region": "NJ", "postcode": "07440", "id": ""}, "geometry": {"type": "Point", "coordinates": [-74.2804455, 40.9433379]}}
{"type": "Feature", "properties": {"hash": "844ab27d9612cd10", "number": "1", "street": "EAGLE ROCK VLG", "unit": "APT 6A", "city": "BUDD LAKE", "district": "", "region": "NJ", "postcode": "07828", "id": ""}, "geometry": {"type": "Point", "coordinates": [-74.7530068, 40.8599496]}}
{"type": "Feature", "properties": {"hash": "31822fdd6e0532e6", "number": "11", "street": "ALEXANDER AVE", "unit": "", "city": "MADISON", "district": "", "region": "NJ", "postcode": "07940", "id": ""}, "geometry": {"type": "Point", "coordinates": [-74.4103848, 40.7570735]}}
{"type": "Feature", "properties": {"hash": "296410498574fd13", "number": "42", "street": "ROSWELL ST", "unit": "", "city": "DOVER", "district": "", "region": "NJ", "postcode": "07801", "id": ""}, "geometry": {"type": "Point", "coordinates": [-74.5589556, 40.8931253]}}
{"type": "Feature", "properties": {"hash": "347b8144d4f93523", "number": "79", "street": "RIVER RD", "unit": "", "city": "FLANDERS", "district": "", "region": "NJ", "postcode": "07836", "id": ""}, "geometry": {"type": "Point", "coordinates": [-74.7320792, 40.8331929]}}
{"type": "Feature", "properties": {"hash": "f2c5ada6ed7f888b", "number": "30", "street": "LIVINGSTON AVE", "unit": "", "city": "DOVER", "district": "", "region": "NJ", "postcode": "07801", "id": ""}, "geometry": {"type": "Point", "coordinates": [-74.5518032, 40.8790177]}}
{"type": "Feature", "properties": {"hash": "69a47fea798d2caa", "number": "16", "street": "FLORENCE DR", "unit": "", "city": "FLORHAM PARK", "district": "", "region": "NJ", "postcode": "07932", "id": ""}, "geometry": {"type": "Point", "coordinates": [-74.3749579, 40.7842642]}}
{"type": "Feature", "properties": {"hash": "e31d5fa0fd8fca16", "number": "0", "street": "APPLE TRL", "unit": "", "city": "OAK RIDGE", "district": "", "region": "NJ", "postcode": "07438", "id": ""}, "geometry": {"type": "Point", "coordinates": [-74.5267355, 40.9961306]}}
{"type": "Feature", "properties": {"hash": "0519c252a1f94c6c", "number": "83", "street": "SWACKHAMMER WAY", "unit": "", "city": "MOUNT OLIVE", "district": "", "region": "NJ", "postcode": "07828", "id": ""}, "geometry": {"type": "Point", "coordinates": [-74.7249433, 40.8838886]}}
{"type": "Feature", "properties": {"hash": "f0fe87232a931469", "number": "1", "street": "RESERVOIR PL", "unit": "", "city": "ROCKAWAY", "district": "", "region": "NJ", "postcode": "07866", "id": ""}, "geometry": {"type": "Point", "coordinates": [-74.5247658, 40.915537]}}
{"type": "Feature", "properties": {"hash": "f445186f933cde30", "number": "6", "street": "FEN CT", "unit": "", "city": "MADISON", "district": "", "region": "NJ", "postcode": "07940", "id": ""}, "geometry": {"type": "Point", "coordinates": [-74.4013491, 40.7465354]}}
{"type": "Feature", "properties": {"hash": "f08dc48c5792315f", "number": "9", "street": "BROOK CT", "unit": "", "city": "PARSIPPANY", "district": "", "region": "NJ", "postcode": "07054", "id": ""}, "geometry": {"type": "Point", "coordinates": [-74.4294672, 40.8816017]}}
{"type": "Feature", "properties": {"hash": "4729830bd5eb8aa2", "number": "15", "street": "W SPRINGBROOK RD", "unit": "", "city": "MONTVILLE", "district": "", "region": "NJ", "postcode": "07045", "id": ""}, "geometry": {"type": "Point", "coordinates": [-74.3685134, 40.9015523]}}
{"type": "Feature", "properties": {"hash": "02e735223a084c1b", "number": "56", "street": "SAND SHORE RD", "unit": "", "city": "BUDD LAKE", "district": "", "region": "NJ", "postcode": "07828", "id": ""}, "geometry": {"type": "Point", "coordinates": [-74.7368839, 40.8745488]}}
{"type": "Feature", "properties": {"hash": "44a751f93a4bae25", "number": "6", "street": "WEST END AVE", "unit": "", "city": "MADISON", "district": "", "region": "NJ", "postcode": "07940", "id": ""}, "geometry": {"type": "Point", "coordinates": [-74.3992614, 40.7693262]}}
{"type": "Feature", "properties": {"hash": "c7181e873fe73509", "number": "58", "street": "ALBERT CT", "unit": "", "city": "RANDOLPH", "district": "", "region": "NJ", "postcode": "07869", "id": ""}, "geometry": {"type": "Point", "coordinates": [-74.5723327, 40.82373]}}
{"type": "Feature", "properties": {"hash": "a299ddcd26949df0", "number": "91", "street": "LAUREL WOOD CT", "unit": "", "city": "ROCKAWAY", "district": "", "region": "NJ", "postcode": "07866", "id": ""}, "geometry": {"type": "Point", "coordinates": [-74.5392933, 40.9055242]}}
{"type": "Feature", "properties": {"hash": "240123abbc70a571", "number": "33", "street": "DRAKEDALE RD", "unit": "", "city": "FLANDERS", "district": "", "region": "NJ", "postcode": "07836", "id": ""}, "geometry": {"type": "Point", "coordinates": [-74.7004062, 40.8652356]}}
{"type": "Feature", "properties": {"hash": "624d04cd8fdec7c9", "number": "7", "street": "PARK RD", "unit": "", "city": "MORRIS PLAINS", "district": "", "region": "NJ", "postcode": "07950", "id": ""}, "geometry": {"type": "Point", "coordinates": [-74.4730166, 40.8326444]}}
{"type": "Feature", "properties": {"hash": "660b968831559e68", "number": "7", "street": "PEMBROKE DR", "unit": "", "city": "MENDHAM", "district": "", "region": "NJ", "postcode": "07945", "id": ""}, "geometry": {"type": "Point", "coordinates": [-74.5906394, 40.7898523]}}
{"type": "Feature", "properties": {"hash": "5342bd2fa5052fb7", "number": "31", "street": "COLONIAL OAKS DR", "unit": "", "city": "OAK RIDGE", "district": "", "region": "NJ", "postcode": "07438", "id": ""}, "geometry": {"type": "Point", "coordinates": [-74.5100472, 41.043253]}}
{"type": "Feature", "properties": {"hash": "89201b2924f17760", "number": "27", "street": "LINCOLN GDNS", "unit": "", "city": "LAKE HIAWATHA", "district": "", "region": "NJ", "postcode": "07034", "id": ""}, "geometry": {"type": "Point", "coordinates": [-74.3841756, 40.8768247]}}
{"type": "Feature", "properties": {"hash": "ef8d3c5b9851aed2", "number": "8", "street": "MEADOW BROOK RD", "unit": "", "city": "CHESTER", "district": "", "region": "NJ", "postcode": "07930", "id": ""}, "geometry": {"type": "Point", "coordinates": [-74.6532306, 40.8114802]}}
{"type": "Feature", "properties": {"hash": "852562d2a6078aa1", "number": "54", "street": "BROOKSIDE AVE", "unit": "", "city": "POMPTON PLAINS", "district": "", "region": "NJ", "postcode": "07444", "id": ""}, "geometry": {"type": "Point", "coordinates": [-74.2906075, 40.9642159]}}
{"type": "Feature", "properties": {"hash": "2efbce1d9f4b6fac", "number": "6", "street": "SPRUCE LN", "unit": "", "city": "MORRISTOWN", "district": "", "region": "NJ", "postcode": "07960", "id": ""}, "geometry": {"type": "Point", "coordinates": [-74.5100464, 40.76656]}}
{"type": "Feature", "properties": {"hash": "b070b66cff757008", "number": "59", "street": "FAIRCHILD AVE", "unit": "", "city": "MORRIS PLAINS", "district": "", "region": "NJ", "postcode": "07950", "id": ""}, "geometry": {"type": "Point", "coordinates": [-74.4861883, 40.8220499]}}
{"type": "Feature", "properties": {"hash": "c0e4edb9f18a147a", "number": "11", "street": "MOUNTAIN VIEW CT", "unit": "", "city": "RIVERDALE", "district": "", "region": "NJ", "postcode": "07457", "id": ""}, "geometry": {"type": "Point", "coordinates": [-74.3251361, 40.9978473]}}
{"type": "Feature", "properties": {"hash": "9f5d21f356b59399", "number": "9", "street": "NEW ST", "unit": "", "city": "MENDHAM", "district": "", "region": "NJ", "postcode": "07945", "id": ""}, "geometry": {"type": "Point", "coordinates": [-74.6034736, 40.7737853]}}
{"type": "Feature", "properties": {"hash": "db0afa9f7d5d0ca9", "number": "49", "street": "RIDGEDALE AVE", "unit": "", "city": "EAST HANOVER", "district": "", "region": "NJ", "postcode": "07936", "id": ""}, "geometry": {"type": "Point", "coordinates": [-74.3888499, 40.8140662]}}
{"type": "Feature", "properties": {"hash": "b22d09ac94b42f38", "number": "53", "street": "NEWARK POMPTON TPKE", "unit": "", "city": "RIVERDALE", "district": "", "region": "NJ", "postcode": "07457", "id": ""}, "geometry": {"type": "Point", "coordinates": [-74.3030225, 40.9932932]}}
{"type": "Feature", "properties": {"hash": "f6d8b21d8d66d38a", "number": "25", "street": "ARMSTRONG RD", "unit": "", "city": "MORRISTOWN", "district": "", "region": "NJ", "postcode": "07960", "id": ""}, "geometry": {"type": "Point", "coordinates": [-74.4893536, 40.7762931]}}
{"type": "Feature", "properties": {"hash": "339618c601aafca2", "number": "4", "street": "LEVA DR", "unit": "", "city": "MORRISTOWN", "district": "", "region": "NJ", "postcode": "07960", "id": ""}, "geometry": {"type": "Point", "coordinates": [-74.484426, 40.768442]}}
{"type": "Feature", "properties": {"hash": "7f06ecb054f14511", "number": "44", "street": "ARROWGATE DR", "unit": "", "city": "RANDOLPH", "district": "", "region": "NJ", "postcode": "07869", "id": ""}, "geometry": {"type": "Point", "coordinates": [-74.6088637, 40.8572382]}}
{"type": "Feature", "properties": {"hash": "db4ea0c60175017c", "number": "18", "street": "BAKER AVE", "unit": "", "city": "WHARTON", "district": "", "region": "NJ", "postcode": "07885", "id": ""}, "geometry": {"type": "Point", "coordinates": [-74.5818098, 40.8968406]}}
{"type": "Feature", "properties": {"hash": "455448796e02954a", "number": "19", "street": "BRAEMAR CT", "unit": "", "city": "PARSIPPANY", "district": "", "region": "NJ", "postcode": "07054", "id": ""}, "geometry": {"type": "Point", "coordinates": [-74.444806, 40.861393]}}
{"type": "Feature", "properties": {"hash": "c199a5d45c243712", "number": "18", "street": "BARNET ST", "unit": "", "city": "ROCKAWAY", "district": "", "region": "NJ", "postcode": "07866", "id": ""}, "geometry": {"type": "Point", "coordinates": [-74.5076725, 40.908587]}}
{"type": "Feature", "properties": {"hash": "07388d49823eee83", "number": "10", "street": "REVER DR", "unit": "", "city": "FLORHAM PARK", "district": "", "region": "NJ", "postcode": "07932", "id": ""}, "geometry": {"type": "Point", "coordinates": [-74.3780465, 40.7825821]}}
{"type": "Feature", "properties": {"hash": "a928170c004421d6", "number": "30", "street": "MITCHELL RD", "unit": "", "city": "PARSIPPANY", "district": "", "region": "NJ", "postcode": "07054", "id": ""}, "geometry": {"type": "Point", "coordinates": [-74.3994245, 40.8436535]}}
{"type": "Feature", "properties": {"hash": "b0915b24c6a848b1", "number": "26", "street": "HIGHLAND AVE", "unit": "", "city": "WHIPPANY", "district": "", "region": "NJ", "postcode": "07981", "id": ""}, "geometry": {"type": "Point", "coordinates": [-74.4074981, 40.8248213]}}
{"type": "Feature", "properties": {"hash": "2f9bb0c02678b857", "number": "26", "street": "AUTUMN DR", "unit": "", "city": "MINE HILL", "district": "", "region": "NJ", "postcode": "07803", "id": ""}, "geometry": {"type": "Point", "coordinates": [-74.5970979, 40.8846389]}}
{"type": "Feature", "properties": {"hash": "d8c496cba61d6989", "number": "49", "street": "DAVENPORT PL", "unit": "", "city": "MORRISTOWN", "district": "", "region": "NJ", "postcode": "07960", "id": ""}, "geometry": {"type": "Point", "coordinates": [-74.4524913, 40.7686832]}}
{"type": "Feature", "properties": {"hash": "efd8a3c6d051d7ed", "number": "39", "street": "COLUMBIA RD", "unit": "", "city": "MORRISTOWN", "district": "", "region": "NJ", "postcode": "07960", "id": ""}, "geometry": {"type": "Point", "coordinates": [-74.4552445, 40.795573]}}
{"type": "Feature", "properties": {"hash": "b7c6717226fef742", "number": "5", "street": "MOUNTAIN RIDGE RD", "unit": "", "city": "POMPTON PLAINS", "district": "", "region": "NJ", "postcode": "07444", "id": ""}, "geometry": {"type": "Point", "coordinates": [-74.3179381, 40.9744102]}}
{"type": "Feature", "properties": {"hash": "bfc2c7bc40892226", "number": "11", "street": "FLANDERS DR", "unit": "", "city": "PINE BROOK", "district": "", "region": "NJ", "postcode": "07058", "id": ""}, "geometry": {"type": "Point", "coordinates": [-74.3577616, 40.8865792]}}
{"type": "Feature", "properties": {"hash": "8c5dca3080660e2a", "number": "78", "street": "LAKE SHORE DR", "unit": "", "city": "LAKE HIAWATHA", "district": "", "region": "NJ", "postcode": "07034", "id": ""}, "geometry": {"type": "Point", "coordinates": [-74.3709143, 40.877683]}}
{"type": "Feature", "properties": {"hash": "7d86a52e0bb713e7", "number": "14", "street": "CRESTWOOD RD", "unit": "", "city": "MORRISTOWN", "district": "", "region": "NJ", "postcode": "07960", "id": ""}, "geometry": {"type": "Point", "coordinates": [-74.4762295, 40.7896308]}}
{"type": "Feature", "properties": {"hash": "5305b05f704a6a12", "number": "26", "street": "LAURA LN", "unit": "", "city": "MORRISTOWN", "district": "", "region": "NJ", "postcode": "07960", "id": ""}, "geometry": {"type": "Point", "coordinates": [-74.4756129, 40.7681193]}}
{"type": "Feature", "properties": {"hash": "127f23e37bd3148e", "number": "21", "street": "BRANDON CT", "unit": "", "city": "BUTLER", "district": "", "region": "NJ", "postcode": "07405", "id": ""}, "geometry": {"type": "Point", "coordinates": [-74.3441072, 40.9891482]}}
{"type": "Feature", "properties": {"hash": "f5e3f419a29e8e10", "number": "1", "street": "RALSTON HILL RD", "unit": "", "city": "MENDHAM", "district": "", "region": "NJ", "postcode": "07945", "id": ""}, "geometry": {"type": "Point", "coordinates": [-74.6202004, 40.7724542]}}
{"type": "Feature", "properties": {"hash": "3202d51626d05f97", "number": "25", "street": "RADCLIFFE DR", "unit": "", "city": "SUCCASUNNA", "district": "", "region": "NJ", "postcode": "07876", "id": ""}, "geometry": {"type": "Point", "coordinates": [-74.6798953, 40.8509345]}}
{"type": "Feature", "properties": {"hash": "efb2351cc47aa73c", "number": "9", "street": "WOODSEDGE AVE", "unit": "", "city": "BUDD LAKE", "district": "", "region": "NJ", "postcode": "07828", "id": ""}, "geometry": {"type": "Point", "coordinates": [-74.739653, 40.8672073]}}
{"type": "Feature", "properties": {"hash": "72f9759ea3b80f31", "number": "29", "street": "MOUNTAIN AVE", "unit": "", "city": "MONTVILLE", "district": "", "region": "NJ", "postcode": "07045", "id": ""}, "geometry": {"type": "Point", "coordinates": [-74.3563396, 40.908268]}}
{"type": "Feature", "properties": {"hash": "dacbeef8b7a4ea4f", "number": "49", "street": "VAN WYCK RD", "unit": "", "city": "LAKE HIAWATHA", "district": "", "region": "NJ", "postcode": "07034", "id": ""}, "geometry": {"type": "Point", "coordinates": [-74.3862982, 40.8880799]}}
{"type": "Feature", "properties": {"hash": "6fd4cb6159e2fe1d", "number": "2", "street": "MCCAFFREY LN", "unit": "", "city": "BOONTON", "district": "", "region": "NJ", "postcode": "07005", "id": ""}, "geometry": {"type": "Point", "coordinates": [-74.4270786, 40.9084121]}}
{"type": "Feature", "properties": {"hash": "32157154cca3c44b", "number": "12", "street": "SYCAMORE LN", "unit": "", "city": "LONG VALLEY", "district": "", "region": "NJ", "postcode": "07853", "id": ""}, "geometry": {"type": "Point", "coordinates": [-74.7880164, 40.8139795]}}
{"type": "Feature", "properties": {"hash": "ec7d67b504bb1253", "number": "25", "street": "MACKENZIE LN N", "unit": "", "city": "DENVILLE", "district": "", "region": "NJ", "postcode": "07834", "id": ""}, "geometry": {"type": "Point", "coordinates": [-74.5085283, 40.8825241]}}
{"type": "Feature", "properties": {"hash": "b9a44c0ecc7eb2be", "number": "61", "street": "PARK AVE", "unit": "", "city": "RANDOLPH", "district": "", "region": "NJ", "postcode": "07869", "id": ""}, "geometry": {"type": "Point", "coordinates": [-74.6245836, 40.844476]}}
{"type": "Feature", "properties": {"hash": "b8f4533ee200bbb0", "number": "56", "street": "VILLAGE GRN", "unit": "APT J", "city": "BUDD LAKE", "district": "", "region": "NJ", "postcode": "07828", "id": ""}, "geometry": {"type": "Point", "coordinates": [-74.7244323, 40.8894099]}}
{"type": "Feature", "properties": {"hash": "b2b126ed117dfb05", "number": "1", "street": "CEDAR CREST VILLAGE DR", "unit": "UNIT 213", "city": "POMPTON PLAINS", "district": "", "region": "NJ", "postcode": "07444", "id": ""}, "geometry": {"type": "Point", "coordinates": [-74.3252114, 40.9836293]}}
{"type": "Feature", "properties": {"hash": "216800e9bbe89c7a", "number": "35", "street": "TILLEY AVE", "unit": "", "city": "POMPTON PLAINS", "district": "", "region": "NJ", "postcode": "07444", "id": ""}, "geometry": {"type": "Point", "coordinates": [-74.298822, 40.9569088]}}
{"type": "Feature", "properties": {"hash": "0ca9a471b913aa7a", "number": "76", "street": "PRINCETON AVE", "unit": "APT 2FL", "city": "DOVER", "district": "", "region": "NJ", "postcode": "07801", "id": ""}, "geometry": {"type": "Point", "coordinates": [-74.5705717, 40.8885169]}}
{"type": "Feature", "properties": {"hash": "5fdb5ed9f7a812b6", "number": "26", "street": "POLHEMUS TER", "unit": "", "city": "WHIPPANY", "district": "", "region": "NJ", "postcode": "07981", "id": ""}, "geometry": {"type": "Point", "coordinates": [-74.4059518, 40.8261799]}}
{"type": "Feature", "properties": {"hash": "ecf6f73aed070952", "number": "18", "street": "COLLES AVE", "unit": "", "city": "MORRISTOWN", "district": "", "region": "NJ", "postcode": "07960", "id": ""}, "geometry": {"type": "Point", "coordinates": [-74.483743, 40.7923957]}}
{"type": "Feature", "properties": {"hash": "4ea3998c4ab14ad4", "number": "2", "street": "KNAPP AVE", "unit": "", "city": "FLORHAM PARK", "district": "", "region": "NJ", "postcode": "07932", "id": ""}, "geometry": {"type": "Point", "coordinates": [-74.3911992, 40.7780339]}}
{"type": "Feature", "properties": {"hash": "9d870e6ab8b4f218", "number": "16", "street": "CHESTER BROOK RD", "unit": "", "city": "CHESTER", "district": "", "region": "NJ", "postcode": "07930", "id": ""}, "geometry": {"type": "Point", "coordinates": [-74.7292422, 40.7861697]}}
{"type": "Feature", "properties": {"hash": "b59e93c751677509", "number": "22", "street": "RUSTIC RIDGE RD", "unit": "", "city": "RANDOLPH", "district": "", "region": "NJ", "postcode": "07869", "id": ""}, "geometry": {"type": "Point", "coordinates": [-74.5330366, 40.8672806]}}
{"type": "Feature", "properties": {"hash": "0bb345c0cccb63e5", "number": "44", "street": "FRANKLIN AVE", "unit": "", "city": "POMPTON PLAINS", "district": "", "region": "NJ", "postcode": "07444", "id": ""}, "geometry": {"type": "Point", "coordinates": [-74.3001306, 40.9660868]}}
{"type": "Feature", "properties": {"hash": "221d1290a21611bd", "number": "24", "street": "2ND LT JT WROBLEWSKI LN", "unit": "", "city": "OAK RIDGE", "district": "", "region": "NJ", "postcode": "07438", "id": ""}, "geometry": {"type": "Point", "coordinates": [-74.4896826, 41.026287]}}
{"type": "Feature", "properties": {"hash": "be8e75bcacde33cc", "number": "1", "street": "GREGORY TER", "unit": "", "city": "MORRISTOWN", "district": "", "region": "NJ", "postcode": "07960", "id": ""}, "geometry": {"type": "Point", "coordinates": [-74.4759417, 40.810055]}}
{"type": "Feature", "properties": {"hash": "619f0e18f0032a5c", "number": "11", "street": "JOHNSON DR", "unit": "", "city": "CHATHAM", "district": "", "region": "NJ", "postcode": "07928", "id": ""}, "geometry": {"type": "Point", "coordinates": [-74.4287961, 40.7024641]}}
{"type": "Feature", "properties": {"hash": "c0f7bb4f1349ca59", "number": "1", "street": "CEDAR CREST VILLAGE DR", "unit": "UNIT 701", "city": "POMPTON PLAINS", "district": "", "region": "NJ", "postcode": "07444", "id": ""}, "geometry": {"type": "Point", "coordinates": [-74.3271529, 40.9854252]}}
{"type": "Feature", "properties": {"hash": "9fefa628aefc88b5", "number": "1", "street": "MACKENZIE LN", "unit": "", "city": "OAK RIDGE", "district": "", "region": "NJ", "postcode": "07438", "id": ""}, "geometry": {"type": "Point", "coordinates": [-74.4916592, 41.0231748]}}
{"type": "Feature", "properties": {"hash": "03e5280f0d16e03b", "number": "70", "street": "NOKOMIS AVE", "unit": "", "city": "LAKE HIAWATHA", "district": "", "region": "NJ", "postcode": "07034", "id": ""}, "geometry": {"type": "Point", "coordinates": [-74.380979, 40.8818997]}}
{"type": "Feature", "properties": {"hash": "bff3721c966c06f0", "number": "20", "street": "CROSS ST", "unit": "", "city": "MADISON", "district": "", "region": "NJ", "postcode": "07940", "id": ""}, "geometry": {"type": "Point", "coordinates": [-74.4086715, 40.7530147]}}
{"type": "Feature", "properties": {"hash": "c88495e40affb808", "number": "58", "street": "ATLANTIC DR", "unit": "", "city": "PARSIPPANY", "district": "", "region": "NJ", "postcode": "07054", "id": ""}, "geometry": {"type": "Point", "coordinates": [-74.4386009, 40.8545609]}}
{"type": "Feature", "properties": {"hash": "171eec0caaabb140", "number": "7", "street": "N OAK CT", "unit": "", "city": "MADISON", "district": "", "region": "NJ", "postcode": "07940", "id": ""}, "geometry": {"type": "Point", "coordinates": [-74.4418055, 40.7760003]}}
{"type": "Feature", "properties": {"hash": "02ec1b6deb2f0e75", "number": "68", "street": "IRONIA RD", "unit": "", "city": "MENDHAM", "district": "", "region": "NJ", "postcode": "07945", "id": ""}, "geometry": {"type": "Point", "coordinates": [-74.6278043, 40.7908028]}}
{"type": "Feature", "properties": {"hash": "7a69f16019bd8beb", "number": "71", "street": "INTERNATIONAL DR S", "unit": "RM 208", "city": "BUDD LAKE", "district": "", "region": "NJ", "postcode": "07828", "id": ""}, "geometry": {"type": "Point", "coordinates": [-74.7180702, 40.8873881]}}
{"type": "Feature", "properties": {"hash": "c6a2cc86cb41190e", "number": "37", "street": "ATNO AVE", "unit": "", "city": "MORRISTOWN", "district": "", "region": "NJ", "postcode": "07960", "id": ""}, "geometry": {"type": "Point", "coordinates": [-74.4848652, 40.8009196]}}
{"type": "Feature", "properties": {"hash": "c0f325d445c4e43f", "number": "35", "street": "IRONIA RD", "unit": "", "city": "FLANDERS", "district": "", "region": "NJ", "postcode": "07836", "id": ""}, "geometry": {"type": "Point", "coordinates": [-74.6874045, 40.8351355]}}
{"type": "Feature", "properties": {"hash": "fb0e49be0970a8e6", "number": "44", "street": "SCHOOL HOUSE RD", "unit": "", "city": "RANDOLPH", "district": "", "region": "NJ", "postcode": "07869", "id": ""}, "geometry": {"type": "Point", "coordinates": [-74.5750595, 40.8459715]}}
{"type": "Feature", "properties": {"hash": "0280efa7c26c4bb3", "number": "42", "street": "SCHOOL HOUSE RD", "unit": "", "city": "RANDOLPH", "district": "", "region": "NJ", "postcode": "07869", "id": ""}, "geometry": {"type": "Point", "coordinates": [-74.5747712, 40.8456759]}}
{"type": "Feature", "properties": {"hash": "5bd1f637179739e6", "number": "25", "street": "MAC LEAY RD", "unit": "", "city": "MONTVILLE", "district": "", "region": "NJ", "postcode": "07045", "id": ""}, "geometry": {"type": "Point", "coordinates": [-74.3832201, 40.9209719]}}
