{"type": "Feature", "properties": {"id": "", "unit": "", "number": "122", "street": "10TH ST", "city": "CARLIN", "district": "", "region": "NV", "postcode": "89822", "hash": "14b5b3a0965bd85d"}, "geometry": {"type": "Point", "coordinates": [-116.105079, 40.7151398]}}
{"type": "Feature", "properties": {"id": "", "unit": "", "number": "123", "street": "S 10TH ST", "city": "ELKO", "district": "", "region": "NV", "postcode": "89801", "hash": "a9c508832d8575b0"}, "geometry": {"type": "Point", "coordinates": [-115.7552304, 40.8344468]}}
{"type": "Feature", "properties": {"id": "", "unit": "", "number": "131", "street": "10TH ST", "city": "CARLIN", "district": "", "region": "NV", "postcode": "89822", "hash": "344510bdf8ff1909"}, "geometry": {"type": "Point", "coordinates": [-116.1047886, 40.7153744]}}
{"type": "Feature", "properties": {"id": "", "unit": "", "number": "150", "street": "10TH ST", "city": "ELKO", "district": "", "region": "NV", "postcode": "89801", "hash": "adeac77f1b2e720c"}, "geometry": {"type": "Point", "coordinates": [-115.7558713, 40.8349379]}}
{"type": "Feature", "properties": {"id": "", "unit": "", "number": "151", "street": "10TH ST", "city": "CARLIN", "district": "", "region": "NV", "postcode": "89822", "hash": "40eebdf344f5302b"}, "geometry": {"type": "Point", "coordinates": [-116.1049135, 40.7155489]}}
{"type": "Feature", "properties": {"id": "", "unit": "", "number": "171", "street": "10TH ST", "city": "CARLIN", "district": "", "region": "NV", "postcode": "89822", "hash": "ec2614901260902b"}, "geometry": {"type": "Point", "coordinates": [-116.1049892, 40.7156528]}}
{"type": "Feature", "properties": {"id": "", "unit": "", "number": "172", "street": "10TH ST", "city": "CARLIN", "district": "", "region": "NV", "postcode": "89822", "hash": "4ff9fbd4ca5a729f"}, "geometry": {"type": "Point", "coordinates": [-116.1053317, 40.7155134]}}
{"type": "Feature", "properties": {"id": "", "unit": "", "number": "185", "street": "10TH ST", "city": "ELKO", "district": "", "region": "NV", "postcode": "89801", "hash": "9a78f1e6263ea682"}, "geometry": {"type": "Point", "coordinates": [-115.7562803, 40.8348117]}}
{"type": "Feature", "properties": {"id": "", "unit": "", "number": "203", "street": "S 10TH ST", "city": "ELKO", "district": "", "region": "NV", "postcode": "89801", "hash": "b93e6885bd9cdfa1"}, "geometry": {"type": "Point", "coordinates": [-115.7544478, 40.8340554]}}
{"type": "Feature", "properties": {"id": "", "unit": "", "number": "232", "street": "S 10TH ST", "city": "ELKO", "district": "", "region": "NV", "postcode": "89801", "hash": "6a24b37ed0a29238"}, "geometry": {"type": "Point", "coordinates": [-115.754775, 40.8337427]}}
{"type": "Feature", "properties": {"id": "", "unit": "", "number": "245", "street": "10TH ST", "city": "ELKO", "district": "", "region": "NV", "postcode": "89801", "hash": "99f57864d4df6d1a"}, "geometry": {"type": "Point", "coordinates": [-115.757041, 40.8351351]}}
{"type": "Feature", "properties": {"id": "", "unit": "", "number": "411", "street": "10TH ST", "city": "ELKO", "district": "", "region": "NV", "postcode": "89801", "hash": "4f95e5884965433b"}, "geometry": {"type": "Point", "coordinates": [-115.7589602, 40.8365576]}}
{"type": "Feature", "properties": {"id": "", "unit": "", "number": "444", "street": "10TH ST", "city": "WELLS", "district": "", "region": "NV", "postcode": "89835", "hash": "b077426bebfaa572"}, "geometry": {"type": "Point", "coordinates": [-114.9611252, 41.1134974]}}
{"type": "Feature", "properties": {"id": "", "unit": "", "number": "462", "street": "10TH ST", "city": "ELKO", "district": "", "region": "NV", "postcode": "89801", "hash": "a3db53d5d1853730"}, "geometry": {"type": "Point", "coordinates": [-115.7589865, 40.8369377]}}
{"type": "Feature", "properties": {"id": "", "unit": "", "number": "472", "street": "10TH ST", "city": "WELLS", "district": "", "region": "NV", "postcode": "89835", "hash": "c9c44b0c307f3b7c"}, "geometry": {"type": "Point", "coordinates": [-114.961321, 41.1136186]}}
{"type": "Feature", "properties": {"id": "", "unit": "", "number": "486", "street": "10TH ST", "city": "WELLS", "district": "", "region": "NV", "postcode": "89835", "hash": "0e6683d49428806f"}, "geometry": {"type": "Point", "coordinates": [-114.9607528, 41.1131613]}}
{"type": "Feature", "properties": {"id": "", "unit": "", "number": "6499", "street": "AMARGOSA ST", "city": "WEST BULLION", "district": "", "region": "NV", "postcode": "89801", "hash": "8567b28ede75db5d"}, "geometry": {"type": "Point", "coordinates": [-115.8625784, 40.7538232]}}
{"type": "Feature", "properties": {"id": "", "unit": "", "number": "655", "street": "S 10TH ST", "city": "ELKO", "district": "", "region": "NV", "postcode": "89801", "hash": "d552abd07ccf68ec"}, "geometry": {"type": "Point", "coordinates": [-115.7485701, 40.8299239]}}
{"type": "Feature", "properties": {"id": "", "unit": "", "number": "675", "street": "S 10TH ST", "city": "ELKO", "district": "", "region": "NV", "postcode": "89801", "hash": "5e284b932cb42d5d"}, "geometry": {"type": "Point", "coordinates": [-115.7484335, 40.829828]}}
{"type": "Feature", "properties": {"id": "", "unit": "", "number": "695", "street": "S 10TH ST", "city": "ELKO", "district": "", "region": "NV", "postcode": "89801", "hash": "0954e5e41d9cafd1"}, "geometry": {"type": "Point", "coordinates": [-115.7482561, 40.8296972]}}
{"type": "Feature", "properties": {"id": "", "unit": "", "number": "932", "street": "CHESTNUT ST", "city": "CARLIN", "district": "", "region": "NV", "postcode": "89822", "hash": "4df4e99986f0fd45"}, "geometry": {"type": "Point", "coordinates": [-116.107749, 40.718524]}}
{"type": "Feature", "properties": {"id": "", "unit": "", "number": "791", "street": "10TH ST", "city": "CARLIN", "district": "", "region": "NV", "postcode": "89822", "hash": "afd3aec1e97e8ed4"}, "geometry": {"type": "Point", "coordinates": [-116.1061781, 40.7197197]}}
{"type": "Feature", "properties": {"id": "", "unit": "", "number": "832", "street": "10TH ST", "city": "WELLS", "district": "", "region": "NV", "postcode": "89835", "hash": "0bc552feb013ff45"}, "geometry": {"type": "Point", "coordinates": [-114.9539766, 41.1113856]}}
{"type": "Feature", "properties": {"id": "", "unit": "", "number": "858", "street": "10TH ST", "city": "WELLS", "district": "", "region": "NV", "postcode": "89835", "hash": "ff94e384e3e8e3e3"}, "geometry": {"type": "Point", "coordinates": [-114.9534436, 41.11143]}}
{"type": "Feature", "properties": {"id": "", "unit": "", "number": "101", "street": "11TH ST", "city": "CARLIN", "district": "", "region": "NV", "postcode": "89822", "hash": "fcf464c8a652818a"}, "geometry": {"type": "Point", "coordinates": [-116.1035378, 40.7157431]}}
{"type": "Feature", "properties": {"id": "", "unit": "", "number": "112", "street": "S 11TH ST", "city": "ELKO", "district": "", "region": "NV", "postcode": "89801", "hash": "4c8db024ae425416"}, "geometry": {"type": "Point", "coordinates": [-115.7543486, 40.835192]}}
{"type": "Feature", "properties": {"id": "", "unit": "", "number": "145", "street": "11TH ST", "city": "ELKO", "district": "", "region": "NV", "postcode": "89801", "hash": "1409f650859a1cb4"}, "geometry": {"type": "Point", "coordinates": [-115.7552013, 40.8354344]}}
{"type": "Feature", "properties": {"id": "", "unit": "", "number": "162", "street": "S 11TH ST", "city": "ELKO", "district": "", "region": "NV", "postcode": "89801", "hash": "512682e72c4f1470"}, "geometry": {"type": "Point", "coordinates": [-115.7542904, 40.8353877]}}
{"type": "Feature", "properties": {"id": "", "unit": "", "number": "175", "street": "S 11TH ST", "city": "ELKO", "district": "", "region": "NV", "postcode": "89801", "hash": "f4fa81cde4a0b502"}, "geometry": {"type": "Point", "coordinates": [-115.7539655, 40.8351665]}}
{"type": "Feature", "properties": {"id": "", "unit": "", "number": "182", "street": "11TH ST", "city": "CARLIN", "district": "", "region": "NV", "postcode": "89822", "hash": "ccd9bce0ae88684a"}, "geometry": {"type": "Point", "coordinates": [-116.10411, 40.7159155]}}
{"type": "Feature", "properties": {"id": "", "unit": "", "number": "215", "street": "S 11TH ST", "city": "ELKO", "district": "", "region": "NV", "postcode": "89801", "hash": "6754ae781a99309c"}, "geometry": {"type": "Point", "coordinates": [-115.7537587, 40.8348607]}}
{"type": "Feature", "properties": {"id": "", "unit": "", "number": "215 1/2", "street": "S 11TH ST", "city": "ELKO", "district": "", "region": "NV", "postcode": "89801", "hash": "02f6f9021604d068"}, "geometry": {"type": "Point", "coordinates": [-115.7536121, 40.8347731]}}
{"type": "Feature", "properties": {"id": "", "unit": "", "number": "251", "street": "11TH ST", "city": "CARLIN", "district": "", "region": "NV", "postcode": "89822", "hash": "86ffb997bb3495e6"}, "geometry": {"type": "Point", "coordinates": [-116.1043018, 40.7167924]}}
{"type": "Feature", "properties": {"id": "", "unit": "", "number": "255", "street": "11TH ST", "city": "ELKO", "district": "", "region": "NV", "postcode": "89801", "hash": "3b3fc01ea73c0f1a"}, "geometry": {"type": "Point", "coordinates": [-115.7560431, 40.8360301]}}
{"type": "Feature", "properties": {"id": "", "unit": "B", "number": "255", "street": "11TH ST", "city": "ELKO", "district": "", "region": "NV", "postcode": "89801", "hash": "d1babb05e86c271f"}, "geometry": {"type": "Point", "coordinates": [-115.7562205, 40.8357959]}}
{"type": "Feature", "properties": {"id": "", "unit": "", "number": "276", "street": "11TH ST", "city": "ELKO", "district": "", "region": "NV", "postcode": "89801", "hash": "5aef59c6a8555d18"}, "geometry": {"type": "Point", "coordinates": [-115.7559822, 40.8365676]}}
{"type": "Feature", "properties": {"id": "", "unit": "", "number": "282", "street": "11TH ST", "city": "ELKO", "district": "", "region": "NV", "postcode": "89801", "hash": "b7c19d78314f6e25"}, "geometry": {"type": "Point", "coordinates": [-115.7563211, 40.8365918]}}
{"type": "Feature", "properties": {"id": "", "unit": "", "number": "311", "street": "11TH ST", "city": "CARLIN", "district": "", "region": "NV", "postcode": "89822", "hash": "17ec20d62ced98e9"}, "geometry": {"type": "Point", "coordinates": [-116.1045234, 40.7172244]}}
{"type": "Feature", "properties": {"id": "", "unit": "", "number": "330", "street": "11TH ST", "city": "ELKO", "district": "", "region": "NV", "postcode": "89801", "hash": "bcbaaf4bbad83bad"}, "geometry": {"type": "Point", "coordinates": [-115.7567254, 40.8370983]}}
{"type": "Feature", "properties": {"id": "", "unit": "STE 112", "number": "331", "street": "11TH ST", "city": "ELKO", "district": "", "region": "NV", "postcode": "89801", "hash": "bf85e4b6f0592e2a"}, "geometry": {"type": "Point", "coordinates": [-115.7570849, 40.8367182]}}
{"type": "Feature", "properties": {"id": "", "unit": "", "number": "362", "street": "11TH ST", "city": "CARLIN", "district": "", "region": "NV", "postcode": "89822", "hash": "78f6a70e3d5c42a7"}, "geometry": {"type": "Point", "coordinates": [-116.1052034, 40.7173256]}}
{"type": "Feature", "properties": {"id": "", "unit": "", "number": "371", "street": "11TH ST", "city": "CARLIN", "district": "", "region": "NV", "postcode": "89822", "hash": "42f06abe3fab0830"}, "geometry": {"type": "Point", "coordinates": [-116.1046936, 40.7175331]}}
{"type": "Feature", "properties": {"id": "", "unit": "", "number": "376", "street": "11TH ST", "city": "ELKO", "district": "", "region": "NV", "postcode": "89801", "hash": "afa415c24829e838"}, "geometry": {"type": "Point", "coordinates": [-115.7572662, 40.8373095]}}
{"type": "Feature", "properties": {"id": "", "unit": "", "number": "549", "street": "11TH ST", "city": "ELKO", "district": "", "region": "NV", "postcode": "89801", "hash": "716497d16959ae5b"}, "geometry": {"type": "Point", "coordinates": [-115.7591031, 40.8379566]}}
{"type": "Feature", "properties": {"id": "", "unit": "", "number": "552", "street": "11TH ST", "city": "ELKO", "district": "", "region": "NV", "postcode": "89801", "hash": "ef29963a1cf385dc"}, "geometry": {"type": "Point", "coordinates": [-115.7589509, 40.8385031]}}
{"type": "Feature", "properties": {"id": "", "unit": "", "number": "570", "street": "11TH ST", "city": "ELKO", "district": "", "region": "NV", "postcode": "89801", "hash": "2927635a1c2c2464"}, "geometry": {"type": "Point", "coordinates": [-115.759084, 40.8385955]}}
{"type": "Feature", "properties": {"id": "", "unit": "", "number": "575", "street": "11TH ST", "city": "ELKO", "district": "", "region": "NV", "postcode": "89801", "hash": "b11db1b8ffc7a426"}, "geometry": {"type": "Point", "coordinates": [-115.7592216, 40.8380223]}}
{"type": "Feature", "properties": {"id": "", "unit": "", "number": "576", "street": "11TH ST", "city": "ELKO", "district": "", "region": "NV", "postcode": "89801", "hash": "e2718276e6b0766d"}, "geometry": {"type": "Point", "coordinates": [-115.7592261, 40.8386914]}}
{"type": "Feature", "properties": {"id": "", "unit": "", "number": "581", "street": "11TH ST", "city": "ELKO", "district": "", "region": "NV", "postcode": "89801", "hash": "ee4c1627e228e7fb"}, "geometry": {"type": "Point", "coordinates": [-115.7594153, 40.8381538]}}
{"type": "Feature", "properties": {"id": "", "unit": "3", "number": "581", "street": "11TH ST", "city": "ELKO", "district": "", "region": "NV", "postcode": "89801", "hash": "565c2c217a0bdb80"}, "geometry": {"type": "Point", "coordinates": [-115.7593078, 40.8381381]}}
{"type": "Feature", "properties": {"hash": "d2632bc75e755a0a", "number": "9565", "street": "GREENLEAF CT", "unit": "", "city": "RENO", "district": "WASHOE", "region": "NV", "postcode": "89506", "id": ""}, "geometry": {"type": "Point", "coordinates": [-119.8764823, 39.6309916]}}
{"type": "Feature", "properties": {"hash": "59d1b17a96fb11fd", "number": "9509", "street": "LONG RIVER DR", "unit": "", "city": "RENO", "district": "WASHOE", "region": "NV", "postcode": "89506", "id": ""}, "geometry": {"type": "Point", "coordinates": [-119.8725611, 39.6310296]}}
{"type": "Feature", "properties": {"hash": "b9faa6d0945ea605", "number": "8077", "street": "ANCHOR POINT DR", "unit": "", "city": "RENO", "district": "WASHOE", "region": "NV", "postcode": "89506", "id": ""}, "geometry": {"type": "Point", "coordinates": [-119.9112483, 39.6324031]}}
{"type": "Feature", "properties": {"hash": "7f40e70afdf91d89", "number": "8225", "street": "SHIFTING SANDS DR", "unit": "", "city": "RENO", "district": "WASHOE", "region": "NV", "postcode": "89506", "id": ""}, "geometry": {"type": "Point", "coordinates": [-119.9141361, 39.6322669]}}
{"type": "Feature", "properties": {"hash": "82ff2038b439c71f", "number": "8038", "street": "ANCHOR POINT DR", "unit": "", "city": "RENO", "district": "WASHOE", "region": "NV", "postcode": "89506", "id": ""}, "geometry": {"type": "Point", "coordinates": [-119.9105154, 39.6322663]}}
{"type": "Feature", "properties": {"hash": "0b58ead8e73307b8", "number": "3400", "street": "BECARD LN", "unit": "", "city": "RENO", "district": "WASHOE", "region": "NV", "postcode": "89508", "id": ""}, "geometry": {"type": "Point", "coordinates": [-119.9612952, 39.6706221]}}
{"type": "Feature", "properties": {"hash": "f2803465977e20b4", "number": "2405", "street": "MAMMATUS DR", "unit": "", "city": "SPARKS", "district": "WASHOE", "region": "NV", "postcode": "89441", "id": ""}, "geometry": {"type": "Point", "coordinates": [-119.7202837, 39.6730961]}}
{"type": "Feature", "properties": {"hash": "16fb75d8e0f244d6", "number": "1640", "street": "BILLOW DR", "unit": "", "city": "SPARKS", "district": "WASHOE", "region": "NV", "postcode": "89441", "id": ""}, "geometry": {"type": "Point", "coordinates": [-119.7184998, 39.6731611]}}
{"type": "Feature", "properties": {"hash": "141b26067f86168c", "number": "1042", "street": "FUGGLES DR", "unit": "", "city": "SPARKS", "district": "WASHOE", "region": "NV", "postcode": "89441", "id": ""}, "geometry": {"type": "Point", "coordinates": [-119.7324361, 39.6578526]}}
{"type": "Feature", "properties": {"hash": "d86ccb0aad8f95b1", "number": "2395", "street": "LENTICULAR DR", "unit": "", "city": "SPARKS", "district": "WASHOE", "region": "NV", "postcode": "89441", "id": ""}, "geometry": {"type": "Point", "coordinates": [-119.7215908, 39.6735752]}}
{"type": "Feature", "properties": {"hash": "890b65d0fa719b5e", "number": "355", "street": "MOONBEAM DR", "unit": "", "city": "SPARKS", "district": "WASHOE", "region": "NV", "postcode": "89441", "id": ""}, "geometry": {"type": "Point", "coordinates": [-119.6964623, 39.6581365]}}
{"type": "Feature", "properties": {"hash": "42ae49a365e9fe32", "number": "293", "street": "OMNI DR", "unit": "", "city": "SPARKS", "district": "WASHOE", "region": "NV", "postcode": "89441", "id": ""}, "geometry": {"type": "Point", "coordinates": [-119.6866044, 39.6580627]}}
{"type": "Feature", "properties": {"hash": "a04827835ff7aa06", "number": "289", "street": "OMNI DR", "unit": "", "city": "SPARKS", "district": "WASHOE", "region": "NV", "postcode": "89441", "id": ""}, "geometry": {"type": "Point", "coordinates": [-119.6860072, 39.6586016]}}
{"type": "Feature", "properties": {"hash": "1729154bc6e6f872", "number": "1095", "street": "SPOONBILL CT", "unit": "", "city": "SPARKS", "district": "WASHOE", "region": "NV", "postcode": "89441", "id": ""}, "geometry": {"type": "Point", "coordinates": [-119.7243725, 39.6581125]}}
{"type": "Feature", "properties": {"hash": "45b9861e7d9913e6", "number": "3410", "street": "BECARD LN", "unit": "", "city": "RENO", "district": "WASHOE", "region": "NV", "postcode": "89508", "id": ""}, "geometry": {"type": "Point", "coordinates": [-119.9616036, 39.6707977]}}
{"type": "Feature", "properties": {"hash": "052b3798618c8a0d", "number": "10180", "street": "SHENANDOAH DR", "unit": "", "city": "RENO", "district": "WASHOE", "region": "NV", "postcode": "89508", "id": ""}, "geometry": {"type": "Point", "coordinates": [-119.9080334, 39.6711061]}}
{"type": "Feature", "properties": {"hash": "3a290f03245da7f3", "number": "1630", "street": "BILLOW DR", "unit": "", "city": "SPARKS", "district": "WASHOE", "region": "NV", "postcode": "89441", "id": ""}, "geometry": {"type": "Point", "coordinates": [-119.7184307, 39.6729368]}}
{"type": "Feature", "properties": {"hash": "df28a3ea0ecc037a", "number": "2385", "street": "CONTRAIL ST", "unit": "", "city": "SPARKS", "district": "WASHOE", "region": "NV", "postcode": "89441", "id": ""}, "geometry": {"type": "Point", "coordinates": [-119.720141, 39.6720736]}}
{"type": "Feature", "properties": {"hash": "a13783f24cd837e2", "number": "10125", "street": "BODIE DR", "unit": "", "city": "RENO", "district": "WASHOE", "region": "NV", "postcode": "89508", "id": ""}, "geometry": {"type": "Point", "coordinates": [-119.9067284, 39.6611955]}}
{"type": "Feature", "properties": {"hash": "97de194c4870ff05", "number": "7630", "street": "ROLLING CLOUDS DR", "unit": "", "city": "RENO", "district": "WASHOE", "region": "NV", "postcode": "89506", "id": ""}, "geometry": {"type": "Point", "coordinates": [-119.9048635, 39.6325397]}}
{"type": "Feature", "properties": {"hash": "4aa0fb144d7058a0", "number": "8235", "street": "SHIFTING SANDS DR", "unit": "", "city": "RENO", "district": "WASHOE", "region": "NV", "postcode": "89506", "id": ""}, "geometry": {"type": "Point", "coordinates": [-119.914311, 39.6322419]}}
{"type": "Feature", "properties": {"hash": "a6fd1cdb26c1f062", "number": "7961", "street": "BIG RIVER DR", "unit": "", "city": "RENO", "district": "WASHOE", "region": "NV", "postcode": "89506", "id": ""}, "geometry": {"type": "Point", "coordinates": [-119.909271, 39.6322791]}}
{"type": "Feature", "properties": {"hash": "48aa8930cd9fa2b0", "number": "10010", "street": "PURPLE SAGE DR", "unit": "", "city": "RENO", "district": "WASHOE", "region": "NV", "postcode": "89506", "id": ""}, "geometry": {"type": "Point", "coordinates": [-119.8777959, 39.6310486]}}
{"type": "Feature", "properties": {"hash": "a996302d80f5e6b1", "number": "11270", "street": "WHITE SAGE DR", "unit": "", "city": "RENO", "district": "WASHOE", "region": "NV", "postcode": "89506", "id": ""}, "geometry": {"type": "Point", "coordinates": [-119.8781372, 39.631028]}}
{"type": "Feature", "properties": {"hash": "405bad3d159cfe93", "number": "9660", "street": "BRIGHTRIDGE DR", "unit": "", "city": "RENO", "district": "WASHOE", "region": "NV", "postcode": "89506", "id": ""}, "geometry": {"type": "Point", "coordinates": [-119.8764926, 39.6326422]}}
{"type": "Feature", "properties": {"hash": "e07a54d26efa0375", "number": "9708", "street": "AUTUMN LEAF WAY", "unit": "", "city": "RENO", "district": "WASHOE", "region": "NV", "postcode": "89506", "id": ""}, "geometry": {"type": "Point", "coordinates": [-119.8680868, 39.6326584]}}
{"type": "Feature", "properties": {"hash": "317d6a4c842ca6dc", "number": "1037", "street": "TURTLEDOVE CT", "unit": "", "city": "SPARKS", "district": "WASHOE", "region": "NV", "postcode": "89441", "id": ""}, "geometry": {"type": "Point", "coordinates": [-119.7231599, 39.6576689]}}
{"type": "Feature", "properties": {"hash": "01b35e50c54ae9ff", "number": "1033", "street": "TURTLEDOVE CT", "unit": "", "city": "SPARKS", "district": "WASHOE", "region": "NV", "postcode": "89441", "id": ""}, "geometry": {"type": "Point", "coordinates": [-119.7232045, 39.6574219]}}
{"type": "Feature", "properties": {"hash": "ff02578291bb8d5b", "number": "983", "street": "YELLOWHAMMER CT", "unit": "", "city": "SPARKS", "district": "WASHOE", "region": "NV", "postcode": "89441", "id": ""}, "geometry": {"type": "Point", "coordinates": [-119.7220237, 39.6574222]}}
{"type": "Feature", "properties": {"hash": "3627641b7c203a12", "number": "2346", "street": "RUDDY WAY", "unit": "", "city": "SPARKS", "district": "WASHOE", "region": "NV", "postcode": "89441", "id": ""}, "geometry": {"type": "Point", "coordinates": [-119.7145425, 39.670657]}}
{"type": "Feature", "properties": {"hash": "18ad4fdf2b100a4b", "number": "3942", "street": "BOUNDARY PEAK CT", "unit": "", "city": "RENO", "district": "WASHOE", "region": "NV", "postcode": "89508", "id": ""}, "geometry": {"type": "Point", "coordinates": [-119.9860839, 39.6803301]}}
{"type": "Feature", "properties": {"hash": "47283de84fde16b1", "number": "1255", "street": "CALLE DE LA PLATA", "unit": "", "city": "SPARKS", "district": "WASHOE", "region": "NV", "postcode": "89441", "id": ""}, "geometry": {"type": "Point", "coordinates": [-119.6613243, 39.6830399]}}
{"type": "Feature", "properties": {"hash": "692a5e516e98bfba", "number": "4018", "street": "WHITE ROCK CT", "unit": "", "city": "RENO", "district": "WASHOE", "region": "NV", "postcode": "89508", "id": ""}, "geometry": {"type": "Point", "coordinates": [-119.9918959, 39.681054]}}
{"type": "Feature", "properties": {"hash": "d67b5985622835f3", "number": "1094", "street": "SPOONBILL CT", "unit": "", "city": "SPARKS", "district": "WASHOE", "region": "NV", "postcode": "89441", "id": ""}, "geometry": {"type": "Point", "coordinates": [-119.7238337, 39.6581219]}}
{"type": "Feature", "properties": {"hash": "a0ade558d785541d", "number": "20997", "street": "NINE MILE CT", "unit": "", "city": "RENO", "district": "WASHOE", "region": "NV", "postcode": "89508", "id": ""}, "geometry": {"type": "Point", "coordinates": [-119.995986, 39.6811321]}}
{"type": "Feature", "properties": {"hash": "66b786ab14cbe6b3", "number": "17235", "street": "WHIPPOORWILL LN", "unit": "", "city": "RENO", "district": "WASHOE", "region": "NV", "postcode": "89508", "id": ""}, "geometry": {"type": "Point", "coordinates": [-119.9605458, 39.6816895]}}
{"type": "Feature", "properties": {"hash": "4c7c2187e0b27152", "number": "5", "street": "DE ANZA DR", "unit": "", "city": "RENO", "district": "WASHOE", "region": "NV", "postcode": "89511", "id": ""}, "geometry": {"type": "Point", "coordinates": [-119.7765188, 39.4225059]}}
{"type": "Feature", "properties": {"hash": "5c26f4e0d1acdbb3", "number": "10643", "street": "FIRE POPPY CIR", "unit": "", "city": "RENO", "district": "WASHOE", "region": "NV", "postcode": "89521", "id": ""}, "geometry": {"type": "Point", "coordinates": [-119.7214232, 39.423402]}}
{"type": "Feature", "properties": {"hash": "1fb6d06ce2d79d30", "number": "10627", "street": "FIRE POPPY CIR", "unit": "", "city": "RENO", "district": "WASHOE", "region": "NV", "postcode": "89521", "id": ""}, "geometry": {"type": "Point", "coordinates": [-119.7197188, 39.4233468]}}
{"type": "Feature", "properties": {"hash": "4f963259a25cd3b7", "number": "13415", "street": "SOUTH HILLS DR", "unit": "", "city": "RENO", "district": "WASHOE", "region": "NV", "postcode": "89511", "id": ""}, "geometry": {"type": "Point", "coordinates": [-119.767062, 39.4247874]}}
{"type": "Feature", "properties": {"hash": "434f1591ae8cc9a8", "number": "110", "street": "DREW DR", "unit": "", "city": "RENO", "district": "WASHOE", "region": "NV", "postcode": "89511", "id": ""}, "geometry": {"type": "Point", "coordinates": [-119.7679751, 39.4246171]}}
{"type": "Feature", "properties": {"hash": "66eb2d5745fa7a95", "number": "2515", "street": "BATON DR", "unit": "", "city": "RENO", "district": "WASHOE", "region": "NV", "postcode": "89521", "id": ""}, "geometry": {"type": "Point", "coordinates": [-119.7172162, 39.4250665]}}
{"type": "Feature", "properties": {"hash": "631bd016b2465be9", "number": "2520", "street": "BATON DR", "unit": "", "city": "RENO", "district": "WASHOE", "region": "NV", "postcode": "89521", "id": ""}, "geometry": {"type": "Point", "coordinates": [-119.7177801, 39.4250242]}}
{"type": "Feature", "properties": {"hash": "2612e2d3e557f1bb", "number": "2505", "street": "BATON DR", "unit": "", "city": "RENO", "district": "WASHOE", "region": "NV", "postcode": "89521", "id": ""}, "geometry": {"type": "Point", "coordinates": [-119.7173145, 39.4253442]}}
{"type": "Feature", "properties": {"hash": "c0fb775c66340281", "number": "795", "street": "CACTUS CREEK CT", "unit": "", "city": "RENO", "district": "WASHOE", "region": "NV", "postcode": "89511", "id": ""}, "geometry": {"type": "Point", "coordinates": [-119.8050813, 39.4226391]}}
{"type": "Feature", "properties": {"hash": "49a1ed27a00f44ec", "number": "2535", "street": "PERRYVILLE DR", "unit": "", "city": "RENO", "district": "WASHOE", "region": "NV", "postcode": "89521", "id": ""}, "geometry": {"type": "Point", "coordinates": [-119.7180582, 39.4233723]}}
{"type": "Feature", "properties": {"hash": "8b734a6970450ca1", "number": "2510", "street": "BATON DR", "unit": "", "city": "RENO", "district": "WASHOE", "region": "NV", "postcode": "89521", "id": ""}, "geometry": {"type": "Point", "coordinates": [-119.7178493, 39.4252276]}}
{"type": "Feature", "properties": {"hash": "4124226a800ee9e2", "number": "11215", "street": "BOULDER HEIGHTS CT", "unit": "", "city": "RENO", "district": "WASHOE", "region": "NV", "postcode": "89511", "id": ""}, "geometry": {"type": "Point", "coordinates": [-119.7851502, 39.4224859]}}
{"type": "Feature", "properties": {"hash": "4da1e30b98a1c952", "number": "12305", "street": "WESTRIDGE DR", "unit": "", "city": "RENO", "district": "WASHOE", "region": "NV", "postcode": "89511", "id": ""}, "geometry": {"type": "Point", "coordinates": [-119.7717597, 39.4248654]}}
{"type": "Feature", "properties": {"hash": "24c0de32dcb7bee8", "number": "3446", "street": "NAMBE DR", "unit": "", "city": "RENO", "district": "WASHOE", "region": "NV", "postcode": "89511", "id": ""}, "geometry": {"type": "Point", "coordinates": [-119.8135236, 39.4236638]}}
