{"type": "Feature", "properties": {"hash": "2d3441836a37a166", "number": "1681", "street": "Beaverkill Rd", "unit": "", "city": "Livingston Manor", "district": "Sullivan", "region": "NY", "postcode": "12758", "id": ""}, "geometry": {"type": "Point", "coordinates": [-74.7762152, 42.0123407]}}
{"type": "Feature", "properties": {"hash": "0d8e37eb60449e6e", "number": "1715", "street": "Beaverkill Rd", "unit": "", "city": "Livingston Manor", "district": "Sullivan", "region": "NY", "postcode": "12758", "id": ""}, "geometry": {"type": "Point", "coordinates": [-74.7721311, 42.0125219]}}
{"type": "Feature", "properties": {"hash": "1528d0d6dc2c046c", "number": "1655", "street": "Beaverkill Rd", "unit": "", "city": "Livingston Manor", "district": "Sullivan", "region": "NY", "postcode": "12758", "id": ""}, "geometry": {"type": "Point", "coordinates": [-74.7759978, 42.0092724]}}
{"type": "Feature", "properties": {"hash": "2a4fd2d2b80c5fe3", "number": "127", "street": "Davis Rd", "unit": "", "city": "Livingston Manor", "district": "Sullivan", "region": "NY", "postcode": "12758", "id": ""}, "geometry": {"type": "Point", "coordinates": [-74.7670254, 42.0059251]}}
{"type": "Feature", "properties": {"hash": "a0d296fd950199a5", "number": "157", "street": "Davis Rd", "unit": "", "city": "Livingston Manor", "district": "Sullivan", "region": "NY", "postcode": "12758", "id": ""}, "geometry": {"type": "Point", "coordinates": [-74.7634495, 42.0077625]}}
{"type": "Feature", "properties": {"hash": "34013adf4a77bbcc", "number": "138", "street": "Davis Rd", "unit": "", "city": "Livingston Manor", "district": "Sullivan", "region": "NY", "postcode": "12758", "id": ""}, "geometry": {"type": "Point", "coordinates": [-74.7636241, 42.0052218]}}
{"type": "Feature", "properties": {"hash": "6a4e10c33324098a", "number": "279", "street": "Shin Creek Rd", "unit": "", "city": "Livingston Manor", "district": "Sullivan", "region": "NY", "postcode": "12758", "id": ""}, "geometry": {"type": "Point", "coordinates": [-74.7636305, 42.0017223]}}
{"type": "Feature", "properties": {"hash": "911971990528331e", "number": "280", "street": "Shin Creek Rd", "unit": "", "city": "Livingston Manor", "district": "Sullivan", "region": "NY", "postcode": "12758", "id": ""}, "geometry": {"type": "Point", "coordinates": [-74.7630508, 41.9993736]}}
{"type": "Feature", "properties": {"hash": "c16c9e720bbb8b9a", "number": "313", "street": "Shin Creek Rd", "unit": "", "city": "Livingston Manor", "district": "Sullivan", "region": "NY", "postcode": "12758", "id": ""}, "geometry": {"type": "Point", "coordinates": [-74.7606739, 41.9992878]}}
{"type": "Feature", "properties": {"hash": "4525824499eda3f7", "number": "321", "street": "Shin Creek Rd", "unit": "", "city": "Livingston Manor", "district": "Sullivan", "region": "NY", "postcode": "12758", "id": ""}, "geometry": {"type": "Point", "coordinates": [-74.7593759, 42.0004341]}}
{"type": "Feature", "properties": {"hash": "fed129936923ec03", "number": "291", "street": "Shin Creek Rd", "unit": "", "city": "Livingston Manor", "district": "Sullivan", "region": "NY", "postcode": "12758", "id": ""}, "geometry": {"type": "Point", "coordinates": [-74.7616967, 42.0004887]}}
{"type": "Feature", "properties": {"hash": "9df42a31abf1f110", "number": "222", "street": "Davis Rd", "unit": "", "city": "Livingston Manor", "district": "Sullivan", "region": "NY", "postcode": "12758", "id": ""}, "geometry": {"type": "Point", "coordinates": [-74.758932, 42.0056357]}}
{"type": "Feature", "properties": {"hash": "6ff52e66a41eaa9e", "number": "219", "street": "Davis Rd", "unit": "", "city": "Livingston Manor", "district": "Sullivan", "region": "NY", "postcode": "12758", "id": ""}, "geometry": {"type": "Point", "coordinates": [-74.758796, 42.0069769]}}
{"type": "Feature", "properties": {"hash": "40d4526b55527727", "number": "224", "street": "Davis Rd", "unit": "", "city": "Livingston Manor", "district": "Sullivan", "region": "NY", "postcode": "12758", "id": ""}, "geometry": {"type": "Point", "coordinates": [-74.7555538, 42.0043651]}}
{"type": "Feature", "properties": {"hash": "c5d758ad4c6428dc", "number": "514", "street": "Shin Creek Rd", "unit": "", "city": "Livingston Manor", "district": "Sullivan", "region": "NY", "postcode": "12758", "id": ""}, "geometry": {"type": "Point", "coordinates": [-74.7479464, 42.0004805]}}
{"type": "Feature", "properties": {"hash": "05b94499769e8ac0", "number": "361", "street": "Shin Creek Rd", "unit": "", "city": "Livingston Manor", "district": "Sullivan", "region": "NY", "postcode": "12758", "id": ""}, "geometry": {"type": "Point", "coordinates": [-74.7575419, 41.9975065]}}
{"type": "Feature", "properties": {"hash": "d8f73132a7d363e8", "number": "331", "street": "Shin Creek Rd", "unit": "", "city": "Livingston Manor", "district": "Sullivan", "region": "NY", "postcode": "12758", "id": ""}, "geometry": {"type": "Point", "coordinates": [-74.7588779, 41.998989]}}
{"type": "Feature", "properties": {"hash": "6af8553a6fd97a11", "number": "384", "street": "Shin Creek Rd", "unit": "", "city": "Livingston Manor", "district": "Sullivan", "region": "NY", "postcode": "12758", "id": ""}, "geometry": {"type": "Point", "coordinates": [-74.7556438, 41.9962264]}}
{"type": "Feature", "properties": {"hash": "05986dec771ba61e", "number": "231", "street": "Mongaup Pond Rd", "unit": "", "city": "Livingston Manor", "district": "Sullivan", "region": "NY", "postcode": "12758", "id": ""}, "geometry": {"type": "Point", "coordinates": [-74.6914364, 41.9570912]}}
{"type": "Feature", "properties": {"hash": "d2db5be605bbcda3", "number": "235", "street": "Mongaup Pond Rd", "unit": "", "city": "Livingston Manor", "district": "Sullivan", "region": "NY", "postcode": "12758", "id": ""}, "geometry": {"type": "Point", "coordinates": [-74.6911978, 41.9573417]}}
{"type": "Feature", "properties": {"hash": "edebc88f80eeda26", "number": "250", "street": "Mongaup Pond Rd", "unit": "", "city": "Livingston Manor", "district": "Sullivan", "region": "NY", "postcode": "12758", "id": ""}, "geometry": {"type": "Point", "coordinates": [-74.6905668, 41.9588486]}}
{"type": "Feature", "properties": {"hash": "33d0d85fdcae344e", "number": "35", "street": "Terwilliger Spur Rd", "unit": "", "city": "Livingston Manor", "district": "Sullivan", "region": "NY", "postcode": "12758", "id": ""}, "geometry": {"type": "Point", "coordinates": [-74.6873569, 41.9415808]}}
{"type": "Feature", "properties": {"hash": "b7b7487ddb4dc1fa", "number": "39", "street": "Terwilliger Spur Rd", "unit": "", "city": "Livingston Manor", "district": "Sullivan", "region": "NY", "postcode": "12758", "id": ""}, "geometry": {"type": "Point", "coordinates": [-74.686426, 41.9417771]}}
{"type": "Feature", "properties": {"hash": "a075d0739de2de89", "number": "45", "street": "Terwilliger Spur Rd", "unit": "", "city": "Livingston Manor", "district": "Sullivan", "region": "NY", "postcode": "12758", "id": ""}, "geometry": {"type": "Point", "coordinates": [-74.6858261, 41.9414258]}}
{"type": "Feature", "properties": {"hash": "1c7be80bd46e1959", "number": "256", "street": "Terwilliger Rd", "unit": "", "city": "Livingston Manor", "district": "Sullivan", "region": "NY", "postcode": "12758", "id": ""}, "geometry": {"type": "Point", "coordinates": [-74.68418, 41.9397504]}}
{"type": "Feature", "properties": {"hash": "58182d25fc330359", "number": "257", "street": "Terwilliger Rd", "unit": "", "city": "Livingston Manor", "district": "Sullivan", "region": "NY", "postcode": "12758", "id": ""}, "geometry": {"type": "Point", "coordinates": [-74.6840685, 41.9400262]}}
{"type": "Feature", "properties": {"hash": "da9762e06c50e7dd", "number": "279", "street": "Terwilliger Rd", "unit": "", "city": "Livingston Manor", "district": "Sullivan", "region": "NY", "postcode": "12758", "id": ""}, "geometry": {"type": "Point", "coordinates": [-74.682738, 41.9414285]}}
{"type": "Feature", "properties": {"hash": "da53579867cf9cb0", "number": "280", "street": "Terwilliger Rd", "unit": "", "city": "Livingston Manor", "district": "Sullivan", "region": "NY", "postcode": "12758", "id": ""}, "geometry": {"type": "Point", "coordinates": [-74.6813183, 41.9413347]}}
{"type": "Feature", "properties": {"hash": "bb1fdb57d7ba7a2c", "number": "138", "street": "Decker Rd", "unit": "", "city": "Livingston Manor", "district": "Sullivan", "region": "NY", "postcode": "12758", "id": ""}, "geometry": {"type": "Point", "coordinates": [-74.6739747, 41.9383244]}}
{"type": "Feature", "properties": {"hash": "03b599d243ac64f5", "number": "72", "street": "Decker Rd", "unit": "", "city": "Livingston Manor", "district": "Sullivan", "region": "NY", "postcode": "12758", "id": ""}, "geometry": {"type": "Point", "coordinates": [-74.6697064, 41.9333989]}}
{"type": "Feature", "properties": {"hash": "6f8841c36ccc38f9", "number": "82", "street": "Decker Rd", "unit": "", "city": "Livingston Manor", "district": "Sullivan", "region": "NY", "postcode": "12758", "id": ""}, "geometry": {"type": "Point", "coordinates": [-74.6708163, 41.93443]}}
{"type": "Feature", "properties": {"hash": "7800039fc2dc7457", "number": "38", "street": "Decker Rd", "unit": "", "city": "Livingston Manor", "district": "Sullivan", "region": "NY", "postcode": "12758", "id": ""}, "geometry": {"type": "Point", "coordinates": [-74.6689559, 41.9327061]}}
{"type": "Feature", "properties": {"hash": "5fefb23ea38f831a", "number": "25", "street": "Decker Rd", "unit": "", "city": "Livingston Manor", "district": "Sullivan", "region": "NY", "postcode": "12758", "id": ""}, "geometry": {"type": "Point", "coordinates": [-74.6693039, 41.9314063]}}
{"type": "Feature", "properties": {"hash": "f7dd69406e9b61a1", "number": "161", "street": "Church Rd", "unit": "", "city": "Livingston Manor", "district": "Sullivan", "region": "NY", "postcode": "12758", "id": ""}, "geometry": {"type": "Point", "coordinates": [-74.6689962, 41.9288864]}}
{"type": "Feature", "properties": {"hash": "4be0324c6319c27a", "number": "151", "street": "Church Rd", "unit": "", "city": "Livingston Manor", "district": "Sullivan", "region": "NY", "postcode": "12758", "id": ""}, "geometry": {"type": "Point", "coordinates": [-74.66937, 41.9281075]}}
{"type": "Feature", "properties": {"hash": "e9e639381333bca8", "number": "156", "street": "Church Rd", "unit": "", "city": "Livingston Manor", "district": "Sullivan", "region": "NY", "postcode": "12758", "id": ""}, "geometry": {"type": "Point", "coordinates": [-74.6681357, 41.9284233]}}
{"type": "Feature", "properties": {"hash": "c30962188dce0881", "number": "173", "street": "Church Rd", "unit": "", "city": "Livingston Manor", "district": "Sullivan", "region": "NY", "postcode": "12758", "id": ""}, "geometry": {"type": "Point", "coordinates": [-74.6686461, 41.9294258]}}
{"type": "Feature", "properties": {"hash": "1812375af004bc51", "number": "185", "street": "Church Rd", "unit": "", "city": "Livingston Manor", "district": "Sullivan", "region": "NY", "postcode": "12758", "id": ""}, "geometry": {"type": "Point", "coordinates": [-74.6674049, 41.9302131]}}
{"type": "Feature", "properties": {"hash": "c7eb8e9dc47e6007", "number": "184", "street": "Church Rd", "unit": "", "city": "Livingston Manor", "district": "Sullivan", "region": "NY", "postcode": "12758", "id": ""}, "geometry": {"type": "Point", "coordinates": [-74.667111, 41.9298798]}}
{"type": "Feature", "properties": {"hash": "0afe382f579f8c2f", "number": "15", "street": "Decker Rd", "unit": "", "city": "Livingston Manor", "district": "Sullivan", "region": "NY", "postcode": "12758", "id": ""}, "geometry": {"type": "Point", "coordinates": [-74.6681845, 41.9310438]}}
{"type": "Feature", "properties": {"hash": "f8a409e4472ba1b5", "number": "20", "street": "Decker Rd", "unit": "", "city": "Livingston Manor", "district": "Sullivan", "region": "NY", "postcode": "12758", "id": ""}, "geometry": {"type": "Point", "coordinates": [-74.6678712, 41.9315761]}}
{"type": "Feature", "properties": {"hash": "2c489a68e8fe8202", "number": "223", "street": "Church Rd", "unit": "", "city": "Livingston Manor", "district": "Sullivan", "region": "NY", "postcode": "12758", "id": ""}, "geometry": {"type": "Point", "coordinates": [-74.6652887, 41.9318667]}}
{"type": "Feature", "properties": {"hash": "26e27780d84730c5", "number": "205", "street": "Church Rd", "unit": "", "city": "Livingston Manor", "district": "Sullivan", "region": "NY", "postcode": "12758", "id": ""}, "geometry": {"type": "Point", "coordinates": [-74.6659874, 41.9311646]}}
{"type": "Feature", "properties": {"hash": "7922533cffd934df", "number": "234", "street": "Church Rd", "unit": "", "city": "Livingston Manor", "district": "Sullivan", "region": "NY", "postcode": "12758", "id": ""}, "geometry": {"type": "Point", "coordinates": [-74.6640006, 41.9323013]}}
{"type": "Feature", "properties": {"hash": "77a6779f0bd602ed", "number": "259", "street": "Church Rd", "unit": "", "city": "Livingston Manor", "district": "Sullivan", "region": "NY", "postcode": "12758", "id": ""}, "geometry": {"type": "Point", "coordinates": [-74.6639026, 41.9341411]}}
{"type": "Feature", "properties": {"hash": "7d138698ee42e67f", "number": "273", "street": "Church Rd", "unit": "", "city": "Livingston Manor", "district": "Sullivan", "region": "NY", "postcode": "12758", "id": ""}, "geometry": {"type": "Point", "coordinates": [-74.6620306, 41.9351617]}}
{"type": "Feature", "properties": {"hash": "69aa2c61bdd0b0df", "number": "271", "street": "Church Rd", "unit": "", "city": "Livingston Manor", "district": "Sullivan", "region": "NY", "postcode": "12758", "id": ""}, "geometry": {"type": "Point", "coordinates": [-74.6621861, 41.9347743]}}
{"type": "Feature", "properties": {"hash": "7f012c467be760b0", "number": "677", "street": "Pole Rd", "unit": "", "city": "Livingston Manor", "district": "Sullivan", "region": "NY", "postcode": "12758", "id": ""}, "geometry": {"type": "Point", "coordinates": [-74.6021364, 41.9401368]}}
{"type": "Feature", "properties": {"hash": "3e28b1cf8096d39b", "number": "497", "street": "Pole Rd", "unit": "", "city": "Livingston Manor", "district": "Sullivan", "region": "NY", "postcode": "12758", "id": ""}, "geometry": {"type": "Point", "coordinates": [-74.6165943, 41.9348]}}
{"type": "Feature", "properties": {"hash": "62fb7f8595adc53d", "number": "570", "street": "Pole Rd", "unit": "", "city": "Livingston Manor", "district": "Sullivan", "region": "NY", "postcode": "12758", "id": ""}, "geometry": {"type": "Point", "coordinates": [-74.6106591, 41.9373977]}}
{"type": "Feature", "properties": {"id": "1", "unit": "", "number": "10", "street": "SALO DR", "city": "TRUMANSBURG VILLAGE", "district": "TOMPKINS", "region": "NY", "postcode": "14886", "hash": "121a4c7f5c8943d7"}, "geometry": {"type": "Point", "coordinates": [-76.6699138, 42.5415008]}}
{"type": "Feature", "properties": {"id": "2", "unit": "", "number": "106", "street": "LINDERMAN AVE", "city": "GROTON VILLAGE", "district": "TOMPKINS", "region": "NY", "postcode": "13073", "hash": "f8fa459f89423eae"}, "geometry": {"type": "Point", "coordinates": [-76.3704295, 42.5866766]}}
{"type": "Feature", "properties": {"id": "3", "unit": "", "number": "100", "street": "W MAIN ST", "city": "TRUMANSBURG VILLAGE", "district": "TOMPKINS", "region": "NY", "postcode": "14886", "hash": "0d952266f55f2d7a"}, "geometry": {"type": "Point", "coordinates": [-76.670817, 42.5455794]}}
{"type": "Feature", "properties": {"id": "4", "unit": "", "number": "106", "street": "LINN ST", "city": "ITHACA CITY", "district": "TOMPKINS", "region": "NY", "postcode": "14850", "hash": "a5c49233255a8d91"}, "geometry": {"type": "Point", "coordinates": [-76.4948388, 42.4430677]}}
{"type": "Feature", "properties": {"id": "5", "unit": "", "number": "11", "street": "SALO DR", "city": "TRUMANSBURG VILLAGE", "district": "TOMPKINS", "region": "NY", "postcode": "14886", "hash": "c48365c18acde6f0"}, "geometry": {"type": "Point", "coordinates": [-76.6703043, 42.5410368]}}
{"type": "Feature", "properties": {"id": "6", "unit": "", "number": "106", "street": "LISA PL", "city": "CAYUGA HEIGHTS", "district": "TOMPKINS", "region": "NY", "postcode": "14850", "hash": "01539154f21beadf"}, "geometry": {"type": "Point", "coordinates": [-76.4768237, 42.4705183]}}
{"type": "Feature", "properties": {"id": "7", "unit": "", "number": "117", "street": "CRESTVIEW LN", "city": "NEWFIELD", "district": "TOMPKINS", "region": "NY", "postcode": "14867", "hash": "baf37650ad0a13a1"}, "geometry": {"type": "Point", "coordinates": [-76.5562794, 42.3729351]}}
{"type": "Feature", "properties": {"id": "8", "unit": "", "number": "106", "street": "MACK ST", "city": "GROTON VILLAGE", "district": "TOMPKINS", "region": "NY", "postcode": "13073", "hash": "29b24a67f4e47bae"}, "geometry": {"type": "Point", "coordinates": [-76.3552147, 42.5839165]}}
{"type": "Feature", "properties": {"id": "9", "unit": "", "number": "118", "street": "CRESTVIEW LN", "city": "NEWFIELD", "district": "TOMPKINS", "region": "NY", "postcode": "14867", "hash": "929146e4f2aa0fe1"}, "geometry": {"type": "Point", "coordinates": [-76.5560669, 42.3733644]}}
{"type": "Feature", "properties": {"id": "10", "unit": "", "number": "106", "street": "MIDWAY RD", "city": "CAYUGA HEIGHTS", "district": "TOMPKINS", "region": "NY", "postcode": "14850", "hash": "194e491c16f54dfb"}, "geometry": {"type": "Point", "coordinates": [-76.4853225, 42.4671757]}}
{"type": "Feature", "properties": {"id": "11", "unit": "", "number": "12", "street": "SALO DR", "city": "TRUMANSBURG VILLAGE", "district": "TOMPKINS", "region": "NY", "postcode": "14886", "hash": "07adf6dd13b4a4e0"}, "geometry": {"type": "Point", "coordinates": [-76.6703811, 42.5416744]}}
{"type": "Feature", "properties": {"id": "12", "unit": "", "number": "13", "street": "SALO DR", "city": "TRUMANSBURG VILLAGE", "district": "TOMPKINS", "region": "NY", "postcode": "14886", "hash": "35546c7368b00924"}, "geometry": {"type": "Point", "coordinates": [-76.6706702, 42.5408843]}}
{"type": "Feature", "properties": {"id": "13", "unit": "", "number": "16", "street": "SALO DR", "city": "TRUMANSBURG VILLAGE", "district": "TOMPKINS", "region": "NY", "postcode": "14886", "hash": "c9f4ab82fd556655"}, "geometry": {"type": "Point", "coordinates": [-76.6711805, 42.5411162]}}
{"type": "Feature", "properties": {"id": "14", "unit": "", "number": "18", "street": "SALO DR", "city": "TRUMANSBURG VILLAGE", "district": "TOMPKINS", "region": "NY", "postcode": "14886", "hash": "050b66943a82502d"}, "geometry": {"type": "Point", "coordinates": [-76.6714355, 42.5410986]}}
{"type": "Feature", "properties": {"id": "15", "unit": "", "number": "22", "street": "SALO DR", "city": "TRUMANSBURG VILLAGE", "district": "TOMPKINS", "region": "NY", "postcode": "14886", "hash": "5575e43ded8b23da"}, "geometry": {"type": "Point", "coordinates": [-76.671279, 42.5416596]}}
{"type": "Feature", "properties": {"id": "16", "unit": "", "number": "2283", "street": "TRUMANSBURG RD", "city": "ULYSSES", "district": "TOMPKINS", "region": "NY", "postcode": "14886", "hash": "fd4770705c82aa2c"}, "geometry": {"type": "Point", "coordinates": [-76.6715333, 42.5463513]}}
{"type": "Feature", "properties": {"id": "17", "unit": "", "number": "2285", "street": "TRUMANSBURG RD", "city": "ULYSSES", "district": "TOMPKINS", "region": "NY", "postcode": "14886", "hash": "8ebec29ec26aa4fc"}, "geometry": {"type": "Point", "coordinates": [-76.6718355, 42.5466278]}}
{"type": "Feature", "properties": {"id": "18", "unit": "", "number": "23", "street": "BRADLEY ST", "city": "TRUMANSBURG VILLAGE", "district": "TOMPKINS", "region": "NY", "postcode": "14886", "hash": "dec7a3a5fa6c96b0"}, "geometry": {"type": "Point", "coordinates": [-76.6677215, 42.5453006]}}
{"type": "Feature", "properties": {"id": "19", "unit": "", "number": "23", "street": "STROWBRIDGE ST", "city": "TRUMANSBURG VILLAGE", "district": "TOMPKINS", "region": "NY", "postcode": "14886", "hash": "501b27f77e344ca7"}, "geometry": {"type": "Point", "coordinates": [-76.6652988, 42.5460425]}}
{"type": "Feature", "properties": {"id": "20", "unit": "", "number": "28", "street": "STROWBRIDGE ST", "city": "TRUMANSBURG VILLAGE", "district": "TOMPKINS", "region": "NY", "postcode": "14886", "hash": "88c36f862c6a5d3f"}, "geometry": {"type": "Point", "coordinates": [-76.6660148, 42.5463418]}}
{"type": "Feature", "properties": {"id": "21", "unit": "", "number": "29", "street": "STROWBRIDGE ST", "city": "TRUMANSBURG VILLAGE", "district": "TOMPKINS", "region": "NY", "postcode": "14886", "hash": "336359ef9d623703"}, "geometry": {"type": "Point", "coordinates": [-76.6655439, 42.5459779]}}
{"type": "Feature", "properties": {"id": "22", "unit": "", "number": "32", "street": "STROWBRIDGE ST", "city": "TRUMANSBURG VILLAGE", "district": "TOMPKINS", "region": "NY", "postcode": "14886", "hash": "79463993c25905e0"}, "geometry": {"type": "Point", "coordinates": [-76.6665098, 42.5462789]}}
{"type": "Feature", "properties": {"id": "23", "unit": "", "number": "33", "street": "STROWBRIDGE ST", "city": "TRUMANSBURG VILLAGE", "district": "TOMPKINS", "region": "NY", "postcode": "14886", "hash": "06beabedc2aab9a3"}, "geometry": {"type": "Point", "coordinates": [-76.6663357, 42.5458939]}}
{"type": "Feature", "properties": {"id": "24", "unit": "", "number": "35", "street": "STROWBRIDGE ST", "city": "TRUMANSBURG VILLAGE", "district": "TOMPKINS", "region": "NY", "postcode": "14886", "hash": "f2063dbe76ae82fc"}, "geometry": {"type": "Point", "coordinates": [-76.6667607, 42.5458102]}}
{"type": "Feature", "properties": {"id": "25", "unit": "", "number": "36", "street": "BRADLEY ST", "city": "TRUMANSBURG VILLAGE", "district": "TOMPKINS", "region": "NY", "postcode": "14886", "hash": "cdb8c61b5fff2f6d"}, "geometry": {"type": "Point", "coordinates": [-76.6678002, 42.5465634]}}
{"type": "Feature", "properties": {"id": "26", "unit": "", "number": "36", "street": "SALO DR", "city": "ULYSSES", "district": "TOMPKINS", "region": "NY", "postcode": "14886", "hash": "c71ca2c25ba73f80"}, "geometry": {"type": "Point", "coordinates": [-76.6722187, 42.5413474]}}
{"type": "Feature", "properties": {"id": "27", "unit": "", "number": "38", "street": "STROWBRIDGE ST", "city": "TRUMANSBURG VILLAGE", "district": "TOMPKINS", "region": "NY", "postcode": "14886", "hash": "a106380cc1b78376"}, "geometry": {"type": "Point", "coordinates": [-76.6671097, 42.5462101]}}
{"type": "Feature", "properties": {"id": "28", "unit": "", "number": "40", "street": "OLD MAIN ST", "city": "TRUMANSBURG VILLAGE", "district": "TOMPKINS", "region": "NY", "postcode": "14886", "hash": "460a2d708bbd548a"}, "geometry": {"type": "Point", "coordinates": [-76.6649469, 42.5428311]}}
{"type": "Feature", "properties": {"id": "29", "unit": "", "number": "44", "street": "OLD MAIN ST", "city": "TRUMANSBURG VILLAGE", "district": "TOMPKINS", "region": "NY", "postcode": "14886", "hash": "7adfa01299538a5d"}, "geometry": {"type": "Point", "coordinates": [-76.6653451, 42.5429335]}}
{"type": "Feature", "properties": {"id": "30", "unit": "", "number": "6", "street": "SALO DR", "city": "TRUMANSBURG VILLAGE", "district": "TOMPKINS", "region": "NY", "postcode": "14886", "hash": "be55425b0a2d8baa"}, "geometry": {"type": "Point", "coordinates": [-76.6691, 42.5417816]}}
{"type": "Feature", "properties": {"id": "31", "unit": "", "number": "7", "street": "SALO DR", "city": "TRUMANSBURG VILLAGE", "district": "TOMPKINS", "region": "NY", "postcode": "14886", "hash": "fd72d18fe1a397d6"}, "geometry": {"type": "Point", "coordinates": [-76.6694813, 42.5412753]}}
{"type": "Feature", "properties": {"id": "32", "unit": "", "number": "71", "street": "OLD MAIN ST", "city": "TRUMANSBURG VILLAGE", "district": "TOMPKINS", "region": "NY", "postcode": "14886", "hash": "6ade35b9a2d46e7a"}, "geometry": {"type": "Point", "coordinates": [-76.6666414, 42.5430897]}}
{"type": "Feature", "properties": {"id": "33", "unit": "", "number": "71", "street": "W MAIN ST", "city": "TRUMANSBURG VILLAGE", "district": "TOMPKINS", "region": "NY", "postcode": "14886", "hash": "62143011f6d1c1b0"}, "geometry": {"type": "Point", "coordinates": [-76.6677112, 42.5432273]}}
{"type": "Feature", "properties": {"id": "34", "unit": "", "number": "75", "street": "W MAIN ST", "city": "TRUMANSBURG VILLAGE", "district": "TOMPKINS", "region": "NY", "postcode": "14886", "hash": "8af0ef21ea4b63f3"}, "geometry": {"type": "Point", "coordinates": [-76.6681291, 42.5435973]}}
{"type": "Feature", "properties": {"id": "35", "unit": "", "number": "8", "street": "SALO DR", "city": "TRUMANSBURG VILLAGE", "district": "TOMPKINS", "region": "NY", "postcode": "14886", "hash": "183847d1858ccd2e"}, "geometry": {"type": "Point", "coordinates": [-76.669448, 42.541679]}}
{"type": "Feature", "properties": {"id": "36", "unit": "", "number": "86", "street": "W MAIN ST", "city": "TRUMANSBURG VILLAGE", "district": "TOMPKINS", "region": "NY", "postcode": "14886", "hash": "215d5284ba1dc541"}, "geometry": {"type": "Point", "coordinates": [-76.6687268, 42.5444193]}}
{"type": "Feature", "properties": {"id": "37", "unit": "", "number": "88", "street": "W MAIN ST", "city": "TRUMANSBURG VILLAGE", "district": "TOMPKINS", "region": "NY", "postcode": "14886", "hash": "8b075bca16a4b723"}, "geometry": {"type": "Point", "coordinates": [-76.6689673, 42.5445194]}}
{"type": "Feature", "properties": {"id": "38", "unit": "", "number": "89", "street": "W MAIN ST", "city": "TRUMANSBURG VILLAGE", "district": "TOMPKINS", "region": "NY", "postcode": "14886", "hash": "ea93ccb48aefa6bc"}, "geometry": {"type": "Point", "coordinates": [-76.6696838, 42.5442519]}}
{"type": "Feature", "properties": {"id": "39", "unit": "", "number": "9", "street": "SALO DR", "city": "TRUMANSBURG VILLAGE", "district": "TOMPKINS", "region": "NY", "postcode": "14886", "hash": "ce77276618009911"}, "geometry": {"type": "Point", "coordinates": [-76.6698436, 42.5411627]}}
{"type": "Feature", "properties": {"id": "40", "unit": "", "number": "9", "street": "WASHINGTON ST", "city": "TRUMANSBURG VILLAGE", "district": "TOMPKINS", "region": "NY", "postcode": "14886", "hash": "aa951e9b7fc852f9"}, "geometry": {"type": "Point", "coordinates": [-76.6637612, 42.5434486]}}
{"type": "Feature", "properties": {"id": "41", "unit": "", "number": "90", "street": "W MAIN ST", "city": "TRUMANSBURG VILLAGE", "district": "TOMPKINS", "region": "NY", "postcode": "14886", "hash": "11cc364d6ae00c98"}, "geometry": {"type": "Point", "coordinates": [-76.6692106, 42.5446491]}}
{"type": "Feature", "properties": {"id": "42", "unit": "", "number": "92", "street": "W MAIN ST", "city": "TRUMANSBURG VILLAGE", "district": "TOMPKINS", "region": "NY", "postcode": "14886", "hash": "8b163ae41b4e5daa"}, "geometry": {"type": "Point", "coordinates": [-76.6696049, 42.5449258]}}
{"type": "Feature", "properties": {"id": "43", "unit": "", "number": "93", "street": "W MAIN ST", "city": "TRUMANSBURG VILLAGE", "district": "TOMPKINS", "region": "NY", "postcode": "14886", "hash": "991fea55c7960f47"}, "geometry": {"type": "Point", "coordinates": [-76.6703773, 42.5445325]}}
{"type": "Feature", "properties": {"id": "44", "unit": "", "number": "94", "street": "W MAIN ST", "city": "TRUMANSBURG VILLAGE", "district": "TOMPKINS", "region": "NY", "postcode": "14886", "hash": "099e6768ed271995"}, "geometry": {"type": "Point", "coordinates": [-76.6698829, 42.5450846]}}
{"type": "Feature", "properties": {"id": "45", "unit": "", "number": "95", "street": "W MAIN ST", "city": "TRUMANSBURG VILLAGE", "district": "TOMPKINS", "region": "NY", "postcode": "14886", "hash": "84262d8624d805b8"}, "geometry": {"type": "Point", "coordinates": [-76.6706377, 42.5447218]}}
{"type": "Feature", "properties": {"id": "46", "unit": "", "number": "96", "street": "W MAIN ST", "city": "TRUMANSBURG VILLAGE", "district": "TOMPKINS", "region": "NY", "postcode": "14886", "hash": "3660b9303c36845e"}, "geometry": {"type": "Point", "coordinates": [-76.6701795, 42.5452228]}}
{"type": "Feature", "properties": {"id": "47", "unit": "", "number": "97", "street": "W MAIN ST", "city": "TRUMANSBURG VILLAGE", "district": "TOMPKINS", "region": "NY", "postcode": "14886", "hash": "9418ce7c6a568eba"}, "geometry": {"type": "Point", "coordinates": [-76.671351, 42.545206]}}
{"type": "Feature", "properties": {"id": "48", "unit": "", "number": "98", "street": "W MAIN ST", "city": "TRUMANSBURG VILLAGE", "district": "TOMPKINS", "region": "NY", "postcode": "14886", "hash": "2fb037aad3511d4b"}, "geometry": {"type": "Point", "coordinates": [-76.6705208, 42.5453942]}}
{"type": "Feature", "properties": {"id": "49", "unit": "", "number": "1", "street": "SALO DR", "city": "TRUMANSBURG VILLAGE", "district": "TOMPKINS", "region": "NY", "postcode": "14886", "hash": "24e6ad8794372388"}, "geometry": {"type": "Point", "coordinates": [-76.6682092, 42.5414676]}}
{"type": "Feature", "properties": {"id": "50", "unit": "", "number": "14", "street": "SALO DR", "city": "TRUMANSBURG VILLAGE", "district": "TOMPKINS", "region": "NY", "postcode": "14886", "hash": "5d4e602e7322f691"}, "geometry": {"type": "Point", "coordinates": [-76.6708402, 42.5413005]}}
