{"type": "Feature", "properties": {"hash": "d2f4464401867e7b", "number": "600", "street": "BROAD ST", "unit": "", "city": "ASHLAND", "district": "ASD", "region": "OH", "postcode": "44805", "id": ""}, "geometry": {"type": "Point", "coordinates": [-82.3226356, 40.8650102]}}
{"type": "Feature", "properties": {"hash": "499f27d8998fc3dd", "number": "824", "street": "MAIN ST", "unit": "", "city": "BAILEY LAKES", "district": "ASD", "region": "OH", "postcode": "44805", "id": ""}, "geometry": {"type": "Point", "coordinates": [-82.3605761, 40.9471801]}}
{"type": "Feature", "properties": {"hash": "21ee79726f0912fc", "number": "1308", "street": "SHAMROCK LN", "unit": "", "city": "BAILEY LAKES", "district": "ASD", "region": "OH", "postcode": "44805", "id": ""}, "geometry": {"type": "Point", "coordinates": [-82.3611593, 40.9471625]}}
{"type": "Feature", "properties": {"hash": "1557a1ad757d2939", "number": "1623", "street": "W 6TH ST", "unit": "", "city": "ASHTABULA", "district": "ATB", "region": "OH", "postcode": "44004", "id": ""}, "geometry": {"type": "Point", "coordinates": [-80.8056485, 41.8956475]}}
{"type": "Feature", "properties": {"hash": "bd0113c79f806ddb", "number": "1627", "street": "W 6TH ST", "unit": "", "city": "ASHTABULA", "district": "ATB", "region": "OH", "postcode": "44004", "id": ""}, "geometry": {"type": "Point", "coordinates": [-80.8057657, 41.8956466]}}
{"type": "Feature", "properties": {"hash": "b7df160268bd8adb", "number": "1632", "street": "W 6TH ST", "unit": "", "city": "ASHTABULA", "district": "ATB", "region": "OH", "postcode": "44004", "id": ""}, "geometry": {"type": "Point", "coordinates": [-80.8058954, 41.8954655]}}
{"type": "Feature", "properties": {"hash": "ba8ba4de4a9bfbed", "number": "5128", "street": "LYNN RD NE", "unit": "", "city": "MINERVA", "district": "", "region": "OH", "postcode": "44657", "id": ""}, "geometry": {"type": "Point", "coordinates": [-81.0885599, 40.6493801]}}
{"type": "Feature", "properties": {"hash": "4a46e07b8763df83", "number": "5152", "street": "LYNN RD NE", "unit": "", "city": "MINERVA", "district": "", "region": "OH", "postcode": "44657", "id": ""}, "geometry": {"type": "Point", "coordinates": [-81.0863408, 40.6483905]}}
{"type": "Feature", "properties": {"hash": "ea31dde6f88d2a29", "number": "5200", "street": "LYNN RD NE", "unit": "", "city": "MINERVA", "district": "", "region": "OH", "postcode": "44657", "id": ""}, "geometry": {"type": "Point", "coordinates": [-81.0858658, 40.6492865]}}
{"type": "Feature", "properties": {"hash": "1f78b53279b72cba", "number": "4448", "street": "SCHUSTER WAY", "unit": "", "city": "COLUMBUS", "district": "FRA", "region": "OH", "postcode": "43207", "id": ""}, "geometry": {"type": "Point", "coordinates": [-82.9473538, 39.8768427]}}
{"type": "Feature", "properties": {"hash": "486982e5c2ce1ccf", "number": "3106", "street": "SOMERFORD RD", "unit": "", "city": "COLUMBUS", "district": "FRA", "region": "OH", "postcode": "43221", "id": ""}, "geometry": {"type": "Point", "coordinates": [-83.0636582, 40.0197869]}}
{"type": "Feature", "properties": {"hash": "1da3b009da8c123f", "number": "99", "street": "1 ST SW", "unit": "", "city": "PATASKALA", "district": "LIC", "region": "OH", "postcode": "43062", "id": ""}, "geometry": {"type": "Point", "coordinates": [-82.6986727, 39.997471]}}
{"type": "Feature", "properties": {"id": "", "unit": "B", "number": "134", "street": "E THIRD ST", "city": "PERRYSBURG", "district": "WOO", "region": "OH", "postcode": "43551", "hash": "3ec1d4e91573df28"}, "geometry": {"type": "Point", "coordinates": [-83.6268299, 41.5582731]}}
{"type": "Feature", "properties": {"id": "", "unit": "J", "number": "134", "street": "E THIRD ST", "city": "PERRYSBURG", "district": "WOO", "region": "OH", "postcode": "43551", "hash": "2484a5063760edfd"}, "geometry": {"type": "Point", "coordinates": [-83.6267729, 41.5583028]}}
{"type": "Feature", "properties": {"id": "", "unit": "1/2", "number": "136", "street": "E THIRD ST", "city": "PERRYSBURG", "district": "WOO", "region": "OH", "postcode": "43551", "hash": "e6a46ed4301455c2"}, "geometry": {"type": "Point", "coordinates": [-83.6266161, 41.5583587]}}
{"type": "Feature", "properties": {"hash": "f9b66112c8f2f32f", "number": "3125", "street": "HENDERSON CT", "unit": "", "city": "SPRINGFIELD", "district": "CLA", "region": "OH", "postcode": "45503", "id": ""}, "geometry": {"type": "Point", "coordinates": [-83.7909722, 39.9643948]}}
{"type": "Feature", "properties": {"hash": "b072fe6ae218790d", "number": "3126", "street": "HENDERSON CT", "unit": "", "city": "SPRINGFIELD", "district": "CLA", "region": "OH", "postcode": "45503", "id": ""}, "geometry": {"type": "Point", "coordinates": [-83.7906284, 39.964317]}}
{"type": "Feature", "properties": {"hash": "0c8c7a8cc5fc2aea", "number": "3115", "street": "HENDERSON CT", "unit": "", "city": "SPRINGFIELD", "district": "CLA", "region": "OH", "postcode": "45503", "id": ""}, "geometry": {"type": "Point", "coordinates": [-83.7910356, 39.9640625]}}
{"type": "Feature", "properties": {"hash": "681f3f9b0ed94261", "number": "24", "street": "SOUTHWIND BLVD", "unit": "", "city": "WILMINGTON", "district": "CLI", "region": "OH", "postcode": "45177", "id": ""}, "geometry": {"type": "Point", "coordinates": [-83.842567, 39.4174614]}}
{"type": "Feature", "properties": {"hash": "e727555e6dc90179", "number": "21", "street": "SOUTHWIND BLVD", "unit": "", "city": "WILMINGTON", "district": "CLI", "region": "OH", "postcode": "45177", "id": ""}, "geometry": {"type": "Point", "coordinates": [-83.8425539, 39.4176542]}}
{"type": "Feature", "properties": {"hash": "ba551efc2f0257f9", "number": "40", "street": "SOUTHWIND BLVD", "unit": "", "city": "WILMINGTON", "district": "CLI", "region": "OH", "postcode": "45177", "id": ""}, "geometry": {"type": "Point", "coordinates": [-83.8427437, 39.4174861]}}
{"type": "Feature", "properties": {"hash": "f529e2f27327cbb3", "number": "900", "street": "WEDGEWOOD CIR", "unit": "", "city": "GALION", "district": "CRA", "region": "OH", "postcode": "44833", "id": ""}, "geometry": {"type": "Point", "coordinates": [-82.8092087, 40.721041]}}
{"type": "Feature", "properties": {"hash": "35ec3af804edc957", "number": "1200", "street": "MAPLE ST", "unit": "", "city": "BUCYRUS", "district": "CRA", "region": "OH", "postcode": "44820", "id": ""}, "geometry": {"type": "Point", "coordinates": [-82.9708985, 40.820464]}}
{"type": "Feature", "properties": {"hash": "fa3369eeb86163c2", "number": "453", "street": "DUDLEY ST", "unit": "", "city": "BUCYRUS", "district": "CRA", "region": "OH", "postcode": "44820", "id": ""}, "geometry": {"type": "Point", "coordinates": [-82.9687418, 40.8208488]}}
{"type": "Feature", "properties": {"hash": "d58ee1a19f0bb63f", "number": "3313", "street": "SOMIA DR", "unit": "", "city": "PARMA", "district": "", "region": "OH", "postcode": "44134", "id": ""}, "geometry": {"type": "Point", "coordinates": [-81.7079147, 41.3932092]}}
{"type": "Feature", "properties": {"hash": "b88548638b15517c", "number": "3319", "street": "SOMIA DR", "unit": "", "city": "PARMA", "district": "", "region": "OH", "postcode": "44134", "id": ""}, "geometry": {"type": "Point", "coordinates": [-81.7081272, 41.3932107]}}
{"type": "Feature", "properties": {"hash": "f77332a55a96b9dd", "number": "3331", "street": "SOMIA DR", "unit": "", "city": "PARMA", "district": "", "region": "OH", "postcode": "44134", "id": ""}, "geometry": {"type": "Point", "coordinates": [-81.7085543, 41.3932124]}}
{"type": "Feature", "properties": {"hash": "61b0958686dcd087", "number": "1910", "street": "E   POWELL RD", "unit": "", "city": "LEWIS CENTER", "district": "DELAWARE", "region": "OH", "postcode": "43035", "id": ""}, "geometry": {"type": "Point", "coordinates": [-82.9902763, 40.1569747]}}
{"type": "Feature", "properties": {"hash": "ef2a55fd9ecc2665", "number": "3754", "street": "NICOYA CT", "unit": "", "city": "LEWIS CENTER", "district": "DELAWARE", "region": "OH", "postcode": "43035", "id": ""}, "geometry": {"type": "Point", "coordinates": [-82.9589184, 40.1552678]}}
{"type": "Feature", "properties": {"hash": "f00055eceecd8c84", "number": "8780", "street": "SUNART CT S", "unit": "", "city": "DUBLIN", "district": "DELAWARE", "region": "OH", "postcode": "43017", "id": ""}, "geometry": {"type": "Point", "coordinates": [-83.1675974, 40.1463228]}}
{"type": "Feature", "properties": {"hash": "00bdf898c0629fbd", "number": "1024", "street": "MONAGHAN RD", "unit": "", "city": "KELLEYS ISLAND", "district": "ERI", "region": "OH", "postcode": "43438", "id": ""}, "geometry": {"type": "Point", "coordinates": [-82.6837106, 41.6161148]}}
{"type": "Feature", "properties": {"hash": "1d88a5df6b52c1d9", "number": "920", "street": "MONAGHAN RD", "unit": "", "city": "KELLEYS ISLAND", "district": "ERI", "region": "OH", "postcode": "43438", "id": ""}, "geometry": {"type": "Point", "coordinates": [-82.6855349, 41.6146776]}}
{"type": "Feature", "properties": {"hash": "6e0d568244b93a28", "number": "828", "street": "MONAGHAN RD", "unit": "", "city": "KELLEYS ISLAND", "district": "ERI", "region": "OH", "postcode": "43438", "id": ""}, "geometry": {"type": "Point", "coordinates": [-82.6878216, 41.6124007]}}
{"type": "Feature", "properties": {"hash": "8181c2efe46368bb", "number": "4448", "street": "SCHUSTER WAY", "unit": "", "city": "OBETZ", "district": "FRA", "region": "OH", "postcode": "43207", "id": ""}, "geometry": {"type": "Point", "coordinates": [-82.9473507, 39.8768367]}}
{"type": "Feature", "properties": {"hash": "944e49701b6b3fac", "number": "3106", "street": "SOMERFORD RD", "unit": "", "city": "UPPER ARLINGTON", "district": "FRA", "region": "OH", "postcode": "43221", "id": ""}, "geometry": {"type": "Point", "coordinates": [-83.0636554, 40.0197808]}}
{"type": "Feature", "properties": {"hash": "046bcc742bda3e2f", "number": "99", "street": "1 ST SW", "unit": "", "city": "PATASKALA", "district": "LIC", "region": "OH", "postcode": "43062", "id": ""}, "geometry": {"type": "Point", "coordinates": [-82.6986699, 39.9974651]}}
{"type": "Feature", "properties": {"hash": "91125d3f60057d45", "number": "6612", "street": "CORBLY ST", "unit": "", "city": "CINCINNATI HAM OH", "district": "", "region": "OH", "postcode": "45230", "id": ""}, "geometry": {"type": "Point", "coordinates": [-84.3740347, 39.0954815]}}
{"type": "Feature", "properties": {"hash": "23d9d8e411e18dd6", "number": "2061", "street": "OXFORD AV", "unit": "", "city": "CINCINNATI HAM OH", "district": "", "region": "OH", "postcode": "45230", "id": ""}, "geometry": {"type": "Point", "coordinates": [-84.388473, 39.092122]}}
{"type": "Feature", "properties": {"hash": "ec8b0ef84b34079f", "number": "2055", "street": "OXFORD AV", "unit": "", "city": "CINCINNATI HAM OH", "district": "", "region": "OH", "postcode": "45230", "id": ""}, "geometry": {"type": "Point", "coordinates": [-84.3884419, 39.0919753]}}
{"type": "Feature", "properties": {"hash": "6724b9fb0fd4337c", "number": "1701", "street": "E MAIN CROSS ST", "unit": "", "city": "FINDLAY", "district": "HAN", "region": "OH", "postcode": "45840", "id": ""}, "geometry": {"type": "Point", "coordinates": [-83.6170748, 41.0388054]}}
{"type": "Feature", "properties": {"hash": "f60ac92dc8853cee", "number": "1601", "street": "E MAIN CROSS ST", "unit": "", "city": "FINDLAY", "district": "HAN", "region": "OH", "postcode": "45840", "id": ""}, "geometry": {"type": "Point", "coordinates": [-83.6181937, 41.0391996]}}
{"type": "Feature", "properties": {"hash": "4f19fe0df6931fad", "number": "1539", "street": "E MAIN CROSS ST", "unit": "", "city": "FINDLAY", "district": "HAN", "region": "OH", "postcode": "45840", "id": ""}, "geometry": {"type": "Point", "coordinates": [-83.6186116, 41.0392952]}}
{"type": "Feature", "properties": {"hash": "09c8494da7601166", "number": "85600", "street": "KEYSER RD", "unit": "", "city": "CADIZ", "district": "", "region": "OH", "postcode": "43907", "id": ""}, "geometry": {"type": "Point", "coordinates": [-81.0652804, 40.3349436]}}
{"type": "Feature", "properties": {"hash": "26de487cacd8c152", "number": "86220", "street": "KEYSER RD", "unit": "", "city": "CADIZ", "district": "", "region": "OH", "postcode": "43907", "id": ""}, "geometry": {"type": "Point", "coordinates": [-81.0662762, 40.3440954]}}
{"type": "Feature", "properties": {"hash": "2211a1ddc3740df3", "number": "86500", "street": "KEYSER RD", "unit": "", "city": "CADIZ", "district": "", "region": "OH", "postcode": "43907", "id": ""}, "geometry": {"type": "Point", "coordinates": [-81.0682199, 40.3484955]}}
{"type": "Feature", "properties": {"hash": "1f1939d42442f6c5", "number": "3661", "street": "ST RT 65", "unit": "", "city": "MCCLURE", "district": "069", "region": "OH", "postcode": "43534", "id": ""}, "geometry": {"type": "Point", "coordinates": [-83.9346772, 41.414714]}}
{"type": "Feature", "properties": {"hash": "cd694d602e13de25", "number": "1256", "street": "TWP RD 19", "unit": "", "city": "NEW BAVARIA", "district": "069", "region": "OH", "postcode": "43548", "id": ""}, "geometry": {"type": "Point", "coordinates": [-84.2278526, 41.1696488]}}
{"type": "Feature", "properties": {"hash": "8c9be4215731fbfb", "number": "1260", "street": "TWP RD 19", "unit": "", "city": "NEW BAVARIA", "district": "069", "region": "OH", "postcode": "43548", "id": ""}, "geometry": {"type": "Point", "coordinates": [-84.2279737, 41.1700846]}}
{"type": "Feature", "properties": {"hash": "19643e84acba82a7", "number": "13", "street": "RUSTIC DR", "unit": "", "city": "MILLERSBURG", "district": "HOL", "region": "OH", "postcode": "44654", "id": ""}, "geometry": {"type": "Point", "coordinates": [-81.9152959, 40.5481588]}}
{"type": "Feature", "properties": {"hash": "65dbda0e7744b6f8", "number": "5110", "street": "EAGLE DR", "unit": "", "city": "MILLERSBURG", "district": "HOL", "region": "OH", "postcode": "44654", "id": ""}, "geometry": {"type": "Point", "coordinates": [-81.8070524, 40.5542029]}}
{"type": "Feature", "properties": {"hash": "eb34dbdab4aa4ae8", "number": "5116", "street": "EAGLE DR", "unit": "", "city": "MILLERSBURG", "district": "HOL", "region": "OH", "postcode": "44654", "id": ""}, "geometry": {"type": "Point", "coordinates": [-81.8070554, 40.5543636]}}
{"type": "Feature", "properties": {"hash": "4c7c27ec966cc774", "number": "307", "street": "FARM LN", "unit": "", "city": "TILTONSVILLE", "district": "JEF", "region": "OH", "postcode": "43963", "id": ""}, "geometry": {"type": "Point", "coordinates": [-80.6970655, 40.1737603]}}
{"type": "Feature", "properties": {"hash": "f3f050a360d1d18b", "number": "-9", "street": "FARM LN", "unit": "", "city": "TILTONSVILLE", "district": "JEF", "region": "OH", "postcode": "43963", "id": ""}, "geometry": {"type": "Point", "coordinates": [-80.6970276, 40.1737542]}}
{"type": "Feature", "properties": {"hash": "5f40427128b91f95", "number": "305", "street": "FARM LN", "unit": "", "city": "TILTONSVILLE", "district": "JEF", "region": "OH", "postcode": "43963", "id": ""}, "geometry": {"type": "Point", "coordinates": [-80.6967905, 40.1737142]}}
{"type": "Feature", "properties": {"hash": "7cd629109434996a", "number": "8080", "street": "HARBOR CREEK DR", "unit": "501", "city": "MENTOR ON THE LAKE", "district": "LAK", "region": "OH", "postcode": "44060", "id": ""}, "geometry": {"type": "Point", "coordinates": [-81.3494238, 41.7209351]}}
{"type": "Feature", "properties": {"hash": "3d5ce4f46bda1162", "number": "8080", "street": "HARBOR CREEK DR", "unit": "502", "city": "MENTOR ON THE LAKE", "district": "LAK", "region": "OH", "postcode": "44060", "id": ""}, "geometry": {"type": "Point", "coordinates": [-81.3494785, 41.7210818]}}
{"type": "Feature", "properties": {"hash": "5a0773d266db31f2", "number": "8080", "street": "HARBOR CREEK DR", "unit": "304", "city": "MENTOR ON THE LAKE", "district": "LAK", "region": "OH", "postcode": "44060", "id": ""}, "geometry": {"type": "Point", "coordinates": [-81.3496735, 41.7210783]}}
{"type": "Feature", "properties": {"id": "", "unit": "", "number": "235", "street": "SOUTH ST", "city": "HOPEWELL TWP", "district": "", "region": "OH", "postcode": "43740", "hash": "46b43d38d7927713"}, "geometry": {"type": "Point", "coordinates": [-82.2128697, 39.9507689]}}
{"type": "Feature", "properties": {"id": "", "unit": "", "number": "8335", "street": "REYNOLDSWOOD DR", "city": "ETNA TWP", "district": "", "region": "OH", "postcode": "43068", "hash": "85402cae085364f9"}, "geometry": {"type": "Point", "coordinates": [-82.7795844, 39.9755576]}}
{"type": "Feature", "properties": {"id": "", "unit": "", "number": "125", "street": "GREENBRIAR LN W", "city": "HEBRON", "district": "", "region": "OH", "postcode": "43025", "hash": "55d8a628646be3bb"}, "geometry": {"type": "Point", "coordinates": [-82.4804014, 39.9658181]}}
{"type": "Feature", "properties": {"hash": "dbdb28b31d9b36c7", "number": "611", "street": "SAXON DR", "unit": "", "city": "BELLEFONTAINE", "district": "LOG", "region": "OH", "postcode": "43311", "id": ""}, "geometry": {"type": "Point", "coordinates": [-83.7648439, 40.3352888]}}
{"type": "Feature", "properties": {"hash": "bb09fb2ff1381eb2", "number": "610", "street": "SAXON DR", "unit": "F", "city": "BELLEFONTAINE", "district": "LOG", "region": "OH", "postcode": "43311", "id": ""}, "geometry": {"type": "Point", "coordinates": [-83.7652023, 40.3354254]}}
{"type": "Feature", "properties": {"hash": "aa089876ff6f4409", "number": "610", "street": "SAXON DR", "unit": "E", "city": "BELLEFONTAINE", "district": "LOG", "region": "OH", "postcode": "43311", "id": ""}, "geometry": {"type": "Point", "coordinates": [-83.765188, 40.3354399]}}
{"type": "Feature", "properties": {"hash": "ab86436eedb517d3", "number": "9370", "street": "FELGER RD", "unit": "", "city": "SPRINGFIELD", "district": "", "region": "OH", "postcode": "44442", "id": ""}, "geometry": {"type": "Point", "coordinates": [-80.5244316, 40.9824185]}}
{"type": "Feature", "properties": {"hash": "320197d8624c10de", "number": "9494", "street": "FELGER RD", "unit": "", "city": "SPRINGFIELD", "district": "", "region": "OH", "postcode": "44442", "id": ""}, "geometry": {"type": "Point", "coordinates": [-80.5265816, 40.9804518]}}
{"type": "Feature", "properties": {"hash": "d530169ca2b7ca6a", "number": "9315", "street": "FELGER RD", "unit": "", "city": "SPRINGFIELD", "district": "", "region": "OH", "postcode": "44442", "id": ""}, "geometry": {"type": "Point", "coordinates": [-80.5211162, 40.9829748]}}
{"type": "Feature", "properties": {"hash": "f70500e9f50df6c1", "number": "5240", "street": "LITTLE WOODS LN", "unit": "", "city": "DAYTON", "district": "", "region": "OH", "postcode": "45429", "id": ""}, "geometry": {"type": "Point", "coordinates": [-84.1652736, 39.6704203]}}
{"type": "Feature", "properties": {"hash": "2250ca1d33b91dda", "number": "7680", "street": "WOLF CREEK PIKE", "unit": "", "city": "TROTWOOD", "district": "", "region": "OH", "postcode": "45426", "id": ""}, "geometry": {"type": "Point", "coordinates": [-84.3222952, 39.7960732]}}
{"type": "Feature", "properties": {"hash": "7ac0433c14628c7f", "number": "1", "street": "OAK ST", "unit": "", "city": "TROTWOOD", "district": "", "region": "OH", "postcode": "45426", "id": ""}, "geometry": {"type": "Point", "coordinates": [-84.3160965, 39.7974926]}}
{"type": "Feature", "properties": {"hash": "6e053dfa694da6ca", "number": "330", "street": "W MARION ST", "unit": "", "city": "MT GILEAD", "district": "MRW", "region": "OH", "postcode": "43338", "id": ""}, "geometry": {"type": "Point", "coordinates": [-82.8387959, 40.5484209]}}
{"type": "Feature", "properties": {"hash": "8ecec3bb12db9ace", "number": "356", "street": "HPM ST", "unit": "", "city": "MT GILEAD", "district": "MRW", "region": "OH", "postcode": "43338", "id": ""}, "geometry": {"type": "Point", "coordinates": [-82.8411511, 40.5499239]}}
{"type": "Feature", "properties": {"hash": "4bff21fc8f7ec22c", "number": "156", "street": "E WILLIAMS ST", "unit": "", "city": "CARDINGTON", "district": "MRW", "region": "OH", "postcode": "43315", "id": ""}, "geometry": {"type": "Point", "coordinates": [-82.894791, 40.5061954]}}
{"type": "Feature", "properties": {"hash": "5a64cfbdc7482bbb", "number": "357", "street": "N 5TH ST", "unit": "", "city": "ZANESVILLE", "district": "MUS", "region": "OH", "postcode": "43701", "id": ""}, "geometry": {"type": "Point", "coordinates": [-82.006355, 39.9457579]}}
{"type": "Feature", "properties": {"hash": "aa999a8a4ced2e4c", "number": "304", "street": "W MONROE ST", "unit": "", "city": "ZANESVILLE", "district": "MUS", "region": "OH", "postcode": "43701", "id": ""}, "geometry": {"type": "Point", "coordinates": [-82.0038391, 39.9531381]}}
{"type": "Feature", "properties": {"hash": "e871252b581afb9c", "number": "1038", "street": "LINDEN AVE", "unit": "", "city": "ZANESVILLE", "district": "MUS", "region": "OH", "postcode": "43701", "id": ""}, "geometry": {"type": "Point", "coordinates": [-82.0074673, 39.950966]}}
{"type": "Feature", "properties": {"hash": "be0c4a6333878064", "number": "490", "street": "BURDINE DR", "unit": "", "city": "OAK HARBOR", "district": "OTT", "region": "OH", "postcode": "43449", "id": ""}, "geometry": {"type": "Point", "coordinates": [-83.1538769, 41.5178981]}}
{"type": "Feature", "properties": {"hash": "8e1ca930c03eff97", "number": "208", "street": "E POINT BLVD", "unit": "", "city": "PUT IN BAY", "district": "OTT", "region": "OH", "postcode": "43456", "id": ""}, "geometry": {"type": "Point", "coordinates": [-82.8092857, 41.6573705]}}
{"type": "Feature", "properties": {"hash": "33990a4fe570dd64", "number": "480", "street": "BURDINE DR", "unit": "", "city": "OAK HARBOR", "district": "OTT", "region": "OH", "postcode": "43449", "id": ""}, "geometry": {"type": "Point", "coordinates": [-83.1535649, 41.5179907]}}
{"type": "Feature", "properties": {"hash": "8cda2775c3ba63f8", "number": "159", "street": "BREMEN DR", "unit": "", "city": "GLANDORF", "district": "PUT", "region": "OH", "postcode": "45875", "id": ""}, "geometry": {"type": "Point", "coordinates": [-84.0713263, 41.0256862]}}
{"type": "Feature", "properties": {"hash": "c977b58c55c2a375", "number": "4487", "street": "PRO TEC PKWY", "unit": "", "city": "LEIPSIC", "district": "PUT", "region": "OH", "postcode": "45856", "id": ""}, "geometry": {"type": "Point", "coordinates": [-83.9575644, 41.1167999]}}
{"type": "Feature", "properties": {"hash": "1b7205a9b7f9aad5", "number": "285", "street": "W FIRST ST", "unit": "", "city": "FORT JENNINGS", "district": "PUT", "region": "OH", "postcode": "45844", "id": ""}, "geometry": {"type": "Point", "coordinates": [-84.3020224, 40.9048088]}}
{"type": "Feature", "properties": {"hash": "39ec98cb69a71618", "number": "1432", "street": "MAPLE AVE NE", "unit": "", "city": "CANTON", "district": "STA", "region": "OH", "postcode": "44705", "id": ""}, "geometry": {"type": "Point", "coordinates": [-81.3520478, 40.8142746]}}
{"type": "Feature", "properties": {"hash": "049746921a1e9ce5", "number": "1734", "street": "16TH ST NE", "unit": "", "city": "CANTON", "district": "STA", "region": "OH", "postcode": "44705", "id": ""}, "geometry": {"type": "Point", "coordinates": [-81.3529493, 40.8142209]}}
{"type": "Feature", "properties": {"hash": "cb06196be352cf0c", "number": "1732", "street": "16TH ST NE", "unit": "", "city": "CANTON", "district": "STA", "region": "OH", "postcode": "44705", "id": ""}, "geometry": {"type": "Point", "coordinates": [-81.353083, 40.8142283]}}
{"type": "Feature", "properties": {"hash": "75db4029e5c1cfa3", "number": "1803", "street": "S STATE ST", "unit": "", "city": "GIRARD", "district": "TRU", "region": "OH", "postcode": "44420", "id": ""}, "geometry": {"type": "Point", "coordinates": [-80.6860129, 41.1347074]}}
{"type": "Feature", "properties": {"hash": "5b9e1287e918c5da", "number": "1727", "street": "S STATE ST", "unit": "", "city": "GIRARD", "district": "TRU", "region": "OH", "postcode": "44420", "id": ""}, "geometry": {"type": "Point", "coordinates": [-80.6862413, 41.1350492]}}
{"type": "Feature", "properties": {"hash": "3af183bba9944670", "number": "0", "street": "S STATE ST", "unit": "", "city": "GIRARD", "district": "TRU", "region": "OH", "postcode": "44420", "id": ""}, "geometry": {"type": "Point", "coordinates": [-80.6866359, 41.135643]}}
{"type": "Feature", "properties": {"hash": "6f0b6dc8590cf450", "number": "2097", "street": "JOHNSTOWN RD NE", "unit": "", "city": "DOVER", "district": "", "region": "OH", "postcode": "44622", "id": ""}, "geometry": {"type": "Point", "coordinates": [-81.4152536, 40.5310597]}}
{"type": "Feature", "properties": {"hash": "c4915126dbe9e4b3", "number": "6450", "street": "MCKEE RD NE", "unit": "", "city": "MINERAL CITY", "district": "", "region": "OH", "postcode": "44656", "id": ""}, "geometry": {"type": "Point", "coordinates": [-81.3314314, 40.549487]}}
{"type": "Feature", "properties": {"hash": "bbbd6ae537c70a59", "number": "6497", "street": "MCKEE RD NE", "unit": "", "city": "MINERAL CITY", "district": "", "region": "OH", "postcode": "44656", "id": ""}, "geometry": {"type": "Point", "coordinates": [-81.3304128, 40.5496977]}}
{"type": "Feature", "properties": {"hash": "1689df20b2a8bebb", "number": "10522", "street": "S   JEFFERSON AVE", "unit": "", "city": "PLAIN CITY", "district": "", "region": "OH", "postcode": "43064", "id": ""}, "geometry": {"type": "Point", "coordinates": [-83.2802227, 40.0967822]}}
{"type": "Feature", "properties": {"hash": "43d6da3f555b2f7c", "number": "210", "street": "COACHMAN DR", "unit": "", "city": "PLAIN CITY", "district": "", "region": "OH", "postcode": "43064", "id": ""}, "geometry": {"type": "Point", "coordinates": [-83.2698367, 40.0975706]}}
{"type": "Feature", "properties": {"hash": "0c203ea05b37b87a", "number": "200", "street": "COACHMAN DR", "unit": "", "city": "PLAIN CITY", "district": "", "region": "OH", "postcode": "43064", "id": ""}, "geometry": {"type": "Point", "coordinates": [-83.2700479, 40.0975967]}}
{"type": "Feature", "properties": {"hash": "29fefa2858efd1b6", "number": "121", "street": "S PORTLAND ST", "unit": "", "city": "BRYAN", "district": "WIL", "region": "OH", "postcode": "43506", "id": ""}, "geometry": {"type": "Point", "coordinates": [-84.5556539, 41.4739094]}}
{"type": "Feature", "properties": {"hash": "c696aa65109f0c1a", "number": "150", "street": "S PORTLAND ST", "unit": "", "city": "BRYAN", "district": "WIL", "region": "OH", "postcode": "43506", "id": ""}, "geometry": {"type": "Point", "coordinates": [-84.5560113, 41.4734143]}}
{"type": "Feature", "properties": {"hash": "19560fba32754e20", "number": "123", "street": "S PORTLAND ST", "unit": "A~D", "city": "BRYAN", "district": "WIL", "region": "OH", "postcode": "43506", "id": ""}, "geometry": {"type": "Point", "coordinates": [-84.5554904, 41.4738151]}}
{"type": "Feature", "properties": {"hash": "6530d78c8d31083a", "number": "655", "street": "S POE RD", "unit": "J6", "city": "NORTH BALTIMORE", "district": "WOO", "region": "OH", "postcode": "45872", "id": ""}, "geometry": {"type": "Point", "coordinates": [-83.6640867, 41.1737328]}}
{"type": "Feature", "properties": {"hash": "7095f123f4c2fad0", "number": "655", "street": "S POE RD", "unit": "J5", "city": "NORTH BALTIMORE", "district": "WOO", "region": "OH", "postcode": "45872", "id": ""}, "geometry": {"type": "Point", "coordinates": [-83.6640096, 41.1738242]}}
{"type": "Feature", "properties": {"hash": "05d53ba35a6a2b5e", "number": "655", "street": "S POE RD", "unit": "J1", "city": "NORTH BALTIMORE", "district": "WOO", "region": "OH", "postcode": "45872", "id": ""}, "geometry": {"type": "Point", "coordinates": [-83.6641954, 41.1737374]}}
