{"type": "Feature", "properties": {"hash": "be868485b1ef5c87", "number": "98171", "street": "TUTTLE LN", "unit": "", "city": "BROOKINGS", "district": "", "region": "OR", "postcode": "97415", "id": ""}, "geometry": {"type": "Point", "coordinates": [-124.2502731, 42.0465072]}}
{"type": "Feature", "properties": {"hash": "57bceb08a93c8fa9", "number": "97979", "street": "COURT ST", "unit": "", "city": "BROOKINGS", "district": "", "region": "OR", "postcode": "97415", "id": ""}, "geometry": {"type": "Point", "coordinates": [-124.2583062, 42.0534677]}}
{"type": "Feature", "properties": {"hash": "b169df239117be3d", "number": "32051", "street": "WATSON LN", "unit": "SP K", "city": "GOLD BEACH", "district": "", "region": "OR", "postcode": "97444", "id": ""}, "geometry": {"type": "Point", "coordinates": [-124.3174346, 42.4809226]}}
{"type": "Feature", "properties": {"hash": "16c532baeed4a90a", "number": "31084", "street": "CRABAPPLE WAY", "unit": "#10", "city": "GOLD BEACH", "district": "", "region": "OR", "postcode": "97444", "id": ""}, "geometry": {"type": "Point", "coordinates": [-124.3683164, 42.454759]}}
{"type": "Feature", "properties": {"hash": "6f541934bc32c1d3", "number": "15785", "street": "S HWY 101", "unit": "", "city": "BROOKINGS", "district": "", "region": "OR", "postcode": "97415", "id": ""}, "geometry": {"type": "Point", "coordinates": [-124.2432932, 42.0379823]}}
{"type": "Feature", "properties": {"hash": "42186a47dcf5ac22", "number": "95623", "street": "JERRYS FLAT RD", "unit": "#1", "city": "GOLD BEACH", "district": "", "region": "OR", "postcode": "97444", "id": ""}, "geometry": {"type": "Point", "coordinates": [-124.3737602, 42.4453739]}}
{"type": "Feature", "properties": {"hash": "d5b27f9dd9c830b2", "number": "16391", "street": "HWY 101", "unit": "#25", "city": "BROOKINGS", "district": "", "region": "OR", "postcode": "97415", "id": ""}, "geometry": {"type": "Point", "coordinates": [-124.2621275, 42.0543687]}}
{"type": "Feature", "properties": {"hash": "7d503a7b6148eefc", "number": "16391", "street": "HWY 101", "unit": "#3", "city": "BROOKINGS", "district": "", "region": "OR", "postcode": "97415", "id": ""}, "geometry": {"type": "Point", "coordinates": [-124.2621275, 42.0543687]}}
{"type": "Feature", "properties": {"hash": "9dc1ac30c1f16a6e", "number": "94120", "street": "STRAHAN ST", "unit": "#49", "city": "GOLD BEACH", "district": "", "region": "OR", "postcode": "97444", "id": ""}, "geometry": {"type": "Point", "coordinates": [-124.4227182, 42.4129375]}}
{"type": "Feature", "properties": {"hash": "e7a4d4d1d361f780", "number": "15505", "street": "OCEANVIEW DR", "unit": "#21", "city": "BROOKINGS", "district": "", "region": "OR", "postcode": "97415", "id": ""}, "geometry": {"type": "Point", "coordinates": [-124.2479058, 42.0299064]}}
{"type": "Feature", "properties": {"hash": "c46894c7f75a998b", "number": "17029", "street": "FERRY CREEK HTS", "unit": "", "city": "BROOKINGS", "district": "", "region": "OR", "postcode": "97415", "id": ""}, "geometry": {"type": "Point", "coordinates": [-124.2626917, 42.0712001]}}
{"type": "Feature", "properties": {"hash": "993293bb88c4e359", "number": "19091", "street": "BARNACLE ROCK RD", "unit": "", "city": "BROOKINGS", "district": "", "region": "OR", "postcode": "97415", "id": ""}, "geometry": {"type": "Point", "coordinates": [-124.3466651, 42.1243766]}}
{"type": "Feature", "properties": {"hash": "ad828e557179bd3e", "number": "98090", "street": "W BENHAM LN", "unit": "#23", "city": "BROOKINGS", "district": "", "region": "OR", "postcode": "97415", "id": ""}, "geometry": {"type": "Point", "coordinates": [-124.2537272, 42.0417109]}}
{"type": "Feature", "properties": {"hash": "27c2cc67ac1c92bc", "number": "97091", "street": "N BANK ROGUE", "unit": "", "city": "GOLD BEACH", "district": "", "region": "OR", "postcode": "97444", "id": ""}, "geometry": {"type": "Point", "coordinates": [-124.3164056, 42.4859226]}}
{"type": "Feature", "properties": {"hash": "53a0e6957b108390", "number": "17886", "street": "RAINBOW ROCK RD", "unit": "", "city": "BROOKINGS", "district": "", "region": "OR", "postcode": "97415", "id": ""}, "geometry": {"type": "Point", "coordinates": [-124.3091723, 42.0934908]}}
{"type": "Feature", "properties": {"hash": "f86fccdd60ccad18", "number": "98090", "street": "W BENHAM LN", "unit": "#8", "city": "BROOKINGS", "district": "", "region": "OR", "postcode": "97415", "id": ""}, "geometry": {"type": "Point", "coordinates": [-124.2537272, 42.0417109]}}
{"type": "Feature", "properties": {"hash": "ed474db78c5249d9", "number": "15505", "street": "OCEANVIEW DR", "unit": "#15", "city": "BROOKINGS", "district": "", "region": "OR", "postcode": "97415", "id": ""}, "geometry": {"type": "Point", "coordinates": [-124.2479058, 42.0299064]}}
{"type": "Feature", "properties": {"hash": "f83c571cf3bcef20", "number": "15694", "street": "S HWY 101", "unit": "#2", "city": "BROOKINGS", "district": "", "region": "OR", "postcode": "97415", "id": ""}, "geometry": {"type": "Point", "coordinates": [-124.2396675, 42.0317294]}}
{"type": "Feature", "properties": {"hash": "ea74153306ad2f3c", "number": "94120", "street": "STRAHAN ST", "unit": "#68", "city": "GOLD BEACH", "district": "", "region": "OR", "postcode": "97444", "id": ""}, "geometry": {"type": "Point", "coordinates": [-124.4227182, 42.4129375]}}
{"type": "Feature", "properties": {"hash": "6ccfe872b80a467b", "number": "16391", "street": "HWY 101", "unit": "#12", "city": "BROOKINGS", "district": "", "region": "OR", "postcode": "97415", "id": ""}, "geometry": {"type": "Point", "coordinates": [-124.2621275, 42.0543687]}}
{"type": "Feature", "properties": {"hash": "49007fddb852d46b", "number": "47474", "street": "FLORAS LAKE LOOP", "unit": "", "city": "LANGLOIS", "district": "", "region": "OR", "postcode": "97450", "id": ""}, "geometry": {"type": "Point", "coordinates": [-124.4708575, 42.9018955]}}
{"type": "Feature", "properties": {"hash": "bccde88c277b7ef9", "number": "98825", "street": "PLEASANT HILL DR", "unit": "#43", "city": "BROOKINGS", "district": "", "region": "OR", "postcode": "97415", "id": ""}, "geometry": {"type": "Point", "coordinates": [-124.228358, 42.0656383]}}
{"type": "Feature", "properties": {"hash": "03e2844f73f0c745", "number": "97049", "street": "APPLE BLOSSOM CT", "unit": "", "city": "BROOKINGS", "district": "", "region": "OR", "postcode": "97415", "id": ""}, "geometry": {"type": "Point", "coordinates": [-124.2952844, 42.0865325]}}
{"type": "Feature", "properties": {"hash": "1bc96ea219d38513", "number": "99243", "street": "WINCHUCK RIVER RD", "unit": "", "city": "BROOKINGS", "district": "", "region": "OR", "postcode": "97415", "id": ""}, "geometry": {"type": "Point", "coordinates": [-124.2088227, 42.0079463]}}
{"type": "Feature", "properties": {"hash": "50b7148f26cd691d", "number": "17643", "street": "GARDNER RIDGE RD", "unit": "", "city": "BROOKINGS", "district": "", "region": "OR", "postcode": "97415", "id": ""}, "geometry": {"type": "Point", "coordinates": [-124.2032871, 42.0893416]}}
{"type": "Feature", "properties": {"id": "", "unit": "", "number": "13750", "street": "SE LINCOLN ST", "city": "PORTLAND", "district": "MULTNOMAH", "region": "OR", "postcode": "97233", "hash": "0127611eec82f2d1"}, "geometry": {"type": "Point", "coordinates": [-122.5218533, 45.5075025]}}
{"type": "Feature", "properties": {"id": "", "unit": "", "number": "13733", "street": "SE KELLY CT", "city": "PORTLAND", "district": "MULTNOMAH", "region": "OR", "postcode": "97236", "hash": "c0b44e688bb70255"}, "geometry": {"type": "Point", "coordinates": [-122.5219015, 45.4996135]}}
{"type": "Feature", "properties": {"id": "", "unit": "", "number": "6005", "street": "N BOSTON AVE", "city": "PORTLAND", "district": "MULTNOMAH", "region": "OR", "postcode": "97217", "hash": "a49b6c079747e915"}, "geometry": {"type": "Point", "coordinates": [-122.6917042, 45.5665036]}}
{"type": "Feature", "properties": {"id": "", "unit": "B", "number": "11285", "street": "SW CAPITOL HWY", "city": "PORTLAND", "district": "MULTNOMAH", "region": "OR", "postcode": "97219", "hash": "b578d44c5fe3c854"}, "geometry": {"type": "Point", "coordinates": [-122.7365499, 45.4432197]}}
{"type": "Feature", "properties": {"id": "", "unit": "B", "number": "8630", "street": "NE HASSALO ST", "city": "PORTLAND", "district": "MULTNOMAH", "region": "OR", "postcode": "97220", "hash": "3655aa35363cd092"}, "geometry": {"type": "Point", "coordinates": [-122.5740153, 45.5307323]}}
{"type": "Feature", "properties": {"id": "", "unit": "B", "number": "5145", "street": "SE 85TH AVE", "city": "PORTLAND", "district": "MULTNOMAH", "region": "OR", "postcode": "97266", "hash": "3e1c4750e06f4824"}, "geometry": {"type": "Point", "coordinates": [-122.5761273, 45.4849943]}}
{"type": "Feature", "properties": {"id": "", "unit": "B", "number": "5526", "street": "NE SIMPSON ST", "city": "PORTLAND", "district": "MULTNOMAH", "region": "OR", "postcode": "97218", "hash": "3072984694923879"}, "geometry": {"type": "Point", "coordinates": [-122.606199, 45.564818]}}
{"type": "Feature", "properties": {"id": "", "unit": "", "number": "0", "street": "N INTERSTATE AVE", "city": "PORTLAND", "district": "MULTNOMAH", "region": "OR", "postcode": "97217", "hash": "60a77f13f8a90cbe"}, "geometry": {"type": "Point", "coordinates": [-122.6824283, 45.5805766]}}
{"type": "Feature", "properties": {"id": "", "unit": "", "number": "0", "street": "NE ALBERTA ST", "city": "PORTLAND", "district": "MULTNOMAH", "region": "OR", "postcode": "97211", "hash": "51538be157004295"}, "geometry": {"type": "Point", "coordinates": [-122.6582241, 45.5589719]}}
{"type": "Feature", "properties": {"id": "", "unit": "", "number": "0", "street": "NE WEIDLER ST", "city": "PORTLAND", "district": "MULTNOMAH", "region": "OR", "postcode": "97232", "hash": "01c64f9c81358f6f"}, "geometry": {"type": "Point", "coordinates": [-122.6374309, 45.5346668]}}
{"type": "Feature", "properties": {"id": "", "unit": "", "number": "01", "street": "SW RICHARDSON ST", "city": "PORTLAND", "district": "MULTNOMAH", "region": "OR", "postcode": "97239", "hash": "346b552d234d3ffc"}, "geometry": {"type": "Point", "coordinates": [-122.6777769, 45.4873458]}}
{"type": "Feature", "properties": {"id": "", "unit": "APT 101", "number": "010", "street": "SW PORTER ST", "city": "PORTLAND", "district": "MULTNOMAH", "region": "OR", "postcode": "97201", "hash": "9ddaf2d920cf60b5"}, "geometry": {"type": "Point", "coordinates": [-122.6774013, 45.5011693]}}
{"type": "Feature", "properties": {"id": "", "unit": "APT 102", "number": "010", "street": "SW PORTER ST", "city": "PORTLAND", "district": "MULTNOMAH", "region": "OR", "postcode": "97201", "hash": "756d0862b5785401"}, "geometry": {"type": "Point", "coordinates": [-122.6774013, 45.5011693]}}
{"type": "Feature", "properties": {"id": "", "unit": "APT 103", "number": "010", "street": "SW PORTER ST", "city": "PORTLAND", "district": "MULTNOMAH", "region": "OR", "postcode": "97201", "hash": "cb3be8126a545b80"}, "geometry": {"type": "Point", "coordinates": [-122.6774013, 45.5011693]}}
{"type": "Feature", "properties": {"id": "", "unit": "APT 104", "number": "010", "street": "SW PORTER ST", "city": "PORTLAND", "district": "MULTNOMAH", "region": "OR", "postcode": "97201", "hash": "08d09b60e4c88ca6"}, "geometry": {"type": "Point", "coordinates": [-122.6774013, 45.5011693]}}
{"type": "Feature", "properties": {"id": "", "unit": "APT 105", "number": "010", "street": "SW PORTER ST", "city": "PORTLAND", "district": "MULTNOMAH", "region": "OR", "postcode": "97201", "hash": "f52150b0bf82d2e6"}, "geometry": {"type": "Point", "coordinates": [-122.6774013, 45.5011693]}}
{"type": "Feature", "properties": {"id": "", "unit": "APT 106", "number": "010", "street": "SW PORTER ST", "city": "PORTLAND", "district": "MULTNOMAH", "region": "OR", "postcode": "97201", "hash": "ff808b3d2a374fb5"}, "geometry": {"type": "Point", "coordinates": [-122.6774013, 45.5011693]}}
{"type": "Feature", "properties": {"id": "", "unit": "APT 107", "number": "010", "street": "SW PORTER ST", "city": "PORTLAND", "district": "MULTNOMAH", "region": "OR", "postcode": "97201", "hash": "839ab46cfe4d9937"}, "geometry": {"type": "Point", "coordinates": [-122.6774013, 45.5011693]}}
{"type": "Feature", "properties": {"id": "", "unit": "APT 108", "number": "010", "street": "SW PORTER ST", "city": "PORTLAND", "district": "MULTNOMAH", "region": "OR", "postcode": "97201", "hash": "e6c3c9845205e20b"}, "geometry": {"type": "Point", "coordinates": [-122.6774013, 45.5011693]}}
{"type": "Feature", "properties": {"id": "", "unit": "APT 201", "number": "010", "street": "SW PORTER ST", "city": "PORTLAND", "district": "MULTNOMAH", "region": "OR", "postcode": "97201", "hash": "0927babc9de46c2f"}, "geometry": {"type": "Point", "coordinates": [-122.6774013, 45.5011693]}}
{"type": "Feature", "properties": {"id": "", "unit": "APT 202", "number": "010", "street": "SW PORTER ST", "city": "PORTLAND", "district": "MULTNOMAH", "region": "OR", "postcode": "97201", "hash": "380504579c6da39c"}, "geometry": {"type": "Point", "coordinates": [-122.6774013, 45.5011693]}}
{"type": "Feature", "properties": {"id": "", "unit": "APT 203", "number": "010", "street": "SW PORTER ST", "city": "PORTLAND", "district": "MULTNOMAH", "region": "OR", "postcode": "97201", "hash": "e79fed655cbe73ba"}, "geometry": {"type": "Point", "coordinates": [-122.6774013, 45.5011693]}}
{"type": "Feature", "properties": {"id": "", "unit": "APT 204", "number": "010", "street": "SW PORTER ST", "city": "PORTLAND", "district": "MULTNOMAH", "region": "OR", "postcode": "97201", "hash": "69264f310ea9d34d"}, "geometry": {"type": "Point", "coordinates": [-122.6774013, 45.5011693]}}
{"type": "Feature", "properties": {"id": "", "unit": "APT 205", "number": "010", "street": "SW PORTER ST", "city": "PORTLAND", "district": "MULTNOMAH", "region": "OR", "postcode": "97201", "hash": "58cad1f713a20044"}, "geometry": {"type": "Point", "coordinates": [-122.6774013, 45.5011693]}}
{"type": "Feature", "properties": {"id": "", "unit": "APT 206", "number": "010", "street": "SW PORTER ST", "city": "PORTLAND", "district": "MULTNOMAH", "region": "OR", "postcode": "97201", "hash": "1b7ff5f1e7733c7a"}, "geometry": {"type": "Point", "coordinates": [-122.6774013, 45.5011693]}}
{"type": "Feature", "properties": {"id": "", "unit": "", "number": "44880", "street": "TIDE AVE", "city": "FALCON COVE", "district": "TILLAMOOK", "region": "OR", "postcode": "97102", "hash": "d3c0ed7dcfa3cea2"}, "geometry": {"type": "Point", "coordinates": [-123.9680479, 45.7821828]}}
{"type": "Feature", "properties": {"id": "", "unit": "", "number": "44850", "street": "3RD AVE", "city": "FALCON COVE", "district": "TILLAMOOK", "region": "OR", "postcode": "97102", "hash": "37375baddc40f11c"}, "geometry": {"type": "Point", "coordinates": [-123.9658486, 45.7822358]}}
{"type": "Feature", "properties": {"id": "", "unit": "", "number": "44855", "street": "2ND AVE", "city": "FALCON COVE", "district": "TILLAMOOK", "region": "OR", "postcode": "97102", "hash": "d3a4e78fb47d77a0"}, "geometry": {"type": "Point", "coordinates": [-123.9663526, 45.7820878]}}
{"type": "Feature", "properties": {"id": "", "unit": "", "number": "44850", "street": "TIDE AVE", "city": "FALCON COVE", "district": "TILLAMOOK", "region": "OR", "postcode": "97102", "hash": "f3740a9d4f322823"}, "geometry": {"type": "Point", "coordinates": [-123.9679113, 45.7820106]}}
{"type": "Feature", "properties": {"id": "", "unit": "", "number": "44805", "street": "TIDE AVE", "city": "FALCON COVE", "district": "TILLAMOOK", "region": "OR", "postcode": "97102", "hash": "31adc40d0e853a92"}, "geometry": {"type": "Point", "coordinates": [-123.9672318, 45.7817833]}}
{"type": "Feature", "properties": {"id": "", "unit": "", "number": "44775", "street": "TIDE AVE", "city": "FALCON COVE", "district": "TILLAMOOK", "region": "OR", "postcode": "97102", "hash": "151cc16d0a256ead"}, "geometry": {"type": "Point", "coordinates": [-123.967046, 45.7814713]}}
{"type": "Feature", "properties": {"id": "", "unit": "", "number": "44790", "street": "TIDE AVE", "city": "FALCON COVE", "district": "TILLAMOOK", "region": "OR", "postcode": "97102", "hash": "ab10903591f9a1b4"}, "geometry": {"type": "Point", "coordinates": [-123.9676892, 45.781443]}}
{"type": "Feature", "properties": {"id": "", "unit": "", "number": "12740", "street": "A ST", "city": "NEHALEM", "district": "TILLAMOOK", "region": "OR", "postcode": "97131", "hash": "62775842b5bf8ec9"}, "geometry": {"type": "Point", "coordinates": [-123.8985305, 45.7184299]}}
{"type": "Feature", "properties": {"id": "", "unit": "", "number": "36095", "street": "9TH ST", "city": "NEHALEM", "district": "TILLAMOOK", "region": "OR", "postcode": "97131", "hash": "4c0aea028f8b8084"}, "geometry": {"type": "Point", "coordinates": [-123.8959568, 45.7182534]}}
{"type": "Feature", "properties": {"id": "", "unit": "", "number": "8805", "street": "PUFFIN LN", "city": "MANZANITA", "district": "TILLAMOOK", "region": "OR", "postcode": "97130", "hash": "e6e8e9e88e6f53c0"}, "geometry": {"type": "Point", "coordinates": [-123.9381353, 45.7095548]}}
{"type": "Feature", "properties": {"id": "", "unit": "", "number": "34065", "street": "WOOD DUCK AVE", "city": "BAYSIDE GARDENS", "district": "TILLAMOOK", "region": "OR", "postcode": "97131", "hash": "986d120fd0343bfb"}, "geometry": {"type": "Point", "coordinates": [-123.9117749, 45.7103901]}}
{"type": "Feature", "properties": {"id": "", "unit": "", "number": "36090", "street": "8TH ST", "city": "NEHALEM", "district": "TILLAMOOK", "region": "OR", "postcode": "97131", "hash": "e5b82e9f3b12780a"}, "geometry": {"type": "Point", "coordinates": [-123.8955119, 45.7184357]}}
{"type": "Feature", "properties": {"id": "", "unit": "", "number": "9155", "street": "WINDWARD LN", "city": "NECARNEY CITY", "district": "TILLAMOOK", "region": "OR", "postcode": "97131", "hash": "f49952e11f2ec13c"}, "geometry": {"type": "Point", "coordinates": [-123.9349987, 45.7074132]}}
{"type": "Feature", "properties": {"id": "", "unit": "", "number": "34815", "street": "LODGEPOLE DR", "city": "BAYSIDE GARDENS", "district": "TILLAMOOK", "region": "OR", "postcode": "97131", "hash": "9193da7f5e106c14"}, "geometry": {"type": "Point", "coordinates": [-123.9240531, 45.7098975]}}
{"type": "Feature", "properties": {"id": "", "unit": "", "number": "10900", "street": "PACIFIC HEIGHTS CT", "city": "BAYSIDE GARDENS", "district": "TILLAMOOK", "region": "OR", "postcode": "97131", "hash": "601bd4ec8cb3b510"}, "geometry": {"type": "Point", "coordinates": [-123.9192166, 45.7211384]}}
{"type": "Feature", "properties": {"id": "", "unit": "", "number": "41100", "street": "HIGHWAY 53", "city": "NEHALEM", "district": "TILLAMOOK", "region": "OR", "postcode": "97131", "hash": "1f91d1ba999d43d9"}, "geometry": {"type": "Point", "coordinates": [-123.8373696, 45.7525009]}}
{"type": "Feature", "properties": {"id": "", "unit": "", "number": "5955", "street": "ELK FLAT RD", "city": "FALCON COVE", "district": "TILLAMOOK", "region": "OR", "postcode": "97102", "hash": "8a0eb0be42330719"}, "geometry": {"type": "Point", "coordinates": [-123.9700141, 45.7780568]}}
{"type": "Feature", "properties": {"id": "", "unit": "", "number": "44100", "street": "HIGHWAY 53", "city": "NEHALEM", "district": "TILLAMOOK", "region": "OR", "postcode": "97131", "hash": "1fd5e2237f8f9f61"}, "geometry": {"type": "Point", "coordinates": [-123.830292, 45.7746761]}}
{"type": "Feature", "properties": {"id": "", "unit": "", "number": "44500", "street": "TIDE AVE", "city": "FALCON COVE", "district": "TILLAMOOK", "region": "OR", "postcode": "97102", "hash": "13e3cfd3a1c666d9"}, "geometry": {"type": "Point", "coordinates": [-123.964476, 45.7798009]}}
{"type": "Feature", "properties": {"id": "", "unit": "", "number": "44890", "street": "KATHERINE LN", "city": "NEHALEM", "district": "TILLAMOOK", "region": "OR", "postcode": "97131", "hash": "9a85432982edecb4"}, "geometry": {"type": "Point", "coordinates": [-123.8429035, 45.7799376]}}
{"type": "Feature", "properties": {"id": "", "unit": "", "number": "36090", "street": "9TH ST", "city": "NEHALEM", "district": "TILLAMOOK", "region": "OR", "postcode": "97131", "hash": "74c75accb9d77b74"}, "geometry": {"type": "Point", "coordinates": [-123.8966181, 45.7185032]}}
{"type": "Feature", "properties": {"id": "", "unit": "", "number": "15785", "street": "MCKIMENS RD", "city": "NEHALEM", "district": "TILLAMOOK", "region": "OR", "postcode": "97131", "hash": "1ce8a37b7685d5a3"}, "geometry": {"type": "Point", "coordinates": [-123.8662201, 45.7191046]}}
{"type": "Feature", "properties": {"id": "", "unit": "", "number": "10", "street": "HALLIE LN", "city": "MANZANITA", "district": "TILLAMOOK", "region": "OR", "postcode": "97130", "hash": "2c2c66e09c2bd9f1"}, "geometry": {"type": "Point", "coordinates": [-123.9397477, 45.717168]}}
{"type": "Feature", "properties": {"id": "", "unit": "", "number": "44705", "street": "TIDE AVE", "city": "FALCON COVE", "district": "TILLAMOOK", "region": "OR", "postcode": "97102", "hash": "2fc99071bd4f6428"}, "geometry": {"type": "Point", "coordinates": [-123.9669918, 45.7810534]}}
{"type": "Feature", "properties": {"id": "", "unit": "", "number": "44710", "street": "TIDE AVE", "city": "FALCON COVE", "district": "TILLAMOOK", "region": "OR", "postcode": "97102", "hash": "ba6cd846211e57d8"}, "geometry": {"type": "Point", "coordinates": [-123.9676477, 45.7809468]}}
{"type": "Feature", "properties": {"hash": "a7983c2da936b3e6", "number": "73691", "street": "SNOW RD", "unit": "", "city": "ECHO", "district": "", "region": "OR", "postcode": "97826.0", "id": ""}, "geometry": {"type": "Point", "coordinates": [-119.2243329, 45.5879734]}}
{"type": "Feature", "properties": {"hash": "f1e80e77f7cd1a3c", "number": "34370", "street": "BUTTER CRK RD", "unit": "", "city": "ECHO", "district": "", "region": "OR", "postcode": "97826.0", "id": ""}, "geometry": {"type": "Point", "coordinates": [-119.2087116, 45.527127]}}
{"type": "Feature", "properties": {"hash": "36fb516f37bfd2d3", "number": "73367", "street": "MUD SPRINGS RD", "unit": "", "city": "PILOT ROCK", "district": "", "region": "OR", "postcode": "97868.0", "id": ""}, "geometry": {"type": "Point", "coordinates": [-118.9995645, 45.5919979]}}
{"type": "Feature", "properties": {"hash": "a00386a009e21e1a", "number": "70467", "street": "MUD SPRINGS RD", "unit": "", "city": "PILOT ROCK", "district": "", "region": "OR", "postcode": "97868.0", "id": ""}, "geometry": {"type": "Point", "coordinates": [-119.039542, 45.5280832]}}
{"type": "Feature", "properties": {"hash": "60ce2fa4c1e078a3", "number": "41711", "street": "COOMBS CANYON RD", "unit": "", "city": "PENDLETON", "district": "", "region": "OR", "postcode": "97801.0", "id": ""}, "geometry": {"type": "Point", "coordinates": [-118.8876795, 45.587069]}}
{"type": "Feature", "properties": {"hash": "bde158101dfac41c", "number": "39381", "street": "COOMBS CANY RD", "unit": "", "city": "PENDLETON", "district": "", "region": "OR", "postcode": "97801.0", "id": ""}, "geometry": {"type": "Point", "coordinates": [-118.9836503, 45.5840851]}}
{"type": "Feature", "properties": {"hash": "212147628c2b129f", "number": "39381", "street": "COOMBS CANY RD", "unit": "", "city": "PENDLETON", "district": "", "region": "OR", "postcode": "97801.0", "id": ""}, "geometry": {"type": "Point", "coordinates": [-118.9004467, 45.5477457]}}
{"type": "Feature", "properties": {"hash": "103bfe7a3885fc0e", "number": "72654", "street": "REINHART RD", "unit": "", "city": "PENDLETON", "district": "", "region": "OR", "postcode": "97801.0", "id": ""}, "geometry": {"type": "Point", "coordinates": [-118.8825071, 45.5601029]}}
{"type": "Feature", "properties": {"hash": "65ff96331c17161b", "number": "71247", "street": "BLANCHET LN", "unit": "", "city": "PENDLETON", "district": "", "region": "OR", "postcode": "97801.0", "id": ""}, "geometry": {"type": "Point", "coordinates": [-118.9876962, 45.5553981]}}
{"type": "Feature", "properties": {"hash": "65ff96331c17161b", "number": "71247", "street": "BLANCHET LN", "unit": "", "city": "PENDLETON", "district": "", "region": "OR", "postcode": "97801.0", "id": ""}, "geometry": {"type": "Point", "coordinates": [-118.9876962, 45.5553981]}}
{"type": "Feature", "properties": {"hash": "b62c56dcac763353", "number": "71530", "street": "REDWINE RD", "unit": "", "city": "PENDLETON", "district": "", "region": "OR", "postcode": "97801.0", "id": ""}, "geometry": {"type": "Point", "coordinates": [-118.8956037, 45.5480845]}}
{"type": "Feature", "properties": {"hash": "46737b994fc7ef1c", "number": "70597", "street": "BLANCHET LN", "unit": "", "city": "PENDLETON", "district": "", "region": "OR", "postcode": "97801.0", "id": ""}, "geometry": {"type": "Point", "coordinates": [-118.988496, 45.5284446]}}
{"type": "Feature", "properties": {"hash": "31ccb20213a7f94c", "number": "71028", "street": "STRAUGHAN RD", "unit": "", "city": "PENDLETON", "district": "", "region": "OR", "postcode": "97801.0", "id": ""}, "geometry": {"type": "Point", "coordinates": [-118.822953, 45.5983001]}}
{"type": "Feature", "properties": {"hash": "51a0ea286eac004f", "number": "43242", "street": "COOMBS CANY RD", "unit": "", "city": "PENDLETON", "district": "", "region": "OR", "postcode": "97801.0", "id": ""}, "geometry": {"type": "Point", "coordinates": [-118.813577, 45.5938498]}}
{"type": "Feature", "properties": {"hash": "c74c6ca30aaf8da8", "number": "70541", "street": "SPARKS STA RD", "unit": "", "city": "PENDLETON", "district": "", "region": "OR", "postcode": "97801.0", "id": ""}, "geometry": {"type": "Point", "coordinates": [-118.814567, 45.5917099]}}
{"type": "Feature", "properties": {"hash": "cc3e22690753044b", "number": "70453", "street": "SPARKS STA RD", "unit": "", "city": "PENDLETON", "district": "", "region": "OR", "postcode": "97801.0", "id": ""}, "geometry": {"type": "Point", "coordinates": [-118.8237623, 45.5839755]}}
{"type": "Feature", "properties": {"hash": "2098c60a44a225bb", "number": "69754", "street": "GEORGE CANYON RD", "unit": "", "city": "PENDLETON", "district": "", "region": "OR", "postcode": "97801.0", "id": ""}, "geometry": {"type": "Point", "coordinates": [-118.8331866, 45.5768404]}}
{"type": "Feature", "properties": {"hash": "bbf1f3cc7dee44f1", "number": "42629", "street": "BEILKE RD", "unit": "", "city": "PENDLETON", "district": "", "region": "OR", "postcode": "97801.0", "id": ""}, "geometry": {"type": "Point", "coordinates": [-118.8403153, 45.5592839]}}
{"type": "Feature", "properties": {"hash": "f6c66b0feaedeeda", "number": "42307", "street": "BEILKE RD", "unit": "", "city": "PENDLETON", "district": "", "region": "OR", "postcode": "97801.0", "id": ""}, "geometry": {"type": "Point", "coordinates": [-118.8563579, 45.5605869]}}
{"type": "Feature", "properties": {"hash": "54ba57996a5396f2", "number": "68732", "street": "MILL RD", "unit": "", "city": "PENDLETON", "district": "", "region": "OR", "postcode": "97801.0", "id": ""}, "geometry": {"type": "Point", "coordinates": [-118.8601476, 45.537009]}}
{"type": "Feature", "properties": {"hash": "34d69ecd0486b2d7", "number": "69213", "street": "GEORGE CANYON RD", "unit": "", "city": "PENDLETON", "district": "", "region": "OR", "postcode": "97801.0", "id": ""}, "geometry": {"type": "Point", "coordinates": [-118.8335234, 45.5521992]}}
{"type": "Feature", "properties": {"hash": "748c22754006bef5", "number": "43299", "street": "HOEFT RD", "unit": "", "city": "PENDLETON", "district": "", "region": "OR", "postcode": "97801.0", "id": ""}, "geometry": {"type": "Point", "coordinates": [-118.8203851, 45.5495844]}}
{"type": "Feature", "properties": {"hash": "c7533ba283faf6c5", "number": "43014", "street": "HOEFT RD", "unit": "", "city": "PENDLETON", "district": "", "region": "OR", "postcode": "97801.0", "id": ""}, "geometry": {"type": "Point", "coordinates": [-118.8244204, 45.5437272]}}
{"type": "Feature", "properties": {"hash": "7a23d3502359c2d9", "number": "68389", "street": "MILL RD", "unit": "", "city": "PILOT ROCK", "district": "", "region": "OR", "postcode": "97868.0", "id": ""}, "geometry": {"type": "Point", "coordinates": [-118.8429398, 45.5301355]}}
{"type": "Feature", "properties": {"hash": "48f900916e5e7353", "number": "68413", "street": "MILL RD", "unit": "", "city": "PENDLETON", "district": "", "region": "OR", "postcode": "97801.0", "id": ""}, "geometry": {"type": "Point", "coordinates": [-118.8255889, 45.5328384]}}
