{"type": "Feature", "properties": {"hash": "e2404827701b7277", "number": "118", "street": "ORR AVE", "unit": "", "city": "HARMAR", "district": "ALLEGHENY", "region": "PA", "postcode": "15024", "id": "1"}, "geometry": {"type": "Point", "coordinates": [-79.8116778, 40.5421828]}}
{"type": "Feature", "properties": {"hash": "8efaeb6a9cc476e1", "number": "121", "street": "WILSON AVE", "unit": "", "city": "HARMAR", "district": "ALLEGHENY", "region": "PA", "postcode": "15024", "id": "2"}, "geometry": {"type": "Point", "coordinates": [-79.8097974, 40.5422114]}}
{"type": "Feature", "properties": {"hash": "7579a55b0dac6c5f", "number": "11329", "street": "ALTHEA RD", "unit": "", "city": "PENN HILLS", "district": "ALLEGHENY", "region": "PA", "postcode": "15235", "id": "3"}, "geometry": {"type": "Point", "coordinates": [-79.8320695, 40.4694511]}}
{"type": "Feature", "properties": {"hash": "ace60a16a124bc1f", "number": "215", "street": "LEXINGTON CT", "unit": "", "city": "CARNEGIE", "district": "ALLEGHENY", "region": "PA", "postcode": "15106", "id": "4"}, "geometry": {"type": "Point", "coordinates": [-80.0912673, 40.4092199]}}
{"type": "Feature", "properties": {"hash": "8680e5aaebad9d82", "number": "123", "street": "SHOUP ST", "unit": "", "city": "MILLVALE", "district": "ALLEGHENY", "region": "PA", "postcode": "15209", "id": "5"}, "geometry": {"type": "Point", "coordinates": [-79.971324, 40.4759253]}}
{"type": "Feature", "properties": {"hash": "120f950ebe610b05", "number": "4569", "street": "COUNTRY CLUB DR", "unit": "", "city": "WHITEHALL", "district": "ALLEGHENY", "region": "PA", "postcode": "15236", "id": "6"}, "geometry": {"type": "Point", "coordinates": [-79.984041, 40.3555867]}}
{"type": "Feature", "properties": {"hash": "17c2c28b7b212fa1", "number": "9", "street": "CLARION AVE", "unit": "", "city": "ROSS", "district": "ALLEGHENY", "region": "PA", "postcode": "15202", "id": "7"}, "geometry": {"type": "Point", "coordinates": [-80.0499137, 40.4968848]}}
{"type": "Feature", "properties": {"hash": "736c1eb3530a9056", "number": "625", "street": "DOUGLAS AVE", "unit": "", "city": "ELIZABETH TOWNSHIP", "district": "ALLEGHENY", "region": "PA", "postcode": "15037", "id": "8"}, "geometry": {"type": "Point", "coordinates": [-79.8754142, 40.2771005]}}
{"type": "Feature", "properties": {"hash": "0c3f969e0cf596b2", "number": "1421", "street": "MAGNOLIA DR", "unit": "", "city": "CASTLE SHANNON", "district": "ALLEGHENY", "region": "PA", "postcode": "15234", "id": "9"}, "geometry": {"type": "Point", "coordinates": [-80.0084469, 40.3633308]}}
{"type": "Feature", "properties": {"hash": "2da9db54f4907d82", "number": "1270", "street": "GROVE RD", "unit": "", "city": "CASTLE SHANNON", "district": "ALLEGHENY", "region": "PA", "postcode": "15234", "id": "10"}, "geometry": {"type": "Point", "coordinates": [-80.0129228, 40.3650201]}}
{"type": "Feature", "properties": {"hash": "cee120e853f8b1cc", "number": "2384", "street": "GLEN RD", "unit": "", "city": "WYSOX", "district": "", "region": "PA", "postcode": "18854", "id": ""}, "geometry": {"type": "Point", "coordinates": [-76.383723, 41.827049]}}
{"type": "Feature", "properties": {"hash": "e7df1752d75bfd95", "number": "2512", "street": "GLEN RD", "unit": "", "city": "WYSOX", "district": "", "region": "PA", "postcode": "18854", "id": ""}, "geometry": {"type": "Point", "coordinates": [-76.3847593, 41.827947]}}
{"type": "Feature", "properties": {"hash": "e12244f2965da365", "number": "63", "street": "SMOKERISE LN", "unit": "", "city": "TOWANDA", "district": "", "region": "PA", "postcode": "18848", "id": ""}, "geometry": {"type": "Point", "coordinates": [-76.399831, 41.8110837]}}
{"type": "Feature", "properties": {"hash": "7093a0e9f6e4c92e", "number": "43", "street": "HARRY PIPHER RD", "unit": "", "city": "TOWANDA", "district": "", "region": "PA", "postcode": "18848", "id": ""}, "geometry": {"type": "Point", "coordinates": [-76.4439453, 41.8226047]}}
{"type": "Feature", "properties": {"hash": "439e7ae9339c7cb2", "number": "819", "street": "WOODRUN RD", "unit": "", "city": "TOWANDA", "district": "", "region": "PA", "postcode": "18848", "id": ""}, "geometry": {"type": "Point", "coordinates": [-76.4568612, 41.8307995]}}
{"type": "Feature", "properties": {"hash": "0f9f116580c0e10f", "number": "2323", "street": "SHESHEQUIN RD", "unit": "", "city": "TOWANDA", "district": "", "region": "PA", "postcode": "18848", "id": ""}, "geometry": {"type": "Point", "coordinates": [-76.4756562, 41.814152]}}
{"type": "Feature", "properties": {"hash": "76f56cab51e3e9c9", "number": "64", "street": "RIVER LN", "unit": "", "city": "TOWANDA", "district": "", "region": "PA", "postcode": "18848", "id": ""}, "geometry": {"type": "Point", "coordinates": [-76.4968927, 41.8171879]}}
{"type": "Feature", "properties": {"hash": "da9b9d78d39412d8", "number": "163", "street": "RIVER LN", "unit": "", "city": "TOWANDA", "district": "", "region": "PA", "postcode": "18848", "id": ""}, "geometry": {"type": "Point", "coordinates": [-76.4958911, 41.8158396]}}
{"type": "Feature", "properties": {"hash": "964cce4b9d63e684", "number": "297", "street": "KOKOPELLI LN", "unit": "", "city": "TOWANDA", "district": "", "region": "PA", "postcode": "18848", "id": ""}, "geometry": {"type": "Point", "coordinates": [-76.4340907, 41.7932052]}}
{"type": "Feature", "properties": {"hash": "2105d2d9007fb23a", "number": "16", "street": "CLAVERACK RD", "unit": "", "city": "TOWANDA", "district": "", "region": "PA", "postcode": "18848", "id": ""}, "geometry": {"type": "Point", "coordinates": [-76.3999471, 41.8011873]}}
{"type": "Feature", "properties": {"hash": "70b6abce2fcf2686", "number": "1056", "street": "BUCKS", "unit": "", "city": "Bedminster Township", "district": "Bucks", "region": "PA", "postcode": "18944", "id": ""}, "geometry": {"type": "Point", "coordinates": [-75.2339269, 40.4031506]}}
{"type": "Feature", "properties": {"hash": "372a67ccef0492d0", "number": "604", "street": "MILLER", "unit": "", "city": "Bedminster Township", "district": "Bucks", "region": "PA", "postcode": "18944", "id": ""}, "geometry": {"type": "Point", "coordinates": [-75.2122649, 40.3836312]}}
{"type": "Feature", "properties": {"hash": "6ca8f2c4e477ded8", "number": "266", "street": "SCOTT", "unit": "", "city": "Bedminster Township", "district": "Bucks", "region": "PA", "postcode": "18944", "id": ""}, "geometry": {"type": "Point", "coordinates": [-75.1741644, 40.3903836]}}
{"type": "Feature", "properties": {"hash": "49e6f78cdc231627", "number": "410", "street": "CREEK", "unit": "", "city": "Bedminster Township", "district": "Bucks", "region": "PA", "postcode": "18942", "id": ""}, "geometry": {"type": "Point", "coordinates": [-75.1494766, 40.4321567]}}
{"type": "Feature", "properties": {"hash": "096c07718fcc629f", "number": "4", "street": "TEXTER", "unit": "", "city": "Bedminster Township", "district": "Bucks", "region": "PA", "postcode": "18944", "id": ""}, "geometry": {"type": "Point", "coordinates": [-75.1853934, 40.3767069]}}
{"type": "Feature", "properties": {"hash": "bac5350ebac12e64", "number": "4798", "street": "OAK", "unit": "", "city": "Bensalem Township", "district": "Bucks", "region": "PA", "postcode": "19053", "id": ""}, "geometry": {"type": "Point", "coordinates": [-74.9717254, 40.1506681]}}
{"type": "Feature", "properties": {"hash": "1edd81e34448343d", "number": "2813", "street": "SUSSEX", "unit": "", "city": "Bensalem Township", "district": "Bucks", "region": "PA", "postcode": "19053", "id": ""}, "geometry": {"type": "Point", "coordinates": [-74.9807202, 40.1308073]}}
{"type": "Feature", "properties": {"hash": "6eaafaee0f07641d", "number": "3160", "street": "TREMONT", "unit": "", "city": "Bensalem Township", "district": "Bucks", "region": "PA", "postcode": "19053", "id": ""}, "geometry": {"type": "Point", "coordinates": [-74.9778967, 40.1373097]}}
{"type": "Feature", "properties": {"hash": "9cefcd26ab03c1c6", "number": "423", "street": "BRISTER", "unit": "", "city": "Bensalem Township", "district": "Bucks", "region": "PA", "postcode": "19020", "id": ""}, "geometry": {"type": "Point", "coordinates": [-74.9572964, 40.1306714]}}
{"type": "Feature", "properties": {"hash": "9e54d0bc9ff59dc6", "number": "4409", "street": "WILLOW", "unit": "", "city": "Bensalem Township", "district": "Bucks", "region": "PA", "postcode": "19053", "id": ""}, "geometry": {"type": "Point", "coordinates": [-74.967695, 40.1536369]}}
{"type": "Feature", "properties": {"id": "", "unit": "", "number": "482", "street": "FARRELL AVE", "city": "JOHNSTOWN", "district": "", "region": "PA", "postcode": "15906", "hash": "266d7a89c540c6e5"}, "geometry": {"type": "Point", "coordinates": [-78.9454603, 40.3586509]}}
{"type": "Feature", "properties": {"id": "", "unit": "", "number": "541", "street": "CLIFFORD ST", "city": "JOHNSTOWN", "district": "", "region": "PA", "postcode": "15906", "hash": "18d4ea2b0a524b2b"}, "geometry": {"type": "Point", "coordinates": [-78.9485523, 40.3590994]}}
{"type": "Feature", "properties": {"id": "", "unit": "", "number": "560", "street": "LEROY ST", "city": "JOHNSTOWN", "district": "", "region": "PA", "postcode": "15906", "hash": "e4d04b5f71634522"}, "geometry": {"type": "Point", "coordinates": [-78.9493428, 40.3591114]}}
{"type": "Feature", "properties": {"id": "", "unit": "", "number": "577", "street": "HAROLD AVE", "city": "JOHNSTOWN", "district": "", "region": "PA", "postcode": "15906", "hash": "36f50542a4cf7761"}, "geometry": {"type": "Point", "coordinates": [-78.9519439, 40.3590745]}}
{"type": "Feature", "properties": {"id": "", "unit": "G", "number": "43", "street": "OAKHURST HOMES", "city": "JOHNSTOWN", "district": "", "region": "PA", "postcode": "15906", "hash": "caa0c096039f684a"}, "geometry": {"type": "Point", "coordinates": [-78.9413459, 40.3588472]}}
{"type": "Feature", "properties": {"id": "", "unit": "", "number": "568", "street": "W HOWARD ST", "city": "JOHNSTOWN", "district": "", "region": "PA", "postcode": "15906", "hash": "baae963a0245d0aa"}, "geometry": {"type": "Point", "coordinates": [-78.9503748, 40.3590262]}}
{"type": "Feature", "properties": {"id": "", "unit": "E", "number": "47", "street": "OAKHURST HOMES", "city": "JOHNSTOWN", "district": "", "region": "PA", "postcode": "15906", "hash": "ed6137d0f9304a64"}, "geometry": {"type": "Point", "coordinates": [-78.9430345, 40.3589525]}}
{"type": "Feature", "properties": {"id": "", "unit": "G", "number": "50", "street": "OAKHURST HOMES", "city": "JOHNSTOWN", "district": "", "region": "PA", "postcode": "15906", "hash": "249040b4915a079e"}, "geometry": {"type": "Point", "coordinates": [-78.943967, 40.3589295]}}
{"type": "Feature", "properties": {"id": "", "unit": "", "number": "575", "street": "HAROLD AVE", "city": "JOHNSTOWN", "district": "", "region": "PA", "postcode": "15906", "hash": "0e96369c4538be6c"}, "geometry": {"type": "Point", "coordinates": [-78.9519044, 40.3589787]}}
{"type": "Feature", "properties": {"id": "", "unit": "", "number": "550", "street": "LEROY ST", "city": "JOHNSTOWN", "district": "", "region": "PA", "postcode": "15906", "hash": "9e586721fb4548e0"}, "geometry": {"type": "Point", "coordinates": [-78.9491656, 40.3589589]}}
{"type": "Feature", "properties": {"id": "15882", "unit": "", "number": "2435", "street": "MOUNTAIN LN", "city": "ALLENTOWN", "district": "", "region": "PA", "postcode": "18103", "hash": "28b5fbfc54052abd"}, "geometry": {"type": "Point", "coordinates": [-75.4779301, 40.5583658]}}
{"type": "Feature", "properties": {"id": "25104", "unit": "STE 900", "number": "600", "street": "HAMILTON ST", "city": "ALLENTOWN", "district": "", "region": "PA", "postcode": "18101", "hash": "94d0538a3c4700f7"}, "geometry": {"type": "Point", "coordinates": [-75.4698283, 40.6026057]}}
{"type": "Feature", "properties": {"id": "5818", "unit": "", "number": "1252", "street": "WALNUT ST", "city": "ALLENTOWN", "district": "", "region": "PA", "postcode": "18102", "hash": "dad32032d7a2e956"}, "geometry": {"type": "Point", "coordinates": [-75.4829326, 40.5974264]}}
{"type": "Feature", "properties": {"id": "25102", "unit": "", "number": "546", "street": "HAMILTON ST", "city": "ALLENTOWN", "district": "", "region": "PA", "postcode": "18101", "hash": "5da822d9f28bd986"}, "geometry": {"type": "Point", "coordinates": [-75.4695344, 40.6026889]}}
{"type": "Feature", "properties": {"id": "1718", "unit": "", "number": "1109", "street": "N 19TH ST", "city": "ALLENTOWN", "district": "", "region": "PA", "postcode": "18104", "hash": "467ab4bc335e62be"}, "geometry": {"type": "Point", "coordinates": [-75.5039414, 40.6118219]}}
{"type": "Feature", "properties": {"id": "1404", "unit": "", "number": "1027", "street": "COURT ST", "city": "ALLENTOWN", "district": "", "region": "PA", "postcode": "18101", "hash": "0b6d826ca4f79498"}, "geometry": {"type": "Point", "coordinates": [-75.479204, 40.6009712]}}
{"type": "Feature", "properties": {"id": "4843", "unit": "", "number": "1137", "street": "LINDEN ST", "city": "ALLENTOWN", "district": "", "region": "PA", "postcode": "18102", "hash": "918682fc94c4f0c1"}, "geometry": {"type": "Point", "coordinates": [-75.4819798, 40.6011155]}}
{"type": "Feature", "properties": {"id": "2226", "unit": "", "number": "1207", "street": "CHEW ST", "city": "ALLENTOWN", "district": "", "region": "PA", "postcode": "18102", "hash": "ead326d69e9d9974"}, "geometry": {"type": "Point", "coordinates": [-75.4841497, 40.6036852]}}
{"type": "Feature", "properties": {"id": "25102", "unit": "", "number": "546", "street": "HAMILTON ST", "city": "ALLENTOWN", "district": "", "region": "PA", "postcode": "18101", "hash": "5da822d9f28bd986"}, "geometry": {"type": "Point", "coordinates": [-75.4695344, 40.6026889]}}
{"type": "Feature", "properties": {"id": "4375", "unit": "", "number": "108", "street": "N 8TH ST", "city": "ALLENTOWN", "district": "", "region": "PA", "postcode": "18101", "hash": "c7b5020c472d9ac2"}, "geometry": {"type": "Point", "coordinates": [-75.4745315, 40.6033957]}}
{"type": "Feature", "properties": {"hash": "64c7073761015d6c", "number": "60", "street": "Sunnyside Drive", "unit": "", "city": "Carlisle", "district": "Cumberland County", "region": "PA", "postcode": "17015", "id": "1"}, "geometry": {"type": "Point", "coordinates": [-77.1165621, 40.2898289]}}
{"type": "Feature", "properties": {"hash": "f4558179433db01b", "number": "73", "street": "Mountain Road", "unit": "", "city": "Shermans Dale", "district": "Cumberland County", "region": "PA", "postcode": "17090", "id": "2"}, "geometry": {"type": "Point", "coordinates": [-77.1330018, 40.289255]}}
{"type": "Feature", "properties": {"hash": "8254bd4564e78024", "number": "75", "street": "Mountain Road", "unit": "", "city": "Carlisle", "district": "Cumberland County", "region": "PA", "postcode": "17015", "id": "3"}, "geometry": {"type": "Point", "coordinates": [-77.1316001, 40.28994]}}
{"type": "Feature", "properties": {"hash": "0ae89b021f2430d5", "number": "115", "street": "Sunnyside Drive", "unit": "", "city": "Carlisle", "district": "Cumberland County", "region": "PA", "postcode": "17015", "id": "4"}, "geometry": {"type": "Point", "coordinates": [-77.1242324, 40.2909193]}}
{"type": "Feature", "properties": {"hash": "786b457b08792760", "number": "95", "street": "Sunnyside Drive", "unit": "", "city": "Carlisle", "district": "Cumberland County", "region": "PA", "postcode": "17015", "id": "5"}, "geometry": {"type": "Point", "coordinates": [-77.1225248, 40.2899857]}}
{"type": "Feature", "properties": {"hash": "e1242f76f155fde2", "number": "83", "street": "Sunnyside Drive", "unit": "", "city": "Carlisle", "district": "Cumberland County", "region": "PA", "postcode": "17015", "id": "6"}, "geometry": {"type": "Point", "coordinates": [-77.1192267, 40.2890407]}}
{"type": "Feature", "properties": {"hash": "0b496e2f4616d2c1", "number": "79", "street": "Mountain Road", "unit": "", "city": "Carlisle", "district": "Cumberland County", "region": "PA", "postcode": "17015", "id": "7"}, "geometry": {"type": "Point", "coordinates": [-77.1304009, 40.2893642]}}
{"type": "Feature", "properties": {"hash": "370523b78d2599ee", "number": "356", "street": "Hollow Brook Drive", "unit": "", "city": "Carlisle", "district": "Cumberland County", "region": "PA", "postcode": "17013", "id": "8"}, "geometry": {"type": "Point", "coordinates": [-77.1372705, 40.2664195]}}
{"type": "Feature", "properties": {"hash": "d4b3dd58fdf1b5f0", "number": "304", "street": "North  Middlesex Road", "unit": "", "city": "Carlisle", "district": "Cumberland County", "region": "PA", "postcode": "17013", "id": "9"}, "geometry": {"type": "Point", "coordinates": [-77.1418468, 40.2634874]}}
{"type": "Feature", "properties": {"hash": "92f316a547b7f4e5", "number": "379", "street": "North  Middlesex Road", "unit": "", "city": "Carlisle", "district": "Cumberland County", "region": "PA", "postcode": "17013", "id": "10"}, "geometry": {"type": "Point", "coordinates": [-77.1450862, 40.271228]}}
{"type": "Feature", "properties": {"hash": "75f3bb55e3b0abe8", "number": "17911", "street": "Dry Run Rd W", "unit": "", "city": "Spring Run", "district": "FRANKLIN", "region": "PA", "postcode": "17262", "id": ""}, "geometry": {"type": "Point", "coordinates": [-77.7837243, 40.1645174]}}
{"type": "Feature", "properties": {"hash": "9536bf556404291b", "number": "2775", "street": "Lincoln Way W", "unit": "", "city": "Chambersburg", "district": "FRANKLIN", "region": "PA", "postcode": "17202", "id": ""}, "geometry": {"type": "Point", "coordinates": [-77.7286756, 39.9291194]}}
{"type": "Feature", "properties": {"hash": "ead1c253b3e44c5f", "number": "2735", "street": "Lincoln Way W", "unit": "", "city": "Chambersburg", "district": "FRANKLIN", "region": "PA", "postcode": "17202", "id": ""}, "geometry": {"type": "Point", "coordinates": [-77.7270824, 39.9294243]}}
{"type": "Feature", "properties": {"hash": "ec8f762384f923ed", "number": "2197", "street": "Lincoln Way W", "unit": "", "city": "Chambersburg", "district": "FRANKLIN", "region": "PA", "postcode": "17202", "id": ""}, "geometry": {"type": "Point", "coordinates": [-77.7164841, 39.9307501]}}
{"type": "Feature", "properties": {"hash": "d81f1deb99f0c935", "number": "2098", "street": "Lincoln Way W", "unit": "", "city": "Chambersburg", "district": "FRANKLIN", "region": "PA", "postcode": "17202", "id": ""}, "geometry": {"type": "Point", "coordinates": [-77.7141405, 39.9307575]}}
{"type": "Feature", "properties": {"hash": "0acb728f42bd96a1", "number": "1988", "street": "Lincoln Way W", "unit": "", "city": "Chambersburg", "district": "FRANKLIN", "region": "PA", "postcode": "17202", "id": ""}, "geometry": {"type": "Point", "coordinates": [-77.7122613, 39.9310332]}}
{"type": "Feature", "properties": {"hash": "645019ab584906e2", "number": "1956", "street": "Lincoln Way W", "unit": "", "city": "Chambersburg", "district": "FRANKLIN", "region": "PA", "postcode": "17202", "id": ""}, "geometry": {"type": "Point", "coordinates": [-77.7115538, 39.9312605]}}
{"type": "Feature", "properties": {"hash": "a47f40d56bc87174", "number": "1100", "street": "Lincoln Way W", "unit": "", "city": "Chambersburg", "district": "FRANKLIN", "region": "PA", "postcode": "17202", "id": ""}, "geometry": {"type": "Point", "coordinates": [-77.6956323, 39.9335216]}}
{"type": "Feature", "properties": {"hash": "df1b1783a141b834", "number": "1080", "street": "Lincoln Way W", "unit": "", "city": "Chambersburg", "district": "FRANKLIN", "region": "PA", "postcode": "17202", "id": ""}, "geometry": {"type": "Point", "coordinates": [-77.6939639, 39.9339434]}}
{"type": "Feature", "properties": {"hash": "d55b77ff2a495429", "number": "1066", "street": "Lincoln Way W", "unit": "", "city": "Chambersburg", "district": "FRANKLIN", "region": "PA", "postcode": "17202", "id": ""}, "geometry": {"type": "Point", "coordinates": [-77.6931825, 39.9341869]}}
{"type": "Feature", "properties": {"hash": "69e620bd09354c48", "number": "302", "street": "BIRCH ST", "unit": "", "city": "SCRANTON City", "district": "LACKAWANNA", "region": "PA", "postcode": "18505", "id": ""}, "geometry": {"type": "Point", "coordinates": [-75.6693013, 41.3998831]}}
{"type": "Feature", "properties": {"hash": "81662d67cb5e4bfb", "number": "1000", "street": "REMINGTON AVE", "unit": "", "city": "SCRANTON City", "district": "LACKAWANNA", "region": "PA", "postcode": "18505", "id": ""}, "geometry": {"type": "Point", "coordinates": [-75.6733636, 41.3978758]}}
{"type": "Feature", "properties": {"hash": "ae52939fe8f13301", "number": "1400", "street": "MONROE AVE", "unit": "", "city": "DUNMORE BOROUGH", "district": "LACKAWANNA", "region": "PA", "postcode": "18509", "id": ""}, "geometry": {"type": "Point", "coordinates": [-75.6436005, 41.4201542]}}
{"type": "Feature", "properties": {"hash": "481f14e146074986", "number": "1414", "street": "MONROE AVE", "unit": "", "city": "DUNMORE BOROUGH", "district": "LACKAWANNA", "region": "PA", "postcode": "18510", "id": ""}, "geometry": {"type": "Point", "coordinates": [-75.6422025, 41.4196927]}}
{"type": "Feature", "properties": {"hash": "1e89214f80b0234f", "number": "1308", "street": "JEFFERSON AVE", "unit": "", "city": "DUNMORE BOROUGH", "district": "LACKAWANNA", "region": "PA", "postcode": "18509", "id": ""}, "geometry": {"type": "Point", "coordinates": [-75.6463006, 41.4195719]}}
{"type": "Feature", "properties": {"hash": "459f8b873dbbe907", "number": "1340", "street": "MADISON AVE", "unit": "", "city": "DUNMORE BOROUGH", "district": "LACKAWANNA", "region": "PA", "postcode": "18509", "id": ""}, "geometry": {"type": "Point", "coordinates": [-75.6444073, 41.4195971]}}
{"type": "Feature", "properties": {"hash": "afd60eaa4c3211e3", "number": "1375", "street": "PENN AVE", "unit": "", "city": "SCRANTON City", "district": "LACKAWANNA", "region": "PA", "postcode": "18509", "id": ""}, "geometry": {"type": "Point", "coordinates": [-75.6503941, 41.4242572]}}
{"type": "Feature", "properties": {"hash": "dde0beac25238f95", "number": "1423", "street": "CAPOUSE AVE", "unit": "", "city": "SCRANTON City", "district": "LACKAWANNA", "region": "PA", "postcode": "18509", "id": ""}, "geometry": {"type": "Point", "coordinates": [-75.6508848, 41.4257011]}}
{"type": "Feature", "properties": {"hash": "fb8d71221f38f44e", "number": "2412", "street": "MAIN AVE", "unit": "", "city": "SCRANTON City", "district": "LACKAWANNA", "region": "PA", "postcode": "18508", "id": ""}, "geometry": {"type": "Point", "coordinates": [-75.644221, 41.4438076]}}
{"type": "Feature", "properties": {"hash": "92546a09686482e2", "number": "2741", "street": "BOULEVARD AVE", "unit": "", "city": "SCRANTON City", "district": "LACKAWANNA", "region": "PA", "postcode": "18509", "id": ""}, "geometry": {"type": "Point", "coordinates": [-75.6392541, 41.4428145]}}
{"type": "Feature", "properties": {"hash": "6c04d942a10e539d", "number": "139", "street": "HYLAND DR", "unit": "", "city": "East Stroudsburg", "district": "Monroe", "region": "PA", "postcode": "18301", "id": ""}, "geometry": {"type": "Point", "coordinates": [-75.2457439, 41.0226244]}}
{"type": "Feature", "properties": {"hash": "bbf6bdfbd4bfb072", "number": "279", "street": "HYLAND DR", "unit": "", "city": "East Stroudsburg", "district": "Monroe", "region": "PA", "postcode": "18301", "id": ""}, "geometry": {"type": "Point", "coordinates": [-75.2490019, 41.0242968]}}
{"type": "Feature", "properties": {"hash": "f32a7ceb448bf2f9", "number": "2419", "street": "FOREST DR", "unit": "", "city": "Saylorsburg", "district": "Monroe", "region": "PA", "postcode": "18353", "id": ""}, "geometry": {"type": "Point", "coordinates": [-75.3790691, 40.969753]}}
{"type": "Feature", "properties": {"hash": "0c621911c55d8032", "number": "812", "street": "WILTSHIRE RD", "unit": "", "city": "Saylorsburg", "district": "Monroe", "region": "PA", "postcode": "18353", "id": ""}, "geometry": {"type": "Point", "coordinates": [-75.3936581, 40.9765032]}}
{"type": "Feature", "properties": {"hash": "ca42e7f150c8fcb2", "number": "110", "street": "ROBBINS LN", "unit": "", "city": "Saylorsburg", "district": "Monroe", "region": "PA", "postcode": "18353", "id": ""}, "geometry": {"type": "Point", "coordinates": [-75.386264, 40.9743713]}}
{"type": "Feature", "properties": {"hash": "90a5a74f939cdc87", "number": "913", "street": "OAK VIEW CT", "unit": "", "city": "Saylorsburg", "district": "Monroe", "region": "PA", "postcode": "18353", "id": ""}, "geometry": {"type": "Point", "coordinates": [-75.3889681, 40.9750928]}}
{"type": "Feature", "properties": {"hash": "905f390d9f071147", "number": "2580", "street": "RISING HILL DR", "unit": "", "city": "Saylorsburg", "district": "Monroe", "region": "PA", "postcode": "18353", "id": ""}, "geometry": {"type": "Point", "coordinates": [-75.3867203, 40.9730365]}}
{"type": "Feature", "properties": {"hash": "00f6e9421a0fa1b8", "number": "2710", "street": "ASPEN WAY", "unit": "", "city": "Saylorsburg", "district": "Monroe", "region": "PA", "postcode": "18353", "id": ""}, "geometry": {"type": "Point", "coordinates": [-75.3853718, 40.9663455]}}
{"type": "Feature", "properties": {"hash": "a710407934b93286", "number": "2506", "street": "ROUTE 209", "unit": "APT 1", "city": "Sciota", "district": "Monroe", "region": "PA", "postcode": "18354", "id": ""}, "geometry": {"type": "Point", "coordinates": [-75.3309698, 40.9252029]}}
{"type": "Feature", "properties": {"hash": "ee63aac72338fe24", "number": "2506", "street": "ROUTE 209", "unit": "APT 2", "city": "Sciota", "district": "Monroe", "region": "PA", "postcode": "18354", "id": ""}, "geometry": {"type": "Point", "coordinates": [-75.3309152, 40.9252136]}}
{"type": "Feature", "properties": {"hash": "24b97441b9d589d8", "number": "2818", "street": "Anzac Avenue", "unit": "Baseball Field", "city": "Abington Township", "district": "Montgomery County", "region": "PA", "postcode": "19001", "id": "300050568009"}, "geometry": {"type": "Point", "coordinates": [-75.1464885, 40.1296373]}}
{"type": "Feature", "properties": {"hash": "2dcf931a0639a938", "number": "1633", "street": "Washington Lane", "unit": "", "city": "Abington Township", "district": "Montgomery County", "region": "PA", "postcode": "19046", "id": ""}, "geometry": {"type": "Point", "coordinates": [-75.0967457, 40.1182565]}}
{"type": "Feature", "properties": {"hash": "bb475ac8a82e09bc", "number": "1043", "street": "Easton Road", "unit": "", "city": "Abington Township", "district": "Montgomery County", "region": "PA", "postcode": "19001", "id": "300014488008"}, "geometry": {"type": "Point", "coordinates": [-75.1351587, 40.1191958]}}
{"type": "Feature", "properties": {"hash": "19af50105a0040c0", "number": "419", "street": "Elk Street", "unit": "", "city": "Abington Township", "district": "Montgomery County", "region": "PA", "postcode": "19038", "id": "300017892006"}, "geometry": {"type": "Point", "coordinates": [-75.1475615, 40.1086096]}}
{"type": "Feature", "properties": {"hash": "e1de47c333ce9727", "number": "1647", "street": "Franklin Avenue", "unit": "", "city": "Abington Township", "district": "Montgomery County", "region": "PA", "postcode": "19090", "id": "300026952009"}, "geometry": {"type": "Point", "coordinates": [-75.1201021, 40.132521]}}
{"type": "Feature", "properties": {"hash": "5f4ac0220943b913", "number": "2818", "street": "Anzac Avenue", "unit": "", "city": "Abington Township", "district": "Montgomery County", "region": "PA", "postcode": "19001", "id": ""}, "geometry": {"type": "Point", "coordinates": [-75.1454955, 40.1306878]}}
{"type": "Feature", "properties": {"hash": "b1bc27b3fe8780e4", "number": "300", "street": "Houston Avenue", "unit": "Basketball Court", "city": "Abington Township", "district": "Montgomery County", "region": "PA", "postcode": "19038", "id": ""}, "geometry": {"type": "Point", "coordinates": [-75.1581914, 40.1088977]}}
{"type": "Feature", "properties": {"hash": "c3addde41ec2f311", "number": "300", "street": "Houston Avenue", "unit": "Softball Field", "city": "Abington Township", "district": "Montgomery County", "region": "PA", "postcode": "19038", "id": ""}, "geometry": {"type": "Point", "coordinates": [-75.1586203, 40.108325]}}
{"type": "Feature", "properties": {"hash": "640b23d285ff7286", "number": "1545", "street": "Huntingdon Road", "unit": "", "city": "Abington Township", "district": "Montgomery County", "region": "PA", "postcode": "19001", "id": "300032028009"}, "geometry": {"type": "Point", "coordinates": [-75.1092448, 40.1229179]}}
{"type": "Feature", "properties": {"hash": "02ad8417400dfe82", "number": "710", "street": "Fox Chase Road", "unit": "", "city": "Abington Township", "district": "Montgomery County", "region": "PA", "postcode": "19046", "id": "300022484004"}, "geometry": {"type": "Point", "coordinates": [-75.1008099, 40.0861356]}}
