{"type": "Feature", "properties": {"id": "", "unit": "", "number": "5793", "street": "COLUMBIA HWY N", "city": "MONETTA", "district": "", "region": "SC", "postcode": "29105", "hash": "5a538d4c5c0fe020"}, "geometry": {"type": "Point", "coordinates": [-81.6012047, 33.851214]}}
{"type": "Feature", "properties": {"id": "", "unit": "", "number": "108", "street": "HOLSTON ST", "city": "MONETTA", "district": "", "region": "SC", "postcode": "29105", "hash": "504e8670f98343bd"}, "geometry": {"type": "Point", "coordinates": [-81.602939, 33.851311]}}
{"type": "Feature", "properties": {"id": "", "unit": "", "number": "35", "street": "HOLSTON ST", "city": "MONETTA", "district": "", "region": "SC", "postcode": "29105", "hash": "52dcf8b6eadb106c"}, "geometry": {"type": "Point", "coordinates": [-81.6035905, 33.8492166]}}
{"type": "Feature", "properties": {"id": "", "unit": "", "number": "5676", "street": "COLUMBIA HWY N", "city": "MONETTA", "district": "", "region": "SC", "postcode": "29105", "hash": "2fba4ddaef83bb8d"}, "geometry": {"type": "Point", "coordinates": [-81.6025293, 33.8484684]}}
{"type": "Feature", "properties": {"id": "", "unit": "", "number": "20", "street": "CATO RD", "city": "MONETTA", "district": "", "region": "SC", "postcode": "29105", "hash": "0083fd0820adf465"}, "geometry": {"type": "Point", "coordinates": [-81.601431, 33.849196]}}
{"type": "Feature", "properties": {"id": "", "unit": "", "number": "32", "street": "CATO RD", "city": "MONETTA", "district": "", "region": "SC", "postcode": "29105", "hash": "a7476f0b7d89e7ec"}, "geometry": {"type": "Point", "coordinates": [-81.6010441, 33.8491546]}}
{"type": "Feature", "properties": {"id": "", "unit": "", "number": "52", "street": "MAIN ST", "city": "MONETTA", "district": "", "region": "SC", "postcode": "29105", "hash": "91d15cb76fe264a0"}, "geometry": {"type": "Point", "coordinates": [-81.6063193, 33.8458758]}}
{"type": "Feature", "properties": {"id": "", "unit": "", "number": "28", "street": "MAIN ST", "city": "MONETTA", "district": "", "region": "SC", "postcode": "29105", "hash": "3c550ba957cbe823"}, "geometry": {"type": "Point", "coordinates": [-81.6062017, 33.8454982]}}
{"type": "Feature", "properties": {"id": "", "unit": "", "number": "20", "street": "WALDEN ST", "city": "MONETTA", "district": "", "region": "SC", "postcode": "29105", "hash": "7eb3084dbd3e29c2"}, "geometry": {"type": "Point", "coordinates": [-81.6050037, 33.8448047]}}
{"type": "Feature", "properties": {"id": "", "unit": "", "number": "40", "street": "WALDEN ST", "city": "MONETTA", "district": "", "region": "SC", "postcode": "29105", "hash": "8251b0e35d894f3e"}, "geometry": {"type": "Point", "coordinates": [-81.6046057, 33.8444274]}}
{"type": "Feature", "properties": {"hash": "25fe316881c2748e", "number": "1417", "street": "SAINT HUBERT WAY", "unit": "", "city": "CHARLESTON", "district": "", "region": "SC", "postcode": "29414", "id": ""}, "geometry": {"type": "Point", "coordinates": [-80.1208848, 32.8172672]}}
{"type": "Feature", "properties": {"hash": "abe72cc24cf7c590", "number": "3325", "street": "FICKLING HILL RD", "unit": "", "city": "JOHNS ISLAND", "district": "", "region": "SC", "postcode": "29455", "id": ""}, "geometry": {"type": "Point", "coordinates": [-80.0889189, 32.74961]}}
{"type": "Feature", "properties": {"hash": "bd2bc1af370e7318", "number": "696", "street": "BUNKHOUSE DR", "unit": "", "city": "CHARLESTON", "district": "", "region": "SC", "postcode": "29414", "id": ""}, "geometry": {"type": "Point", "coordinates": [-80.0853915, 32.8017733]}}
{"type": "Feature", "properties": {"hash": "c18fba3915443e96", "number": "7327", "street": "COMMODORE RD", "unit": "", "city": "HOLLYWOOD", "district": "", "region": "SC", "postcode": "29449", "id": ""}, "geometry": {"type": "Point", "coordinates": [-80.2909307, 32.7000717]}}
{"type": "Feature", "properties": {"hash": "5a352d1e5f46c46a", "number": "1455", "street": "SAINT HUBERT WAY", "unit": "", "city": "CHARLESTON", "district": "", "region": "SC", "postcode": "29414", "id": ""}, "geometry": {"type": "Point", "coordinates": [-80.1216234, 32.8162281]}}
{"type": "Feature", "properties": {"hash": "beb2fca79cc820cd", "number": "6279", "street": "MAXVILLE RD", "unit": "", "city": "AWENDAW", "district": "", "region": "SC", "postcode": "29429", "id": ""}, "geometry": {"type": "Point", "coordinates": [-79.6470874, 32.9815632]}}
{"type": "Feature", "properties": {"hash": "f4f61e8c7759f2bd", "number": "2893", "street": "EDENBOROUGH RD", "unit": "", "city": "JOHNS ISLAND", "district": "", "region": "SC", "postcode": "29455", "id": ""}, "geometry": {"type": "Point", "coordinates": [-80.0486305, 32.6809112]}}
{"type": "Feature", "properties": {"hash": "afeca502762d0ccd", "number": "1456", "street": "SAINT HUBERT WAY", "unit": "", "city": "CHARLESTON", "district": "", "region": "SC", "postcode": "29414", "id": ""}, "geometry": {"type": "Point", "coordinates": [-80.1221378, 32.8162001]}}
{"type": "Feature", "properties": {"hash": "2c4d3935eb128416", "number": "6219", "street": "OLD JACKSONBORO RD", "unit": "", "city": "RAVENEL", "district": "", "region": "SC", "postcode": "29470", "id": ""}, "geometry": {"type": "Point", "coordinates": [-80.2484297, 32.785901]}}
{"type": "Feature", "properties": {"hash": "cfc8eb51afb991f0", "number": "3317", "street": "RIVER RD", "unit": "", "city": "JOHNS ISLAND", "district": "", "region": "SC", "postcode": "29455", "id": ""}, "geometry": {"type": "Point", "coordinates": [-80.03653, 32.677614]}}
{"type": "Feature", "properties": {"hash": "ad56679f19f3245a", "number": "71", "street": "AARDVARK LN", "unit": "", "city": "WALTERBORO", "district": "", "region": "SC", "postcode": "29488", "id": ""}, "geometry": {"type": "Point", "coordinates": [-80.6168668, 32.9412613]}}
{"type": "Feature", "properties": {"hash": "e60153d6cf1856c7", "number": "61", "street": "AARDVARK LN", "unit": "", "city": "WALTERBORO", "district": "", "region": "SC", "postcode": "29488", "id": ""}, "geometry": {"type": "Point", "coordinates": [-80.6169208, 32.9412016]}}
{"type": "Feature", "properties": {"hash": "416206087d420bc4", "number": "16", "street": "AARDVARK LN", "unit": "", "city": "WALTERBORO", "district": "", "region": "SC", "postcode": "29488", "id": ""}, "geometry": {"type": "Point", "coordinates": [-80.616895, 32.9405072]}}
{"type": "Feature", "properties": {"hash": "32110ba9d23f91fb", "number": "40", "street": "AARDVARK LN", "unit": "", "city": "WALTERBORO", "district": "", "region": "SC", "postcode": "29488", "id": ""}, "geometry": {"type": "Point", "coordinates": [-80.6166773, 32.940779]}}
{"type": "Feature", "properties": {"hash": "bc07ff895fb0e5ac", "number": "113", "street": "AARDVARK LN", "unit": "", "city": "WALTERBORO", "district": "", "region": "SC", "postcode": "29488", "id": ""}, "geometry": {"type": "Point", "coordinates": [-80.6166214, 32.9417063]}}
{"type": "Feature", "properties": {"hash": "45f95cad6b4d5315", "number": "29", "street": "AARDVARK LN", "unit": "", "city": "WALTERBORO", "district": "", "region": "SC", "postcode": "29488", "id": ""}, "geometry": {"type": "Point", "coordinates": [-80.6171673, 32.9407812]}}
{"type": "Feature", "properties": {"hash": "8b4706bf27284bbc", "number": "51", "street": "AARDVARK LN", "unit": "", "city": "WALTERBORO", "district": "", "region": "SC", "postcode": "29488", "id": ""}, "geometry": {"type": "Point", "coordinates": [-80.6169902, 32.9410644]}}
{"type": "Feature", "properties": {"hash": "27e4ba0698af1faa", "number": "15", "street": "AARDVARK LN", "unit": "", "city": "WALTERBORO", "district": "", "region": "SC", "postcode": "29488", "id": ""}, "geometry": {"type": "Point", "coordinates": [-80.617239, 32.9406455]}}
{"type": "Feature", "properties": {"hash": "23809887742f6818", "number": "60", "street": "AARDVARK LN", "unit": "", "city": "WALTERBORO", "district": "", "region": "SC", "postcode": "29488", "id": ""}, "geometry": {"type": "Point", "coordinates": [-80.6165873, 32.9410649]}}
{"type": "Feature", "properties": {"hash": "a77174c3d9cc2d09", "number": "70", "street": "AARDVARK LN", "unit": "", "city": "WALTERBORO", "district": "", "region": "SC", "postcode": "29488", "id": ""}, "geometry": {"type": "Point", "coordinates": [-80.6165489, 32.9411633]}}
{"type": "Feature", "properties": {"hash": "785855ae9497fd86", "number": "3936", "street": "HWY 472", "unit": "", "city": "Conway", "district": "", "region": "SC", "postcode": "29526", "id": ""}, "geometry": {"type": "Point", "coordinates": [-78.953635, 33.9001243]}}
{"type": "Feature", "properties": {"hash": "3d06e9ea5da00b19", "number": "3165", "street": "HERMITAGE DR", "unit": "", "city": "Little River", "district": "", "region": "SC", "postcode": "29566", "id": ""}, "geometry": {"type": "Point", "coordinates": [-78.6486388, 33.8788547]}}
{"type": "Feature", "properties": {"hash": "c470ae285cb3982c", "number": "1105", "street": "LAMPWICK LN", "unit": "", "city": "Murrells Inlet", "district": "", "region": "SC", "postcode": "29576", "id": ""}, "geometry": {"type": "Point", "coordinates": [-79.0411161, 33.5788826]}}
{"type": "Feature", "properties": {"hash": "58f589bac697eb0e", "number": "5865", "street": "LEONARD RD", "unit": "", "city": "Myrtle Beach", "district": "", "region": "SC", "postcode": "29588", "id": ""}, "geometry": {"type": "Point", "coordinates": [-79.0204681, 33.6631728]}}
{"type": "Feature", "properties": {"hash": "7616eb0c107765bc", "number": "533", "street": "SAND RIDGE RD", "unit": "", "city": "Conway", "district": "", "region": "SC", "postcode": "29526", "id": ""}, "geometry": {"type": "Point", "coordinates": [-79.005177, 33.7696799]}}
{"type": "Feature", "properties": {"hash": "17e9191511ace095", "number": "1436", "street": "SEAHOUSE CT", "unit": "", "city": "Surfside Beach", "district": "", "region": "SC", "postcode": "29575", "id": ""}, "geometry": {"type": "Point", "coordinates": [-78.9929079, 33.6078561]}}
{"type": "Feature", "properties": {"hash": "85e46893704ded10", "number": "1303", "street": "VILLAGE ST", "unit": "", "city": "Conway", "district": "", "region": "SC", "postcode": "29526", "id": ""}, "geometry": {"type": "Point", "coordinates": [-79.0746891, 33.8537971]}}
{"type": "Feature", "properties": {"hash": "adb59ba02c860ac2", "number": "4668", "street": "RIVER RD", "unit": "", "city": "Little River", "district": "", "region": "SC", "postcode": "29566", "id": ""}, "geometry": {"type": "Point", "coordinates": [-78.6404265, 33.8591217]}}
{"type": "Feature", "properties": {"hash": "4a3439e193372731", "number": "1801", "street": "BRAEWOOD CT", "unit": "", "city": "Surfside Beach", "district": "", "region": "SC", "postcode": "29575", "id": ""}, "geometry": {"type": "Point", "coordinates": [-78.9512965, 33.6467979]}}
{"type": "Feature", "properties": {"hash": "629c05a73cfec94e", "number": "970", "street": "SHIPMASTER AVE", "unit": "", "city": "Myrtle Beach", "district": "", "region": "SC", "postcode": "29579", "id": ""}, "geometry": {"type": "Point", "coordinates": [-78.8900904, 33.7331098]}}
{"type": "Feature", "properties": {"hash": "7af2c00b9efa82aa", "number": "112", "street": "112 HORTON ST", "unit": "", "city": "HARDEEVILLE", "district": "", "region": "SC", "postcode": "29927", "id": ""}, "geometry": {"type": "Point", "coordinates": [-81.0772337, 32.2815398]}}
{"type": "Feature", "properties": {"hash": "4819eaa79e78bc29", "number": "114", "street": "114 HORTON ST", "unit": "", "city": "HARDEEVILLE", "district": "", "region": "SC", "postcode": "29927", "id": ""}, "geometry": {"type": "Point", "coordinates": [-81.0774175, 32.2813584]}}
{"type": "Feature", "properties": {"hash": "580b61ce697e501c", "number": "291", "street": "291 RILEY RD", "unit": "", "city": "HARDEEVILLE", "district": "", "region": "SC", "postcode": "29927", "id": ""}, "geometry": {"type": "Point", "coordinates": [-81.0634523, 32.213991]}}
{"type": "Feature", "properties": {"hash": "5b491850ed61544b", "number": "1244", "street": "1244 FREEDOM PKWY", "unit": "", "city": "HARDEEVILLE", "district": "", "region": "SC", "postcode": "29927", "id": ""}, "geometry": {"type": "Point", "coordinates": [-81.0628581, 32.215776]}}
{"type": "Feature", "properties": {"hash": "aca1f5c1481c06bd", "number": "1234", "street": "1234 FREEDOM PKWY", "unit": "", "city": "HARDEEVILLE", "district": "", "region": "SC", "postcode": "29927", "id": ""}, "geometry": {"type": "Point", "coordinates": [-81.0633171, 32.2153528]}}
{"type": "Feature", "properties": {"hash": "d6cfcde7923bfe4c", "number": "1230", "street": "1230 FREEDOM PKWY", "unit": "", "city": "HARDEEVILLE", "district": "", "region": "SC", "postcode": "29927", "id": ""}, "geometry": {"type": "Point", "coordinates": [-81.0632688, 32.2156485]}}
{"type": "Feature", "properties": {"hash": "7b4f0298347114f0", "number": "314", "street": "314 RILEY RD", "unit": "", "city": "HARDEEVILLE", "district": "", "region": "SC", "postcode": "29927", "id": ""}, "geometry": {"type": "Point", "coordinates": [-81.0632746, 32.2144993]}}
{"type": "Feature", "properties": {"hash": "69bb08826f217804", "number": "577", "street": "577 NELSONS CT", "unit": "", "city": "HARDEEVILLE", "district": "", "region": "SC", "postcode": "29927", "id": ""}, "geometry": {"type": "Point", "coordinates": [-81.050284, 32.2072241]}}
{"type": "Feature", "properties": {"hash": "37e704ebd735a361", "number": "677", "street": "677 NELSONS CT", "unit": "", "city": "HARDEEVILLE", "district": "", "region": "SC", "postcode": "29927", "id": ""}, "geometry": {"type": "Point", "coordinates": [-81.0503578, 32.210307]}}
{"type": "Feature", "properties": {"hash": "4d6a4200043837a0", "number": "420", "street": "420 NELSONS CT", "unit": "", "city": "HARDEEVILLE", "district": "", "region": "SC", "postcode": "29927", "id": ""}, "geometry": {"type": "Point", "coordinates": [-81.048024, 32.2050059]}}
{"type": "Feature", "properties": {"id": "", "unit": "", "number": "1411", "street": "ALEX ST", "city": "CAYCE", "district": "", "region": "SC", "postcode": "29033", "hash": "edb83fc64945766f"}, "geometry": {"type": "Point", "coordinates": [-81.0736071, 33.9744421]}}
{"type": "Feature", "properties": {"id": "", "unit": "", "number": "1412", "street": "ALEX ST", "city": "CAYCE", "district": "", "region": "SC", "postcode": "29033", "hash": "a249cdad48d2f0ae"}, "geometry": {"type": "Point", "coordinates": [-81.0737431, 33.9742561]}}
{"type": "Feature", "properties": {"id": "", "unit": "", "number": "1413", "street": "ALEX ST", "city": "CAYCE", "district": "", "region": "SC", "postcode": "29033", "hash": "eeedb487c5f9136e"}, "geometry": {"type": "Point", "coordinates": [-81.0734997, 33.9742925]}}
{"type": "Feature", "properties": {"id": "", "unit": "", "number": "1427", "street": "ALEX ST", "city": "CAYCE", "district": "", "region": "SC", "postcode": "29033", "hash": "928e35d25abde268"}, "geometry": {"type": "Point", "coordinates": [-81.0731771, 33.9738272]}}
{"type": "Feature", "properties": {"id": "", "unit": "APT 101", "number": "800", "street": "ALEXANDER RD", "city": "CAYCE", "district": "", "region": "SC", "postcode": "29033", "hash": "49c30b3f10b3a624"}, "geometry": {"type": "Point", "coordinates": [-81.0542968, 33.9883765]}}
{"type": "Feature", "properties": {"id": "", "unit": "APT 102", "number": "800", "street": "ALEXANDER RD", "city": "CAYCE", "district": "", "region": "SC", "postcode": "29033", "hash": "54005de163d9fdd6"}, "geometry": {"type": "Point", "coordinates": [-81.0543504, 33.9882494]}}
{"type": "Feature", "properties": {"id": "", "unit": "APT 103", "number": "800", "street": "ALEXANDER RD", "city": "CAYCE", "district": "", "region": "SC", "postcode": "29033", "hash": "8a726ba433e9b5e9"}, "geometry": {"type": "Point", "coordinates": [-81.0544774, 33.988435]}}
{"type": "Feature", "properties": {"id": "", "unit": "APT 104", "number": "800", "street": "ALEXANDER RD", "city": "CAYCE", "district": "", "region": "SC", "postcode": "29033", "hash": "7f569d57aa0702c7"}, "geometry": {"type": "Point", "coordinates": [-81.0545412, 33.9883103]}}
{"type": "Feature", "properties": {"id": "", "unit": "APT 204", "number": "800", "street": "ALEXANDER RD", "city": "CAYCE", "district": "", "region": "SC", "postcode": "29033", "hash": "d9dccc77124de79d"}, "geometry": {"type": "Point", "coordinates": [-81.0545307, 33.9883339]}}
{"type": "Feature", "properties": {"id": "", "unit": "APT 203", "number": "800", "street": "ALEXANDER RD", "city": "CAYCE", "district": "", "region": "SC", "postcode": "29033", "hash": "3b47c7162b47b8c6"}, "geometry": {"type": "Point", "coordinates": [-81.0544899, 33.9884158]}}
{"type": "Feature", "properties": {"hash": "d2a2dfa30a6a8ec4", "number": "135", "street": "VERNER MILL RD", "unit": "", "city": "MOUNTAIN REST", "district": "", "region": "SC", "postcode": "29664", "id": ""}, "geometry": {"type": "Point", "coordinates": [-83.1356212, 34.8426458]}}
{"type": "Feature", "properties": {"hash": "42a41c1f5ccf47f6", "number": "120", "street": "VERNER MILL RD", "unit": "", "city": "MOUNTAIN REST", "district": "", "region": "SC", "postcode": "29664", "id": ""}, "geometry": {"type": "Point", "coordinates": [-83.1342577, 34.8431664]}}
{"type": "Feature", "properties": {"hash": "2b770bdccb98098f", "number": "100", "street": "SUNSHINE CIR", "unit": "7", "city": "WESTMINSTER", "district": "", "region": "SC", "postcode": "29693", "id": ""}, "geometry": {"type": "Point", "coordinates": [-83.0797906, 34.6603173]}}
{"type": "Feature", "properties": {"hash": "ed410db059e2d3b9", "number": "100", "street": "SUNSHINE CIR", "unit": "9", "city": "WESTMINSTER", "district": "", "region": "SC", "postcode": "29693", "id": ""}, "geometry": {"type": "Point", "coordinates": [-83.0795643, 34.660249]}}
{"type": "Feature", "properties": {"hash": "77d7a646727da3a9", "number": "486", "street": "BOUNTYLAND RD", "unit": "", "city": "WESTMINSTER", "district": "", "region": "SC", "postcode": "29693", "id": ""}, "geometry": {"type": "Point", "coordinates": [-83.0326398, 34.6956908]}}
{"type": "Feature", "properties": {"hash": "bdde2a2006bd0e53", "number": "490", "street": "BOUNTYLAND RD", "unit": "", "city": "WESTMINSTER", "district": "", "region": "SC", "postcode": "29693", "id": ""}, "geometry": {"type": "Point", "coordinates": [-83.0327464, 34.6951394]}}
{"type": "Feature", "properties": {"hash": "035bf3d827e3eef9", "number": "135", "street": "E MAIN ST", "unit": "", "city": "WESTMINSTER", "district": "", "region": "SC", "postcode": "29693", "id": ""}, "geometry": {"type": "Point", "coordinates": [-83.0962385, 34.6658037]}}
{"type": "Feature", "properties": {"hash": "3e3667b73fc03877", "number": "323", "street": "HILLCREST DR", "unit": "", "city": "WESTMINSTER", "district": "", "region": "SC", "postcode": "29693", "id": ""}, "geometry": {"type": "Point", "coordinates": [-83.0246548, 34.6772093]}}
{"type": "Feature", "properties": {"hash": "84972262e5e2ff2b", "number": "340", "street": "MATCH PLAY LN", "unit": "", "city": "WESTMINSTER", "district": "", "region": "SC", "postcode": "29693", "id": ""}, "geometry": {"type": "Point", "coordinates": [-83.0241338, 34.6814958]}}
{"type": "Feature", "properties": {"hash": "230ad37a15a82f87", "number": "859", "street": "POPLAR SPRINGS RD", "unit": "", "city": "WESTMINSTER", "district": "", "region": "SC", "postcode": "29693", "id": ""}, "geometry": {"type": "Point", "coordinates": [-83.0256297, 34.6836684]}}
{"type": "Feature", "properties": {"hash": "0ee093a84e50eb11", "number": "7220", "street": "CAMDEN HWY", "unit": "", "city": "REMBERT", "district": "", "region": "SC", "postcode": "29128", "id": ""}, "geometry": {"type": "Point", "coordinates": [-80.5138517, 34.070232]}}
{"type": "Feature", "properties": {"hash": "ae96d7119027fa01", "number": "5718", "street": "TB WRIGHT RD", "unit": "", "city": "REMBERT", "district": "", "region": "SC", "postcode": "29128", "id": ""}, "geometry": {"type": "Point", "coordinates": [-80.5126592, 34.0688196]}}
{"type": "Feature", "properties": {"hash": "4e60f67886793aef", "number": "22", "street": "BOUNDARY ST", "unit": "", "city": "MAYESVILLE", "district": "", "region": "SC", "postcode": "29104", "id": ""}, "geometry": {"type": "Point", "coordinates": [-80.2040444, 33.9871502]}}
{"type": "Feature", "properties": {"hash": "b3468c78e4501d3e", "number": "601", "street": "BULTMAN DR", "unit": "", "city": "SUMTER", "district": "", "region": "SC", "postcode": "29150", "id": ""}, "geometry": {"type": "Point", "coordinates": [-80.3710554, 33.938131]}}
{"type": "Feature", "properties": {"hash": "662fa4a6e1b2a74f", "number": "999", "street": "HEATHER LN", "unit": "", "city": "SUMTER", "district": "", "region": "SC", "postcode": "29154", "id": ""}, "geometry": {"type": "Point", "coordinates": [-80.3748072, 33.8928285]}}
{"type": "Feature", "properties": {"hash": "fee752eb7fce7982", "number": "19", "street": "BEARD DR", "unit": "", "city": "DALZELL", "district": "", "region": "SC", "postcode": "29040", "id": ""}, "geometry": {"type": "Point", "coordinates": [-80.4201503, 34.0168381]}}
{"type": "Feature", "properties": {"hash": "3bb14b522bbf89cc", "number": "20", "street": "BEARD DR", "unit": "", "city": "DALZELL", "district": "", "region": "SC", "postcode": "29040", "id": ""}, "geometry": {"type": "Point", "coordinates": [-80.4199442, 34.0166506]}}
{"type": "Feature", "properties": {"hash": "316dbcc2596b9e47", "number": "545", "street": "BULTMAN DR", "unit": "", "city": "SUMTER", "district": "", "region": "SC", "postcode": "29150", "id": ""}, "geometry": {"type": "Point", "coordinates": [-80.3706021, 33.9361749]}}
{"type": "Feature", "properties": {"hash": "6bc95af859e8ff3c", "number": "569", "street": "BULTMAN DR", "unit": "", "city": "SUMTER", "district": "", "region": "SC", "postcode": "29150", "id": ""}, "geometry": {"type": "Point", "coordinates": [-80.3706639, 33.9371833]}}
{"type": "Feature", "properties": {"hash": "f4516bed0821e4b6", "number": "648", "street": "BULTMAN DR", "unit": "", "city": "SUMTER", "district": "", "region": "SC", "postcode": "29150", "id": ""}, "geometry": {"type": "Point", "coordinates": [-80.3720644, 33.939426]}}
{"type": "Feature", "properties": {"id": "", "unit": "", "number": "102", "street": "RAYMOND RD", "city": "UNION", "district": "", "region": "SC", "postcode": "29379", "hash": "b89e78c5641c304d"}, "geometry": {"type": "Point", "coordinates": [-81.6030785, 34.7288512]}}
{"type": "Feature", "properties": {"id": "", "unit": "", "number": "238", "street": "JONESVILLE LOCKHART HWY", "city": "JONESVILLE", "district": "", "region": "SC", "postcode": "29353", "hash": "52cc216cd3d60ba7"}, "geometry": {"type": "Point", "coordinates": [-81.6606065, 34.8180104]}}
{"type": "Feature", "properties": {"id": "", "unit": "", "number": "134", "street": "A ST", "city": "JONESVILLE", "district": "", "region": "SC", "postcode": "29353", "hash": "809e1ef5d4d6ceb3"}, "geometry": {"type": "Point", "coordinates": [-81.6873824, 34.8327053]}}
{"type": "Feature", "properties": {"id": "", "unit": "", "number": "102", "street": "ACADEMY ST", "city": "JONESVILLE", "district": "", "region": "SC", "postcode": "29353", "hash": "b248a10267532848"}, "geometry": {"type": "Point", "coordinates": [-81.678033, 34.8369463]}}
{"type": "Feature", "properties": {"id": "", "unit": "", "number": "106", "street": "ACADEMY ST", "city": "JONESVILLE", "district": "", "region": "SC", "postcode": "29353", "hash": "a5f1076287d04957"}, "geometry": {"type": "Point", "coordinates": [-81.6779462, 34.8367703]}}
{"type": "Feature", "properties": {"id": "", "unit": "", "number": "112", "street": "ACADEMY ST", "city": "JONESVILLE", "district": "", "region": "SC", "postcode": "29353", "hash": "838f81b96a1e5220"}, "geometry": {"type": "Point", "coordinates": [-81.6778432, 34.8365397]}}
{"type": "Feature", "properties": {"id": "", "unit": "", "number": "116", "street": "ACADEMY ST", "city": "JONESVILLE", "district": "", "region": "SC", "postcode": "29353", "hash": "f4617dcc67f06198"}, "geometry": {"type": "Point", "coordinates": [-81.6777216, 34.8362977]}}
{"type": "Feature", "properties": {"id": "", "unit": "", "number": "119", "street": "ACADEMY ST", "city": "JONESVILLE", "district": "", "region": "SC", "postcode": "29353", "hash": "d5d7a9ecdbe570e5"}, "geometry": {"type": "Point", "coordinates": [-81.6770013, 34.8363343]}}
{"type": "Feature", "properties": {"id": "", "unit": "", "number": "124", "street": "ACADEMY ST", "city": "JONESVILLE", "district": "", "region": "SC", "postcode": "29353", "hash": "1be24c29c0a8033c"}, "geometry": {"type": "Point", "coordinates": [-81.6776409, 34.8358437]}}
{"type": "Feature", "properties": {"id": "", "unit": "", "number": "129", "street": "ACADEMY ST", "city": "JONESVILLE", "district": "", "region": "SC", "postcode": "29353", "hash": "22c5113e2198f20a"}, "geometry": {"type": "Point", "coordinates": [-81.6769373, 34.8359003]}}
{"type": "Feature", "properties": {"id": "", "unit": "", "number": "1205", "street": "HALL SPENCER RD", "city": "CATAWBA", "district": "", "region": "SC", "postcode": "29704", "hash": "6f90dab9aa9b41ab"}, "geometry": {"type": "Point", "coordinates": [-80.9558306, 34.8431472]}}
{"type": "Feature", "properties": {"id": "", "unit": "", "number": "1386", "street": "BROOKMEAD DR", "city": "FORT MILL", "district": "", "region": "SC", "postcode": "29715", "hash": "4ef6dd13f0bf509c"}, "geometry": {"type": "Point", "coordinates": [-80.9685993, 35.0011522]}}
{"type": "Feature", "properties": {"id": "", "unit": "", "number": "1392", "street": "BROOKMEAD DR", "city": "FORT MILL", "district": "", "region": "SC", "postcode": "29715", "hash": "6e29d1b7f1c5e9bd"}, "geometry": {"type": "Point", "coordinates": [-80.9688196, 35.0012347]}}
{"type": "Feature", "properties": {"id": "", "unit": "", "number": "240", "street": "TAIL RACE LN", "city": "FORT MILL", "district": "", "region": "SC", "postcode": "29715", "hash": "18c216678d87ef9f"}, "geometry": {"type": "Point", "coordinates": [-80.9674689, 34.9973085]}}
{"type": "Feature", "properties": {"id": "", "unit": "", "number": "250", "street": "CINDA ST", "city": "FORT MILL", "district": "", "region": "SC", "postcode": "29715", "hash": "5cb8ba2da0088697"}, "geometry": {"type": "Point", "coordinates": [-80.9688814, 35.0056715]}}
{"type": "Feature", "properties": {"id": "", "unit": "", "number": "236", "street": "TAIL RACE LN", "city": "FORT MILL", "district": "", "region": "SC", "postcode": "29715", "hash": "dcf3b64320fb4188"}, "geometry": {"type": "Point", "coordinates": [-80.9675224, 34.9971931]}}
{"type": "Feature", "properties": {"id": "", "unit": "", "number": "100", "street": "LESTINA CT", "city": "FORT MILL", "district": "", "region": "SC", "postcode": "29715", "hash": "231a12343eeb0100"}, "geometry": {"type": "Point", "coordinates": [-80.9282206, 35.0211574]}}
{"type": "Feature", "properties": {"id": "", "unit": "", "number": "105", "street": "LESTINA CT", "city": "FORT MILL", "district": "", "region": "SC", "postcode": "29715", "hash": "10073a61fbffc93b"}, "geometry": {"type": "Point", "coordinates": [-80.9279377, 35.0200941]}}
{"type": "Feature", "properties": {"id": "", "unit": "101", "number": "100 101", "street": "STARNES POINT CT", "city": "FORT MILL", "district": "", "region": "SC", "postcode": "29715", "hash": "97bbffe5717472fc"}, "geometry": {"type": "Point", "coordinates": [-80.9267584, 35.0206538]}}
{"type": "Feature", "properties": {"id": "", "unit": "105", "number": "100 105", "street": "STARNES POINT CT", "city": "FORT MILL", "district": "", "region": "SC", "postcode": "29715", "hash": "ee164ae8c62fa408"}, "geometry": {"type": "Point", "coordinates": [-80.9267383, 35.0207335]}}
