{"type": "Feature", "properties": {"id": "", "unit": "", "number": "37831", "street": "US HWY 16", "city": "WHITE LAKE", "district": "AURORA COUNTY", "region": "SD", "postcode": "57383", "hash": "dbf8501ff88ab43a"}, "geometry": {"type": "Point", "coordinates": [-98.6251142, 43.7216327]}}
{"type": "Feature", "properties": {"id": "", "unit": "", "number": "26415", "street": "US HWY 281", "city": "STICKNEY", "district": "AURORA COUNTY", "region": "SD", "postcode": "57375", "hash": "6e5aaed9c3fcc50c"}, "geometry": {"type": "Point", "coordinates": [-98.4404694, 43.5542715]}}
{"type": "Feature", "properties": {"id": "", "unit": "", "number": "38790", "street": "259TH ST", "city": "STICKNEY", "district": "AURORA COUNTY", "region": "SD", "postcode": "57375", "hash": "b1faa105fb46c1aa"}, "geometry": {"type": "Point", "coordinates": [-98.4428581, 43.6290379]}}
{"type": "Feature", "properties": {"id": "", "unit": "", "number": "26396", "street": "384TH AVE", "city": "STICKNEY", "district": "AURORA COUNTY", "region": "SD", "postcode": "57375", "hash": "cf5756b4879ee964"}, "geometry": {"type": "Point", "coordinates": [-98.5193012, 43.5573368]}}
{"type": "Feature", "properties": {"id": "", "unit": "", "number": "26205", "street": "US HWY 281", "city": "STICKNEY", "district": "AURORA COUNTY", "region": "SD", "postcode": "57375", "hash": "4a18c52a9fb330fd"}, "geometry": {"type": "Point", "coordinates": [-98.4414069, 43.585094]}}
{"type": "Feature", "properties": {"id": "", "unit": "", "number": "26215", "street": "US HWY 281", "city": "STICKNEY", "district": "AURORA COUNTY", "region": "SD", "postcode": "57375", "hash": "931ffaa61a118038"}, "geometry": {"type": "Point", "coordinates": [-98.4413572, 43.584136]}}
{"type": "Feature", "properties": {"id": "", "unit": "", "number": "26410", "street": "391ST AVE", "city": "STICKNEY", "district": "AURORA COUNTY", "region": "SD", "postcode": "57375", "hash": "e1c0dc0c109d84a1"}, "geometry": {"type": "Point", "coordinates": [-98.3828687, 43.5555416]}}
{"type": "Feature", "properties": {"id": "", "unit": "", "number": "39017", "street": "262ND ST", "city": "STICKNEY", "district": "AURORA COUNTY", "region": "SD", "postcode": "57375", "hash": "2d3c9198d73a11eb"}, "geometry": {"type": "Point", "coordinates": [-98.4012951, 43.5859303]}}
{"type": "Feature", "properties": {"id": "", "unit": "", "number": "26663", "street": "383RD AVE", "city": "STICKNEY", "district": "AURORA COUNTY", "region": "SD", "postcode": "57375", "hash": "3bea1a94f4f14ef0"}, "geometry": {"type": "Point", "coordinates": [-98.5376299, 43.51778]}}
{"type": "Feature", "properties": {"id": "", "unit": "", "number": "26265", "street": "385TH AVE", "city": "STICKNEY", "district": "AURORA COUNTY", "region": "SD", "postcode": "57375", "hash": "dac90bba94de12ee"}, "geometry": {"type": "Point", "coordinates": [-98.4983686, 43.5757256]}}
{"type": "Feature", "properties": {"id": "", "unit": "", "number": "26420", "street": "385TH AVE", "city": "STICKNEY", "district": "AURORA COUNTY", "region": "SD", "postcode": "57375", "hash": "505ea0476cadfcd7"}, "geometry": {"type": "Point", "coordinates": [-98.4996626, 43.5532635]}}
{"type": "Feature", "properties": {"id": "", "unit": "", "number": "26415", "street": "384TH AVE", "city": "STICKNEY", "district": "AURORA COUNTY", "region": "SD", "postcode": "57375", "hash": "c2e43f15f9511d26"}, "geometry": {"type": "Point", "coordinates": [-98.51925, 43.5543102]}}
{"type": "Feature", "properties": {"id": "", "unit": "", "number": "38664", "street": "267TH ST", "city": "STICKNEY", "district": "AURORA COUNTY", "region": "SD", "postcode": "57375", "hash": "861e8a2a8f2c76f5"}, "geometry": {"type": "Point", "coordinates": [-98.4625189, 43.5131237]}}
{"type": "Feature", "properties": {"id": "", "unit": "", "number": "38536", "street": "263RD ST", "city": "STICKNEY", "district": "AURORA COUNTY", "region": "SD", "postcode": "57375", "hash": "08a11c5c6d9bdde1"}, "geometry": {"type": "Point", "coordinates": [-98.4886642, 43.5711154]}}
{"type": "Feature", "properties": {"id": "", "unit": "", "number": "26365", "street": "386TH AVE", "city": "STICKNEY", "district": "AURORA COUNTY", "region": "SD", "postcode": "57375", "hash": "79698ec7a852ac86"}, "geometry": {"type": "Point", "coordinates": [-98.4797393, 43.5622384]}}
{"type": "Feature", "properties": {"id": "", "unit": "", "number": "38623", "street": "262ND ST", "city": "STICKNEY", "district": "AURORA COUNTY", "region": "SD", "postcode": "57375", "hash": "a3f98ec0a05c7511"}, "geometry": {"type": "Point", "coordinates": [-98.4744813, 43.5852267]}}
{"type": "Feature", "properties": {"id": "", "unit": "", "number": "37719", "street": "263RD ST", "city": "STICKNEY", "district": "AURORA COUNTY", "region": "SD", "postcode": "57375", "hash": "b9979ee2c07c433e"}, "geometry": {"type": "Point", "coordinates": [-98.6521841, 43.5707964]}}
{"type": "Feature", "properties": {"id": "", "unit": "", "number": "26305", "street": "380TH AVE", "city": "STICKNEY", "district": "AURORA COUNTY", "region": "SD", "postcode": "57375", "hash": "feac60ecfc0ba65e"}, "geometry": {"type": "Point", "coordinates": [-98.5951414, 43.5702512]}}
{"type": "Feature", "properties": {"id": "", "unit": "", "number": "26435", "street": "381ST AVE", "city": "STICKNEY", "district": "AURORA COUNTY", "region": "SD", "postcode": "57375", "hash": "4896f6699594099e"}, "geometry": {"type": "Point", "coordinates": [-98.5750868, 43.5506047]}}
{"type": "Feature", "properties": {"id": "", "unit": "", "number": "38036", "street": "265TH ST", "city": "STICKNEY", "district": "AURORA COUNTY", "region": "SD", "postcode": "57375", "hash": "a91ff1ec16d68d93"}, "geometry": {"type": "Point", "coordinates": [-98.5874726, 43.5416981]}}
{"type": "Feature", "properties": {"id": "", "unit": "", "number": "37931", "street": "267TH ST", "city": "STICKNEY", "district": "AURORA COUNTY", "region": "SD", "postcode": "57375", "hash": "0cca429b0d648c53"}, "geometry": {"type": "Point", "coordinates": [-98.6103606, 43.5126032]}}
{"type": "Feature", "properties": {"id": "", "unit": "", "number": "26715", "street": "379TH AVE", "city": "STICKNEY", "district": "AURORA COUNTY", "region": "SD", "postcode": "57375", "hash": "5ad5f473a13f1831"}, "geometry": {"type": "Point", "coordinates": [-98.6169373, 43.5115725]}}
{"type": "Feature", "properties": {"id": "", "unit": "", "number": "39196", "street": "262ND ST", "city": "STICKNEY", "district": "AURORA COUNTY", "region": "SD", "postcode": "57375", "hash": "2d758844de1ebb68"}, "geometry": {"type": "Point", "coordinates": [-98.3655574, 43.5864593]}}
{"type": "Feature", "properties": {"id": "", "unit": "", "number": "26115", "street": "393RD AVE", "city": "STICKNEY", "district": "AURORA COUNTY", "region": "SD", "postcode": "57375", "hash": "a4ee26c74bd6887e"}, "geometry": {"type": "Point", "coordinates": [-98.345349, 43.5994098]}}
{"type": "Feature", "properties": {"id": "", "unit": "", "number": "37180", "street": "263RD ST", "city": "WHITE LAKE", "district": "AURORA COUNTY", "region": "SD", "postcode": "57383", "hash": "1e707c1a436035d4"}, "geometry": {"type": "Point", "coordinates": [-98.7568835, 43.5716107]}}
{"type": "Feature", "properties": {"id": "", "unit": "", "number": "37256", "street": "263RD ST", "city": "WHITE LAKE", "district": "AURORA COUNTY", "region": "SD", "postcode": "57383", "hash": "1026c50055ab3350"}, "geometry": {"type": "Point", "coordinates": [-98.7420809, 43.5715966]}}
{"type": "Feature", "properties": {"id": "", "unit": "", "number": "37046", "street": "267TH ST", "city": "WHITE LAKE", "district": "AURORA COUNTY", "region": "SD", "postcode": "57383", "hash": "6a60fc8c213dd9d8"}, "geometry": {"type": "Point", "coordinates": [-98.7848369, 43.5137984]}}
{"type": "Feature", "properties": {"id": "", "unit": "", "number": "37821", "street": "263RD ST", "city": "STICKNEY", "district": "AURORA COUNTY", "region": "SD", "postcode": "57375", "hash": "478c236648b6f725"}, "geometry": {"type": "Point", "coordinates": [-98.6292823, 43.5706881]}}
{"type": "Feature", "properties": {"id": "", "unit": "", "number": "26360", "street": "379TH AVE", "city": "STICKNEY", "district": "AURORA COUNTY", "region": "SD", "postcode": "57375", "hash": "3908ca89ea62ea59"}, "geometry": {"type": "Point", "coordinates": [-98.6160835, 43.5617265]}}
{"type": "Feature", "properties": {"id": "", "unit": "", "number": "37081", "street": "263RD ST", "city": "WHITE LAKE", "district": "AURORA COUNTY", "region": "SD", "postcode": "57383", "hash": "67c66a33b3c9e7ab"}, "geometry": {"type": "Point", "coordinates": [-98.7793404, 43.5715467]}}
{"type": "Feature", "properties": {"id": "", "unit": "", "number": "25865", "street": "383RD AVE", "city": "PLANKINTON", "district": "AURORA COUNTY", "region": "SD", "postcode": "57368", "hash": "67272e4dd89d16f8"}, "geometry": {"type": "Point", "coordinates": [-98.5358487, 43.6340093]}}
{"type": "Feature", "properties": {"id": "", "unit": "", "number": "38769", "street": "256TH ST", "city": "PLANKINTON", "district": "AURORA COUNTY", "region": "SD", "postcode": "57368", "hash": "529caff3c292fbb5"}, "geometry": {"type": "Point", "coordinates": [-98.4492582, 43.6725287]}}
{"type": "Feature", "properties": {"id": "", "unit": "", "number": "26011", "street": "385TH AVE", "city": "PLANKINTON", "district": "AURORA COUNTY", "region": "SD", "postcode": "57368", "hash": "6dd69b0e0859dcf1"}, "geometry": {"type": "Point", "coordinates": [-98.4950305, 43.613276]}}
{"type": "Feature", "properties": {"id": "", "unit": "", "number": "38780", "street": "261ST ST", "city": "STICKNEY", "district": "AURORA COUNTY", "region": "SD", "postcode": "57375", "hash": "af2cb1e9a6484b39"}, "geometry": {"type": "Point", "coordinates": [-98.4438363, 43.5998926]}}
{"type": "Feature", "properties": {"id": "", "unit": "", "number": "39149", "street": "255TH ST", "city": "PLANKINTON", "district": "AURORA COUNTY", "region": "SD", "postcode": "57368", "hash": "3daf69d46a16c833"}, "geometry": {"type": "Point", "coordinates": [-98.3798022, 43.6874403]}}
{"type": "Feature", "properties": {"id": "", "unit": "", "number": "39186", "street": "260TH ST", "city": "STICKNEY", "district": "AURORA COUNTY", "region": "SD", "postcode": "57375", "hash": "971473b49f46edc7"}, "geometry": {"type": "Point", "coordinates": [-98.3662952, 43.6154222]}}
{"type": "Feature", "properties": {"id": "", "unit": "", "number": "37031", "street": "257TH ST", "city": "WHITE LAKE", "district": "AURORA COUNTY", "region": "SD", "postcode": "57383", "hash": "6ba32b1c554e786c"}, "geometry": {"type": "Point", "coordinates": [-98.7874472, 43.6582198]}}
{"type": "Feature", "properties": {"id": "", "unit": "", "number": "39391", "street": "252ND ST", "city": "PLANKINTON", "district": "AURORA COUNTY", "region": "SD", "postcode": "57368", "hash": "f4c09273de109c34"}, "geometry": {"type": "Point", "coordinates": [-98.3281654, 43.7317601]}}
{"type": "Feature", "properties": {"id": "", "unit": "", "number": "25520", "street": "376TH AVE", "city": "WHITE LAKE", "district": "AURORA COUNTY", "region": "SD", "postcode": "57383", "hash": "5e7263022821ac70"}, "geometry": {"type": "Point", "coordinates": [-98.6740046, 43.6845808]}}
{"type": "Feature", "properties": {"id": "", "unit": "", "number": "38087", "street": "252ND ST", "city": "PLANKINTON", "district": "AURORA COUNTY", "region": "SD", "postcode": "57368", "hash": "285d0d99fe50d049"}, "geometry": {"type": "Point", "coordinates": [-98.5780337, 43.730718]}}
{"type": "Feature", "properties": {"id": "", "unit": "", "number": "25301", "street": "381ST AVE", "city": "PLANKINTON", "district": "AURORA COUNTY", "region": "SD", "postcode": "57368", "hash": "42c664c6a71af0b4"}, "geometry": {"type": "Point", "coordinates": [-98.5744605, 43.7170334]}}
{"type": "Feature", "properties": {"id": "", "unit": "", "number": "25474", "street": "US HWY 281", "city": "PLANKINTON", "district": "AURORA COUNTY", "region": "SD", "postcode": "57368", "hash": "69dfcb17d635040c"}, "geometry": {"type": "Point", "coordinates": [-98.4438643, 43.6912747]}}
{"type": "Feature", "properties": {"id": "", "unit": "", "number": "25033", "street": "371ST AVE", "city": "WHITE LAKE", "district": "AURORA COUNTY", "region": "SD", "postcode": "57383", "hash": "5a4645a00e17ecd9"}, "geometry": {"type": "Point", "coordinates": [-98.7744994, 43.7552794]}}
{"type": "Feature", "properties": {"id": "", "unit": "", "number": "37030", "street": "254TH ST", "city": "WHITE LAKE", "district": "AURORA COUNTY", "region": "SD", "postcode": "57383", "hash": "84de010a2f7a48c4"}, "geometry": {"type": "Point", "coordinates": [-98.7890604, 43.7018869]}}
{"type": "Feature", "properties": {"id": "", "unit": "", "number": "25353", "street": "NATIONAL AVE", "city": "PLANKINTON", "district": "AURORA COUNTY", "region": "SD", "postcode": "57368", "hash": "ff0420ff3c898dae"}, "geometry": {"type": "Point", "coordinates": [-98.4305895, 43.7068059]}}
{"type": "Feature", "properties": {"id": "", "unit": "", "number": "38686", "street": "256TH ST", "city": "PLANKINTON", "district": "AURORA COUNTY", "region": "SD", "postcode": "57368", "hash": "8b50375093553001"}, "geometry": {"type": "Point", "coordinates": [-98.4653726, 43.6725782]}}
{"type": "Feature", "properties": {"id": "", "unit": "", "number": "25195", "street": "386TH AVE", "city": "PLANKINTON", "district": "AURORA COUNTY", "region": "SD", "postcode": "57368", "hash": "43a5b058f8dcb62f"}, "geometry": {"type": "Point", "coordinates": [-98.4802087, 43.731825]}}
{"type": "Feature", "properties": {"id": "", "unit": "", "number": "704", "street": "E STATE ST", "city": "PLANKINTON", "district": "AURORA COUNTY", "region": "SD", "postcode": "57368", "hash": "f85f8c147c81fb87"}, "geometry": {"type": "Point", "coordinates": [-98.4758374, 43.710856]}}
{"type": "Feature", "properties": {"id": "", "unit": "", "number": "23842", "street": "386TH AVE", "city": "WESSINGTON SPRINGS", "district": "AURORA COUNTY", "region": "SD", "postcode": "57382", "hash": "f87bb056a0d2f4be"}, "geometry": {"type": "Point", "coordinates": [-98.4911785, 43.9245707]}}
{"type": "Feature", "properties": {"id": "", "unit": "", "number": "23841", "street": "386TH AVE", "city": "WESSINGTON SPRINGS", "district": "AURORA COUNTY", "region": "SD", "postcode": "57382", "hash": "41a66f7140a5c5af"}, "geometry": {"type": "Point", "coordinates": [-98.4913185, 43.9249648]}}
{"type": "Feature", "properties": {"hash": "58fe8dd442daee1d", "number": "45408", "street": "268TH ST", "unit": "", "city": "HUMBOLDT", "district": "Minnehaha", "region": "SD", "postcode": "57035", "id": ""}, "geometry": {"type": "Point", "coordinates": [-97.1281335, 43.5000901]}}
{"type": "Feature", "properties": {"hash": "56f931bf0f387b7d", "number": "45858", "street": "268TH ST", "unit": "", "city": "PARKER", "district": "Minnehaha", "region": "SD", "postcode": "57035", "id": ""}, "geometry": {"type": "Point", "coordinates": [-97.0392047, 43.5005619]}}
{"type": "Feature", "properties": {"hash": "1d71d5984059b562", "number": "45872", "street": "268TH ST", "unit": "", "city": "PARKER", "district": "Minnehaha", "region": "SD", "postcode": "57035", "id": ""}, "geometry": {"type": "Point", "coordinates": [-97.0356672, 43.5004274]}}
{"type": "Feature", "properties": {"hash": "4b0e9f0d66466383", "number": "45978", "street": "268TH ST", "unit": "", "city": "HARTFORD", "district": "Minnehaha", "region": "SD", "postcode": "57033", "id": ""}, "geometry": {"type": "Point", "coordinates": [-97.0154854, 43.5002602]}}
{"type": "Feature", "properties": {"hash": "6d26ee24fef9603d", "number": "45976", "street": "268TH ST", "unit": "", "city": "HARTFORD", "district": "Minnehaha", "region": "SD", "postcode": "57033", "id": ""}, "geometry": {"type": "Point", "coordinates": [-97.0163537, 43.5005123]}}
{"type": "Feature", "properties": {"hash": "60eb5613aa9b3ee3", "number": "45874", "street": "268TH ST", "unit": "", "city": "PARKER", "district": "Minnehaha", "region": "SD", "postcode": "57035", "id": ""}, "geometry": {"type": "Point", "coordinates": [-97.0352606, 43.5009514]}}
{"type": "Feature", "properties": {"hash": "0264bfd4160699ac", "number": "45956", "street": "268TH ST", "unit": "", "city": "HARTFORD", "district": "Minnehaha", "region": "SD", "postcode": "57033", "id": ""}, "geometry": {"type": "Point", "coordinates": [-97.0193044, 43.5008599]}}
{"type": "Feature", "properties": {"hash": "104d24380a94eaa3", "number": "46192", "street": "268TH ST", "unit": "", "city": "CHANCELLOR", "district": "Minnehaha", "region": "SD", "postcode": "57033", "id": ""}, "geometry": {"type": "Point", "coordinates": [-96.9729566, 43.5003044]}}
{"type": "Feature", "properties": {"hash": "1e6d33d8199d8d66", "number": "46036", "street": "268TH ST", "unit": "", "city": "CHANCELLOR", "district": "Minnehaha", "region": "SD", "postcode": "57033", "id": ""}, "geometry": {"type": "Point", "coordinates": [-97.0025882, 43.5009573]}}
{"type": "Feature", "properties": {"hash": "451a552f9dc711b9", "number": "46122", "street": "268TH ST", "unit": "", "city": "CHANCELLOR", "district": "Minnehaha", "region": "SD", "postcode": "57033", "id": ""}, "geometry": {"type": "Point", "coordinates": [-96.9853306, 43.5008945]}}
{"type": "Feature", "properties": {"hash": "9e650d5376ab3c4b", "number": "26778", "street": "455TH AVE", "unit": "", "city": "HUMBOLDT", "district": "Minnehaha", "region": "SD", "postcode": "57035", "id": ""}, "geometry": {"type": "Point", "coordinates": [-97.1084017, 43.5030012]}}
{"type": "Feature", "properties": {"hash": "56d945c6b6528886", "number": "46212", "street": "268TH ST", "unit": "", "city": "CHANCELLOR", "district": "Minnehaha", "region": "SD", "postcode": "57033", "id": ""}, "geometry": {"type": "Point", "coordinates": [-96.9683004, 43.5006255]}}
{"type": "Feature", "properties": {"hash": "15e04d66644429e9", "number": "26781", "street": "456TH AVE", "unit": "", "city": "HUMBOLDT", "district": "Minnehaha", "region": "SD", "postcode": "57035", "id": ""}, "geometry": {"type": "Point", "coordinates": [-97.0906313, 43.5027611]}}
{"type": "Feature", "properties": {"hash": "5620d1b891dd6692", "number": "46270", "street": "268TH ST", "unit": "", "city": "CHANCELLOR", "district": "Minnehaha", "region": "SD", "postcode": "57033", "id": ""}, "geometry": {"type": "Point", "coordinates": [-96.9563218, 43.5004494]}}
{"type": "Feature", "properties": {"hash": "04670bac0e6d0db7", "number": "46124", "street": "268TH ST", "unit": "", "city": "CHANCELLOR", "district": "Minnehaha", "region": "SD", "postcode": "57033", "id": ""}, "geometry": {"type": "Point", "coordinates": [-96.9853401, 43.5010238]}}
{"type": "Feature", "properties": {"hash": "d74fd99e4d5116ee", "number": "46284", "street": "268TH ST", "unit": "", "city": "CHANCELLOR", "district": "Minnehaha", "region": "SD", "postcode": "57033", "id": ""}, "geometry": {"type": "Point", "coordinates": [-96.9533329, 43.5005397]}}
{"type": "Feature", "properties": {"hash": "2e4c066f3bc72953", "number": "46274", "street": "268TH ST", "unit": "", "city": "CHANCELLOR", "district": "Minnehaha", "region": "SD", "postcode": "57033", "id": ""}, "geometry": {"type": "Point", "coordinates": [-96.9547136, 43.5010587]}}
{"type": "Feature", "properties": {"hash": "4824af47e8bdea26", "number": "46578", "street": "268TH ST", "unit": "", "city": "SIOUX FALLS", "district": "Minnehaha", "region": "SD", "postcode": "57106", "id": ""}, "geometry": {"type": "Point", "coordinates": [-96.8946043, 43.500463]}}
{"type": "Feature", "properties": {"hash": "3abdbd67082f9458", "number": "46574", "street": "268TH ST", "unit": "", "city": "SIOUX FALLS", "district": "Minnehaha", "region": "SD", "postcode": "57106", "id": ""}, "geometry": {"type": "Point", "coordinates": [-96.8957001, 43.500503]}}
{"type": "Feature", "properties": {"hash": "64050c727d5aedec", "number": "26778", "street": "459TH AVE", "unit": "", "city": "HARTFORD", "district": "Minnehaha", "region": "SD", "postcode": "57033", "id": ""}, "geometry": {"type": "Point", "coordinates": [-97.0289143, 43.5028835]}}
{"type": "Feature", "properties": {"hash": "3f4dbc2a07a5d312", "number": "46608", "street": "268TH ST", "unit": "", "city": "SIOUX FALLS", "district": "Minnehaha", "region": "SD", "postcode": "57106", "id": ""}, "geometry": {"type": "Point", "coordinates": [-96.8887659, 43.5004061]}}
{"type": "Feature", "properties": {"hash": "b8f25227454d8c9f", "number": "46602", "street": "268TH ST", "unit": "", "city": "SIOUX FALLS", "district": "Minnehaha", "region": "SD", "postcode": "57106", "id": ""}, "geometry": {"type": "Point", "coordinates": [-96.8893851, 43.5005031]}}
{"type": "Feature", "properties": {"hash": "a37fa676abe384ad", "number": "26798", "street": "COUNTRY ACRE DR", "unit": "", "city": "SIOUX FALLS", "district": "Minnehaha", "region": "SD", "postcode": "57106", "id": ""}, "geometry": {"type": "Point", "coordinates": [-96.8861865, 43.5004594]}}
{"type": "Feature", "properties": {"hash": "f7623c1feb60a79b", "number": "46510", "street": "268TH ST", "unit": "", "city": "SIOUX FALLS", "district": "Minnehaha", "region": "SD", "postcode": "57106", "id": ""}, "geometry": {"type": "Point", "coordinates": [-96.9082872, 43.500916]}}
{"type": "Feature", "properties": {"hash": "b39857eb12e152cf", "number": "26799", "street": "COUNTRY ACRE DR", "unit": "", "city": "SIOUX FALLS", "district": "Minnehaha", "region": "SD", "postcode": "57106", "id": ""}, "geometry": {"type": "Point", "coordinates": [-96.8870449, 43.500533]}}
{"type": "Feature", "properties": {"hash": "bf5b90516a18fd62", "number": "46627", "street": "PRAIRIE DR", "unit": "", "city": "SIOUX FALLS", "district": "Minnehaha", "region": "SD", "postcode": "57106", "id": ""}, "geometry": {"type": "Point", "coordinates": [-96.884484, 43.5005353]}}
{"type": "Feature", "properties": {"hash": "faab3a4b8016312c", "number": "26798", "street": "MEADOW LN", "unit": "", "city": "SIOUX FALLS", "district": "Minnehaha", "region": "SD", "postcode": "57106", "id": ""}, "geometry": {"type": "Point", "coordinates": [-96.8827426, 43.5005414]}}
{"type": "Feature", "properties": {"hash": "5d2c6bc7473b47bc", "number": "46625", "street": "PRAIRIE DR", "unit": "", "city": "SIOUX FALLS", "district": "Minnehaha", "region": "SD", "postcode": "57106", "id": ""}, "geometry": {"type": "Point", "coordinates": [-96.8852583, 43.5006048]}}
{"type": "Feature", "properties": {"hash": "51b188f726e2039b", "number": "46631", "street": "PRAIRIE DR", "unit": "", "city": "SIOUX FALLS", "district": "Minnehaha", "region": "SD", "postcode": "57106", "id": ""}, "geometry": {"type": "Point", "coordinates": [-96.8836122, 43.5006016]}}
{"type": "Feature", "properties": {"hash": "14dc4c84d4b2b97f", "number": "46645", "street": "PRAIRIE DR", "unit": "", "city": "SIOUX FALLS", "district": "Minnehaha", "region": "SD", "postcode": "57106", "id": ""}, "geometry": {"type": "Point", "coordinates": [-96.8819742, 43.500598]}}
{"type": "Feature", "properties": {"hash": "daab6fd7f2f0f870", "number": "46648", "street": "PRAIRIE DR", "unit": "", "city": "SIOUX FALLS", "district": "Minnehaha", "region": "SD", "postcode": "57106", "id": ""}, "geometry": {"type": "Point", "coordinates": [-96.8808613, 43.5006307]}}
{"type": "Feature", "properties": {"hash": "ca35b74392f33997", "number": "46692", "street": "268TH ST", "unit": "", "city": "SIOUX FALLS", "district": "Minnehaha", "region": "SD", "postcode": "57106", "id": ""}, "geometry": {"type": "Point", "coordinates": [-96.8718324, 43.5005846]}}
{"type": "Feature", "properties": {"hash": "b63e062e54796b1e", "number": "46684", "street": "268TH ST", "unit": "", "city": "SIOUX FALLS", "district": "Minnehaha", "region": "SD", "postcode": "57106", "id": ""}, "geometry": {"type": "Point", "coordinates": [-96.8733292, 43.5006572]}}
{"type": "Feature", "properties": {"hash": "222bd550e949a4dc", "number": "46680", "street": "268TH ST", "unit": "", "city": "SIOUX FALLS", "district": "Minnehaha", "region": "SD", "postcode": "57106", "id": ""}, "geometry": {"type": "Point", "coordinates": [-96.874448, 43.5006818]}}
{"type": "Feature", "properties": {"hash": "e7285184fcf5d618", "number": "46682", "street": "268TH ST", "unit": "", "city": "SIOUX FALLS", "district": "Minnehaha", "region": "SD", "postcode": "57106", "id": ""}, "geometry": {"type": "Point", "coordinates": [-96.8737698, 43.5006725]}}
{"type": "Feature", "properties": {"hash": "f0dd8acf6a57b2cf", "number": "46688", "street": "268TH ST", "unit": "", "city": "SIOUX FALLS", "district": "Minnehaha", "region": "SD", "postcode": "57106", "id": ""}, "geometry": {"type": "Point", "coordinates": [-96.872767, 43.5006667]}}
{"type": "Feature", "properties": {"hash": "64df2bcb586d8af4", "number": "46698", "street": "268TH ST", "unit": "", "city": "SIOUX FALLS", "district": "Minnehaha", "region": "SD", "postcode": "57106", "id": ""}, "geometry": {"type": "Point", "coordinates": [-96.8713314, 43.5006808]}}
{"type": "Feature", "properties": {"hash": "18868f1d587b5c7f", "number": "26785", "street": "463RD AVE", "unit": "", "city": "CHANCELLOR", "district": "Minnehaha", "region": "SD", "postcode": "57033", "id": ""}, "geometry": {"type": "Point", "coordinates": [-96.9506531, 43.5021971]}}
{"type": "Feature", "properties": {"hash": "0f420b310fec5a11", "number": "46624", "street": "PRAIRIE DR", "unit": "", "city": "SIOUX FALLS", "district": "Minnehaha", "region": "SD", "postcode": "57106", "id": ""}, "geometry": {"type": "Point", "coordinates": [-96.885267, 43.5012707]}}
{"type": "Feature", "properties": {"hash": "17bddfe994d9e509", "number": "46632", "street": "PRAIRIE DR", "unit": "", "city": "SIOUX FALLS", "district": "Minnehaha", "region": "SD", "postcode": "57106", "id": ""}, "geometry": {"type": "Point", "coordinates": [-96.8837331, 43.5012442]}}
{"type": "Feature", "properties": {"hash": "270887ea9c352037", "number": "46638", "street": "PRAIRIE DR", "unit": "", "city": "SIOUX FALLS", "district": "Minnehaha", "region": "SD", "postcode": "57106", "id": ""}, "geometry": {"type": "Point", "coordinates": [-96.8826838, 43.5012532]}}
{"type": "Feature", "properties": {"hash": "7449685a70e6ad76", "number": "26797", "street": "COUNTRY ACRE DR", "unit": "", "city": "SIOUX FALLS", "district": "Minnehaha", "region": "SD", "postcode": "57106", "id": ""}, "geometry": {"type": "Point", "coordinates": [-96.8869709, 43.5013336]}}
{"type": "Feature", "properties": {"hash": "bea12bd3e683d550", "number": "46642", "street": "PRAIRIE DR", "unit": "", "city": "SIOUX FALLS", "district": "Minnehaha", "region": "SD", "postcode": "57106", "id": ""}, "geometry": {"type": "Point", "coordinates": [-96.8821281, 43.5012554]}}
{"type": "Feature", "properties": {"hash": "cdb2873022fd76d3", "number": "46628", "street": "PRAIRIE DR", "unit": "", "city": "SIOUX FALLS", "district": "Minnehaha", "region": "SD", "postcode": "57106", "id": ""}, "geometry": {"type": "Point", "coordinates": [-96.8846556, 43.5013094]}}
{"type": "Feature", "properties": {"hash": "52fc992443c1a73b", "number": "26796", "street": "COUNTRY ACRE DR", "unit": "", "city": "SIOUX FALLS", "district": "Minnehaha", "region": "SD", "postcode": "57106", "id": ""}, "geometry": {"type": "Point", "coordinates": [-96.8862661, 43.5013638]}}
{"type": "Feature", "properties": {"hash": "d2de2d2ed15f7bae", "number": "26795", "street": "467TH AVE", "unit": "", "city": "SIOUX FALLS", "district": "Minnehaha", "region": "SD", "postcode": "57106", "id": ""}, "geometry": {"type": "Point", "coordinates": [-96.8711162, 43.5011589]}}
{"type": "Feature", "properties": {"hash": "d1cb3fdb8e1fcaa8", "number": "26787", "street": "466TH AVE", "unit": "", "city": "SIOUX FALLS", "district": "Minnehaha", "region": "SD", "postcode": "57106", "id": ""}, "geometry": {"type": "Point", "coordinates": [-96.889629, 43.5016165]}}
{"type": "Feature", "properties": {"hash": "9a6252d6a5c4c737", "number": "26795", "street": "COUNTRY ACRE DR", "unit": "", "city": "SIOUX FALLS", "district": "Minnehaha", "region": "SD", "postcode": "57106", "id": ""}, "geometry": {"type": "Point", "coordinates": [-96.8871256, 43.5017421]}}
{"type": "Feature", "properties": {"hash": "bcd6efd6279c8243", "number": "46844", "street": "268TH ST", "unit": "", "city": "SIOUX FALLS", "district": "Minnehaha", "region": "SD", "postcode": "57106", "id": ""}, "geometry": {"type": "Point", "coordinates": [-96.8413821, 43.5010164]}}
{"type": "Feature", "properties": {"hash": "7220e342f3ca3243", "number": "26794", "street": "MEADOW LN", "unit": "", "city": "SIOUX FALLS", "district": "Minnehaha", "region": "SD", "postcode": "57106", "id": ""}, "geometry": {"type": "Point", "coordinates": [-96.8828082, 43.5018927]}}
