{"type": "Feature", "properties": {"id": "", "unit": "", "number": "2407", "street": "WEBSTER CT", "city": "BLOUNT COUNTY", "district": "", "region": "TN", "postcode": "37804", "hash": "6b368f2124dac3b1"}, "geometry": {"type": "Point", "coordinates": [-83.9513473, 35.7867656]}}
{"type": "Feature", "properties": {"id": "", "unit": "", "number": "2437", "street": "CECELIA AVE", "city": "BLOUNT COUNTY", "district": "", "region": "TN", "postcode": "37804", "hash": "2b0e611eee036151"}, "geometry": {"type": "Point", "coordinates": [-83.9492437, 35.7883731]}}
{"type": "Feature", "properties": {"id": "", "unit": "", "number": "2439", "street": "CECELIA AVE", "city": "BLOUNT COUNTY", "district": "", "region": "TN", "postcode": "37804", "hash": "dfecd0f5ec842641"}, "geometry": {"type": "Point", "coordinates": [-83.9491246, 35.7885135]}}
{"type": "Feature", "properties": {"id": "", "unit": "", "number": "2441", "street": "CECELIA AVE", "city": "BLOUNT COUNTY", "district": "", "region": "TN", "postcode": "37804", "hash": "e9fc31a01146233a"}, "geometry": {"type": "Point", "coordinates": [-83.9490355, 35.7886259]}}
{"type": "Feature", "properties": {"id": "", "unit": "", "number": "2443", "street": "CECELIA AVE", "city": "BLOUNT COUNTY", "district": "", "region": "TN", "postcode": "37804", "hash": "efff1ff360b56e83"}, "geometry": {"type": "Point", "coordinates": [-83.9489042, 35.7887805]}}
{"type": "Feature", "properties": {"id": "", "unit": "", "number": "2513", "street": "CECELIA AVE", "city": "BLOUNT COUNTY", "district": "", "region": "TN", "postcode": "37804", "hash": "2a76638396de4c40"}, "geometry": {"type": "Point", "coordinates": [-83.9485134, 35.7898104]}}
{"type": "Feature", "properties": {"id": "", "unit": "", "number": "2515", "street": "CECELIA AVE", "city": "BLOUNT COUNTY", "district": "", "region": "TN", "postcode": "37804", "hash": "edd92d8af7c4f2c8"}, "geometry": {"type": "Point", "coordinates": [-83.9485619, 35.7898358]}}
{"type": "Feature", "properties": {"id": "", "unit": "", "number": "2519", "street": "CECELIA AVE", "city": "BLOUNT COUNTY", "district": "", "region": "TN", "postcode": "37804", "hash": "b5d25c3df758ff21"}, "geometry": {"type": "Point", "coordinates": [-83.9486725, 35.7899022]}}
{"type": "Feature", "properties": {"id": "", "unit": "", "number": "2521", "street": "CECELIA AVE", "city": "BLOUNT COUNTY", "district": "", "region": "TN", "postcode": "37804", "hash": "21667a9bea765861"}, "geometry": {"type": "Point", "coordinates": [-83.9487066, 35.7898651]}}
{"type": "Feature", "properties": {"id": "", "unit": "", "number": "2523", "street": "CECELIA AVE", "city": "BLOUNT COUNTY", "district": "", "region": "TN", "postcode": "37804", "hash": "ad6ededc17ce45bf"}, "geometry": {"type": "Point", "coordinates": [-83.9487392, 35.7898252]}}
{"type": "Feature", "properties": {"hash": "44e6f7751fb426b1", "number": "5024", "street": "THOROUGHBRED LN", "unit": "", "city": "BRENTWOOD", "district": "WILLIAMSON", "region": "TN", "postcode": "37027", "id": ""}, "geometry": {"type": "Point", "coordinates": [-86.7891265, 36.036283]}}
{"type": "Feature", "properties": {"hash": "e10afd1ae766ea88", "number": "5022", "street": "THOROUGHBRED LN", "unit": "", "city": "BRENTWOOD", "district": "WILLIAMSON", "region": "TN", "postcode": "37027", "id": ""}, "geometry": {"type": "Point", "coordinates": [-86.7890524, 36.0363114]}}
{"type": "Feature", "properties": {"hash": "46d91374dc73c5bb", "number": "9125", "street": "CROCKETT RD", "unit": "", "city": "BRENTWOOD", "district": "WILLIAMSON", "region": "TN", "postcode": "37027", "id": ""}, "geometry": {"type": "Point", "coordinates": [-86.7680248, 35.9742915]}}
{"type": "Feature", "properties": {"hash": "0e58cd1e5f4246ce", "number": "1040", "street": "BRENTWOOD PT", "unit": "", "city": "BRENTWOOD", "district": "WILLIAMSON", "region": "TN", "postcode": "37027", "id": ""}, "geometry": {"type": "Point", "coordinates": [-86.823562, 35.9674398]}}
{"type": "Feature", "properties": {"hash": "592ea155254c772e", "number": "802", "street": "BRENTWOOD PT", "unit": "", "city": "BRENTWOOD", "district": "WILLIAMSON", "region": "TN", "postcode": "37027", "id": ""}, "geometry": {"type": "Point", "coordinates": [-86.8225588, 35.9649551]}}
{"type": "Feature", "properties": {"hash": "739fe132744b1c6a", "number": "819", "street": "BRENTWOOD PT", "unit": "", "city": "BRENTWOOD", "district": "WILLIAMSON", "region": "TN", "postcode": "37027", "id": ""}, "geometry": {"type": "Point", "coordinates": [-86.8230261, 35.9647237]}}
{"type": "Feature", "properties": {"hash": "fee69ce52c5b2385", "number": "924", "street": "BRENTWOOD PT", "unit": "", "city": "BRENTWOOD", "district": "WILLIAMSON", "region": "TN", "postcode": "37027", "id": ""}, "geometry": {"type": "Point", "coordinates": [-86.8236785, 35.965359]}}
{"type": "Feature", "properties": {"hash": "779375df7692d60b", "number": "1125", "street": "BRENTWOOD PT", "unit": "", "city": "BRENTWOOD", "district": "WILLIAMSON", "region": "TN", "postcode": "37027", "id": ""}, "geometry": {"type": "Point", "coordinates": [-86.8231618, 35.9677585]}}
{"type": "Feature", "properties": {"hash": "68d80cc8c737d6bc", "number": "908", "street": "BRENTWOOD PT", "unit": "", "city": "BRENTWOOD", "district": "WILLIAMSON", "region": "TN", "postcode": "37027", "id": ""}, "geometry": {"type": "Point", "coordinates": [-86.8245349, 35.9651516]}}
{"type": "Feature", "properties": {"hash": "e9b0a86f5fc544dd", "number": "1115", "street": "BRENTWOOD PT", "unit": "", "city": "BRENTWOOD", "district": "WILLIAMSON", "region": "TN", "postcode": "37027", "id": ""}, "geometry": {"type": "Point", "coordinates": [-86.8236731, 35.9682612]}}
{"type": "Feature", "properties": {"hash": "09cfb7c0a7c55959", "number": "104", "street": "HIDDEN OAKS DR", "unit": "", "city": "Carter County", "district": "", "region": "TN", "postcode": "37601", "id": ""}, "geometry": {"type": "Point", "coordinates": [-82.3116487, 36.2907452]}}
{"type": "Feature", "properties": {"hash": "83407b978b187d33", "number": "102", "street": "HIDDEN OAKS DR", "unit": "", "city": "Carter County", "district": "", "region": "TN", "postcode": "37601", "id": ""}, "geometry": {"type": "Point", "coordinates": [-82.3117857, 36.2903926]}}
{"type": "Feature", "properties": {"hash": "c65f7c3e924ecc0d", "number": "505", "street": "SOUTH HILLS CIR", "unit": "", "city": "Johnson City", "district": "", "region": "TN", "postcode": "37601", "id": ""}, "geometry": {"type": "Point", "coordinates": [-82.3157771, 36.2877646]}}
{"type": "Feature", "properties": {"hash": "971750dee51fc3b6", "number": "233", "street": "BISHOP RD", "unit": "", "city": "Carter County", "district": "", "region": "TN", "postcode": "37601", "id": ""}, "geometry": {"type": "Point", "coordinates": [-82.3105033, 36.2868711]}}
{"type": "Feature", "properties": {"hash": "befd095b3494e722", "number": "176", "street": "RIDGELAND DR", "unit": "", "city": "Carter County", "district": "", "region": "TN", "postcode": "37601", "id": ""}, "geometry": {"type": "Point", "coordinates": [-82.3174668, 36.285291]}}
{"type": "Feature", "properties": {"hash": "bd68dcfe63c1f633", "number": "172", "street": "RIDGELAND DR", "unit": "", "city": "Carter County", "district": "", "region": "TN", "postcode": "37601", "id": ""}, "geometry": {"type": "Point", "coordinates": [-82.3171092, 36.285278]}}
{"type": "Feature", "properties": {"hash": "5a5a7c9975b17802", "number": "179", "street": "RIDGELAND DR", "unit": "", "city": "Carter County", "district": "", "region": "TN", "postcode": "37601", "id": ""}, "geometry": {"type": "Point", "coordinates": [-82.3178516, 36.2849373]}}
{"type": "Feature", "properties": {"hash": "e90f75958bd2234d", "number": "101", "street": "KIMBERLY LN", "unit": "", "city": "Carter County", "district": "", "region": "TN", "postcode": "37604", "id": ""}, "geometry": {"type": "Point", "coordinates": [-82.3287256, 36.2836392]}}
{"type": "Feature", "properties": {"hash": "d7f22c5dd0e19afb", "number": "137", "street": "WOODCREST LN", "unit": "", "city": "Carter County", "district": "", "region": "TN", "postcode": "37601", "id": ""}, "geometry": {"type": "Point", "coordinates": [-82.3154716, 36.2829479]}}
{"type": "Feature", "properties": {"hash": "d2aee0207645aa7c", "number": "112", "street": "KIMBERLY LN", "unit": "", "city": "Carter County", "district": "", "region": "TN", "postcode": "37604", "id": ""}, "geometry": {"type": "Point", "coordinates": [-82.32769, 36.2832019]}}
{"type": "Feature", "properties": {"id": "", "unit": "APT 1036", "number": "210", "street": "HILLWOOD BLVD", "city": "MURFREESBORO", "district": "RUTHERFORD", "region": "TN", "postcode": "37129", "hash": "481235ae22488dc3"}, "geometry": {"type": "Point", "coordinates": [-86.455082, 35.8485614]}}
{"type": "Feature", "properties": {"id": "", "unit": "APT 911", "number": "210", "street": "HILLWOOD BLVD", "city": "MURFREESBORO", "district": "RUTHERFORD", "region": "TN", "postcode": "37129", "hash": "9c7b694a58d30767"}, "geometry": {"type": "Point", "coordinates": [-86.4540169, 35.8486084]}}
{"type": "Feature", "properties": {"id": "", "unit": "APT 1302", "number": "210", "street": "HILLWOOD BLVD", "city": "MURFREESBORO", "district": "RUTHERFORD", "region": "TN", "postcode": "37129", "hash": "714263c5beaae4b7"}, "geometry": {"type": "Point", "coordinates": [-86.4553851, 35.8472235]}}
{"type": "Feature", "properties": {"id": "", "unit": "UNIT 395", "number": "120", "street": "WEAKLEY LN", "city": "SMYRNA", "district": "RUTHERFORD", "region": "TN", "postcode": "37167", "hash": "ccd111152566ac93"}, "geometry": {"type": "Point", "coordinates": [-86.4954535, 35.9980698]}}
{"type": "Feature", "properties": {"id": "", "unit": "", "number": "505", "street": "E GRESHAM DR", "city": "SMYRNA", "district": "RUTHERFORD", "region": "TN", "postcode": "37167", "hash": "c34abdbb9fda6983"}, "geometry": {"type": "Point", "coordinates": [-86.5188965, 35.9911726]}}
{"type": "Feature", "properties": {"id": "", "unit": "", "number": "6131", "street": "STEVE SCARLETT PL", "city": "LAVERGNE", "district": "RUTHERFORD", "region": "TN", "postcode": "37086", "hash": "2b049bae39a12025"}, "geometry": {"type": "Point", "coordinates": [-86.6021602, 35.9860996]}}
{"type": "Feature", "properties": {"id": "", "unit": "", "number": "217", "street": "W HUTCHINSON DR", "city": "SMYRNA", "district": "RUTHERFORD", "region": "TN", "postcode": "37167", "hash": "4b59df99a1d10847"}, "geometry": {"type": "Point", "coordinates": [-86.5226085, 35.9655106]}}
{"type": "Feature", "properties": {"id": "", "unit": "", "number": "800", "street": "POWDER HORN DR", "city": "SMYRNA", "district": "RUTHERFORD", "region": "TN", "postcode": "37167", "hash": "bc95e268ff712282"}, "geometry": {"type": "Point", "coordinates": [-86.5009812, 35.9526746]}}
{"type": "Feature", "properties": {"id": "", "unit": "", "number": "108", "street": "NOEL LN", "city": "SMYRNA", "district": "RUTHERFORD", "region": "TN", "postcode": "37167", "hash": "9bf6b10fc81ded49"}, "geometry": {"type": "Point", "coordinates": [-86.5288499, 35.9808368]}}
{"type": "Feature", "properties": {"id": "", "unit": "APT 624", "number": "210", "street": "HILLWOOD BLVD", "city": "MURFREESBORO", "district": "RUTHERFORD", "region": "TN", "postcode": "37129", "hash": "c6feeb8b840d8d68"}, "geometry": {"type": "Point", "coordinates": [-86.4542453, 35.8472231]}}
{"type": "Feature", "properties": {"hash": "6b7a481ca839b4c1", "number": "2779", "street": "IROQUOIS DR", "unit": "", "city": "THOMPSONS STATION", "district": "", "region": "TN", "postcode": "37179", "id": ""}, "geometry": {"type": "Point", "coordinates": [-86.8794003, 35.7915705]}}
{"type": "Feature", "properties": {"hash": "10d95d48b02b3e91", "number": "3312", "street": "MILTON CT", "unit": "", "city": "THOMPSONS STATION", "district": "", "region": "TN", "postcode": "37179", "id": ""}, "geometry": {"type": "Point", "coordinates": [-86.8811221, 35.7915853]}}
{"type": "Feature", "properties": {"hash": "25e9cabaec4fef37", "number": "3314", "street": "MILTON CT", "unit": "", "city": "THOMPSONS STATION", "district": "", "region": "TN", "postcode": "37179", "id": ""}, "geometry": {"type": "Point", "coordinates": [-86.8807624, 35.7915235]}}
{"type": "Feature", "properties": {"hash": "986290cd3455c29e", "number": "2780", "street": "IROQUOIS DR", "unit": "", "city": "THOMPSONS STATION", "district": "", "region": "TN", "postcode": "37179", "id": ""}, "geometry": {"type": "Point", "coordinates": [-86.8789603, 35.7913982]}}
{"type": "Feature", "properties": {"hash": "f74cbc4d814dbad5", "number": "3310", "street": "MILTON CT", "unit": "", "city": "THOMPSONS STATION", "district": "", "region": "TN", "postcode": "37179", "id": ""}, "geometry": {"type": "Point", "coordinates": [-86.8814192, 35.7913969]}}
{"type": "Feature", "properties": {"hash": "945fd5435117fb22", "number": "2777", "street": "IROQUOIS DR", "unit": "", "city": "THOMPSONS STATION", "district": "", "region": "TN", "postcode": "37179", "id": ""}, "geometry": {"type": "Point", "coordinates": [-86.8797361, 35.7912766]}}
{"type": "Feature", "properties": {"hash": "a6b7ec2141d6983e", "number": "3308", "street": "MILTON CT", "unit": "", "city": "THOMPSONS STATION", "district": "", "region": "TN", "postcode": "37179", "id": ""}, "geometry": {"type": "Point", "coordinates": [-86.8816864, 35.7912855]}}
{"type": "Feature", "properties": {"hash": "90e098b36234a7b6", "number": "3309", "street": "MILTON CT", "unit": "", "city": "THOMPSONS STATION", "district": "", "region": "TN", "postcode": "37179", "id": ""}, "geometry": {"type": "Point", "coordinates": [-86.8804918, 35.7912234]}}
{"type": "Feature", "properties": {"hash": "85b370ff141e0df5", "number": "3306", "street": "MILTON CT", "unit": "", "city": "THOMPSONS STATION", "district": "", "region": "TN", "postcode": "37179", "id": ""}, "geometry": {"type": "Point", "coordinates": [-86.8819581, 35.7911606]}}
{"type": "Feature", "properties": {"hash": "1cf859e229851888", "number": "2782", "street": "IROQUOIS DR", "unit": "", "city": "THOMPSONS STATION", "district": "", "region": "TN", "postcode": "37179", "id": ""}, "geometry": {"type": "Point", "coordinates": [-86.8788283, 35.7910984]}}
{"type": "Feature", "properties": {"id": "", "unit": "", "number": "1633", "street": "LEWISBURG PIKE", "city": "FRANKLIN", "district": "WILLIAMSON", "region": "TN", "postcode": "37064", "hash": "a21ef179a205b5a5"}, "geometry": {"type": "Point", "coordinates": [-86.8474211, 35.8295478]}}
{"type": "Feature", "properties": {"id": "", "unit": "", "number": "1623", "street": "LEWISBURG PIKE", "city": "FRANKLIN", "district": "WILLIAMSON", "region": "TN", "postcode": "37064", "hash": "e94e161e0936cb98"}, "geometry": {"type": "Point", "coordinates": [-86.8479379, 35.8302327]}}
{"type": "Feature", "properties": {"id": "", "unit": "", "number": "4392", "street": "COLUMBIA PIKE", "city": "FRANKLIN", "district": "WILLIAMSON", "region": "TN", "postcode": "37064", "hash": "ac3830dbff7823d0"}, "geometry": {"type": "Point", "coordinates": [-86.8804929, 35.8304095]}}
{"type": "Feature", "properties": {"id": "", "unit": "", "number": "1619", "street": "LEWISBURG PIKE", "city": "FRANKLIN", "district": "WILLIAMSON", "region": "TN", "postcode": "37064", "hash": "74a1f938e6fbf785"}, "geometry": {"type": "Point", "coordinates": [-86.8493884, 35.8308358]}}
{"type": "Feature", "properties": {"id": "", "unit": "", "number": "1620", "street": "LEWISBURG PIKE", "city": "FRANKLIN", "district": "WILLIAMSON", "region": "TN", "postcode": "37064", "hash": "bfe1b0d9a9ca94bd"}, "geometry": {"type": "Point", "coordinates": [-86.8512165, 35.8310357]}}
{"type": "Feature", "properties": {"id": "", "unit": "", "number": "1615", "street": "LEWISBURG PIKE", "city": "FRANKLIN", "district": "WILLIAMSON", "region": "TN", "postcode": "37064", "hash": "9671e64afe1134c6"}, "geometry": {"type": "Point", "coordinates": [-86.8497315, 35.8314213]}}
{"type": "Feature", "properties": {"id": "", "unit": "", "number": "1611", "street": "LEWISBURG PIKE", "city": "FRANKLIN", "district": "WILLIAMSON", "region": "TN", "postcode": "37064", "hash": "c9e779f592b6d1ba"}, "geometry": {"type": "Point", "coordinates": [-86.8495354, 35.8317756]}}
{"type": "Feature", "properties": {"id": "", "unit": "", "number": "2763", "street": "MCLEMORE RD", "city": "FRANKLIN", "district": "WILLIAMSON", "region": "TN", "postcode": "37064", "hash": "42785bf9926ca1a0"}, "geometry": {"type": "Point", "coordinates": [-86.8510289, 35.8317699]}}
{"type": "Feature", "properties": {"id": "", "unit": "", "number": "1605", "street": "LEWISBURG PIKE", "city": "FRANKLIN", "district": "WILLIAMSON", "region": "TN", "postcode": "37064", "hash": "8785ffac00e426d5"}, "geometry": {"type": "Point", "coordinates": [-86.8495028, 35.8324703]}}
{"type": "Feature", "properties": {"id": "", "unit": "", "number": "2760", "street": "MCLEMORE RD", "city": "FRANKLIN", "district": "WILLIAMSON", "region": "TN", "postcode": "37064", "hash": "1cd4561154bb7937"}, "geometry": {"type": "Point", "coordinates": [-86.8513612, 35.8325248]}}
{"type": "Feature", "properties": {"hash": "1d5fa8983c8d1f21", "number": "759", "street": "McGUIRE RD", "unit": "", "city": "NEW MARKET", "district": "JEFFERSON", "region": "TN", "postcode": "37820", "id": ""}, "geometry": {"type": "Point", "coordinates": [-83.4992924, 36.0518984]}}
{"type": "Feature", "properties": {"hash": "da50ce316858bb11", "number": "1502", "street": "HOLLOW SPRINGS WAY", "unit": "", "city": "WHITE PINE", "district": "JEFFERSON", "region": "TN", "postcode": "37890", "id": ""}, "geometry": {"type": "Point", "coordinates": [-83.2764526, 36.0586573]}}
{"type": "Feature", "properties": {"hash": "99cd40f6027f05df", "number": "1509", "street": "HOLLOW SPRINGS WAY", "unit": "", "city": "WHITE PINE", "district": "JEFFERSON", "region": "TN", "postcode": "37890", "id": ""}, "geometry": {"type": "Point", "coordinates": [-83.2765367, 36.0592535]}}
{"type": "Feature", "properties": {"hash": "26152e5cabf3b791", "number": "1517", "street": "HOLLOW SPRINGS WAY", "unit": "", "city": "WHITE PINE", "district": "JEFFERSON", "region": "TN", "postcode": "37890", "id": ""}, "geometry": {"type": "Point", "coordinates": [-83.2766139, 36.0601891]}}
{"type": "Feature", "properties": {"hash": "57c2a9c6784dcbcb", "number": "1513", "street": "HOLLOW SPRINGS WAY", "unit": "", "city": "WHITE PINE", "district": "JEFFERSON", "region": "TN", "postcode": "37890", "id": ""}, "geometry": {"type": "Point", "coordinates": [-83.2765303, 36.0595775]}}
{"type": "Feature", "properties": {"hash": "5aa4f80630a0ac66", "number": "1544", "street": "HOLLOW SPRINGS WAY", "unit": "", "city": "WHITE PINE", "district": "JEFFERSON", "region": "TN", "postcode": "37890", "id": ""}, "geometry": {"type": "Point", "coordinates": [-83.2790742, 36.0620392]}}
{"type": "Feature", "properties": {"hash": "7dcb4d4f607b117d", "number": "1564", "street": "HOLLOW SPRINGS WAY", "unit": "", "city": "WHITE PINE", "district": "JEFFERSON", "region": "TN", "postcode": "37890", "id": ""}, "geometry": {"type": "Point", "coordinates": [-83.2810619, 36.063261]}}
{"type": "Feature", "properties": {"hash": "5041e5e7240e13c4", "number": "108", "street": "BEDFORD WAY", "unit": "", "city": "WHITE PINE", "district": "JEFFERSON", "region": "TN", "postcode": "37890", "id": ""}, "geometry": {"type": "Point", "coordinates": [-83.2779359, 36.0569957]}}
{"type": "Feature", "properties": {"hash": "67da59db3f887dd3", "number": "2019", "street": "LANDOVER WAY", "unit": "", "city": "WHITE PINE", "district": "JEFFERSON", "region": "TN", "postcode": "37890", "id": ""}, "geometry": {"type": "Point", "coordinates": [-83.2746454, 36.0592756]}}
{"type": "Feature", "properties": {"hash": "3ef10197aa6683df", "number": "112", "street": "BEDFORD WAY", "unit": "", "city": "WHITE PINE", "district": "JEFFERSON", "region": "TN", "postcode": "37890", "id": ""}, "geometry": {"type": "Point", "coordinates": [-83.2782024, 36.057172]}}
{"type": "Feature", "properties": {"hash": "49cdfd9b2f01fe42", "number": "2905", "street": "EDGE PARK CT", "unit": "", "city": "COLUMBIA", "district": "MAURY", "region": "TN", "postcode": "38401", "id": ""}, "geometry": {"type": "Point", "coordinates": [-87.0519402, 35.5850054]}}
{"type": "Feature", "properties": {"hash": "b61abf9304935d4d", "number": "2421", "street": "HIDDEN LAKE CIR", "unit": "", "city": "COLUMBIA", "district": "MAURY", "region": "TN", "postcode": "38401", "id": ""}, "geometry": {"type": "Point", "coordinates": [-87.0712, 35.5865164]}}
{"type": "Feature", "properties": {"hash": "a1c12eb9be35c78b", "number": "102", "street": "EIGER CT", "unit": "", "city": "COLUMBIA", "district": "MAURY", "region": "TN", "postcode": "38401", "id": ""}, "geometry": {"type": "Point", "coordinates": [-87.0623778, 35.5872735]}}
{"type": "Feature", "properties": {"hash": "da5983db54ed13b4", "number": "2404", "street": "HIDDEN LAKE CIR", "unit": "", "city": "COLUMBIA", "district": "MAURY", "region": "TN", "postcode": "38401", "id": ""}, "geometry": {"type": "Point", "coordinates": [-87.0712485, 35.5886266]}}
{"type": "Feature", "properties": {"hash": "5b0b237a64c06aeb", "number": "220", "street": "E   16TH ST", "unit": "", "city": "COLUMBIA", "district": "MAURY", "region": "TN", "postcode": "38401", "id": ""}, "geometry": {"type": "Point", "coordinates": [-87.033334, 35.6013034]}}
{"type": "Feature", "properties": {"hash": "d61324c745914907", "number": "406", "street": "MOORESVILLE PIKE", "unit": "", "city": "COLUMBIA", "district": "MAURY", "region": "TN", "postcode": "38401", "id": ""}, "geometry": {"type": "Point", "coordinates": [-87.0300654, 35.6007805]}}
{"type": "Feature", "properties": {"hash": "e62d91199d708c85", "number": "2321", "street": "CAMPBELL PARK DR", "unit": "", "city": "COLUMBIA", "district": "MAURY", "region": "TN", "postcode": "38401", "id": ""}, "geometry": {"type": "Point", "coordinates": [-87.0325945, 35.5900369]}}
{"type": "Feature", "properties": {"hash": "c6f8d8007d3de231", "number": "110", "street": "GARDENDALE DR", "unit": "", "city": "COLUMBIA", "district": "MAURY", "region": "TN", "postcode": "38401", "id": ""}, "geometry": {"type": "Point", "coordinates": [-87.0491046, 35.5881952]}}
{"type": "Feature", "properties": {"hash": "5535d789d15a28e1", "number": "1221 1/2", "street": "GRAHAM ST", "unit": "", "city": "COLUMBIA", "district": "MAURY", "region": "TN", "postcode": "38401", "id": ""}, "geometry": {"type": "Point", "coordinates": [-87.0276482, 35.6059033]}}
{"type": "Feature", "properties": {"hash": "b3ba5fcd91f1c15d", "number": "1110", "street": "SUNNYSIDE DR", "unit": "", "city": "COLUMBIA", "district": "MAURY", "region": "TN", "postcode": "38401", "id": ""}, "geometry": {"type": "Point", "coordinates": [-87.0825375, 35.5875648]}}
{"type": "Feature", "properties": {"id": "", "unit": "APT 1036", "number": "210", "street": "HILLWOOD BLVD", "city": "MURFREESBORO", "district": "RUTHERFORD", "region": "TN", "postcode": "37129", "hash": "776a40c95c022ac4"}, "geometry": {"type": "Point", "coordinates": [-86.455082, 35.8485614]}}
{"type": "Feature", "properties": {"id": "", "unit": "APT 911", "number": "210", "street": "HILLWOOD BLVD", "city": "MURFREESBORO", "district": "RUTHERFORD", "region": "TN", "postcode": "37129", "hash": "80e33e9b4147320f"}, "geometry": {"type": "Point", "coordinates": [-86.4540169, 35.8486084]}}
{"type": "Feature", "properties": {"id": "", "unit": "APT 1302", "number": "210", "street": "HILLWOOD BLVD", "city": "MURFREESBORO", "district": "RUTHERFORD", "region": "TN", "postcode": "37129", "hash": "7bb8055f7161abae"}, "geometry": {"type": "Point", "coordinates": [-86.4553851, 35.8472235]}}
{"type": "Feature", "properties": {"id": "", "unit": "UNIT 395", "number": "120", "street": "WEAKLEY LN", "city": "SMYRNA", "district": "RUTHERFORD", "region": "TN", "postcode": "37167", "hash": "da79f9320720658b"}, "geometry": {"type": "Point", "coordinates": [-86.4954535, 35.9980698]}}
{"type": "Feature", "properties": {"id": "", "unit": "", "number": "505", "street": "E  GRESHAM DR", "city": "SMYRNA", "district": "RUTHERFORD", "region": "TN", "postcode": "37167", "hash": "c7d3c940a7cd3e42"}, "geometry": {"type": "Point", "coordinates": [-86.5188965, 35.9911726]}}
{"type": "Feature", "properties": {"id": "", "unit": "", "number": "6131", "street": "STEVE SCARLETT PL", "city": "LAVERGNE", "district": "RUTHERFORD", "region": "TN", "postcode": "37086", "hash": "803c9006b0a281f7"}, "geometry": {"type": "Point", "coordinates": [-86.6021602, 35.9860996]}}
{"type": "Feature", "properties": {"id": "", "unit": "", "number": "217", "street": "W  HUTCHINSON DR", "city": "SMYRNA", "district": "RUTHERFORD", "region": "TN", "postcode": "37167", "hash": "d8c79870519bf4e6"}, "geometry": {"type": "Point", "coordinates": [-86.5226085, 35.9655106]}}
{"type": "Feature", "properties": {"id": "", "unit": "", "number": "800", "street": "POWDER HORN DR", "city": "SMYRNA", "district": "RUTHERFORD", "region": "TN", "postcode": "37167", "hash": "725ac7143ba64d4d"}, "geometry": {"type": "Point", "coordinates": [-86.5009812, 35.9526746]}}
{"type": "Feature", "properties": {"id": "", "unit": "", "number": "108", "street": "NOEL LN", "city": "SMYRNA", "district": "RUTHERFORD", "region": "TN", "postcode": "37167", "hash": "0729a93541669b67"}, "geometry": {"type": "Point", "coordinates": [-86.5288499, 35.9808368]}}
{"type": "Feature", "properties": {"id": "", "unit": "APT 624", "number": "210", "street": "HILLWOOD BLVD", "city": "MURFREESBORO", "district": "RUTHERFORD", "region": "TN", "postcode": "37129", "hash": "3ac4dc7287a325b2"}, "geometry": {"type": "Point", "coordinates": [-86.4542453, 35.8472231]}}
{"type": "Feature", "properties": {"hash": "9cd17dd8bd16967d", "number": "850", "street": "WINGO RD", "unit": "", "city": "OLIVE BRANCH", "district": "MARSHALL", "region": "TN", "postcode": "38116", "id": ""}, "geometry": {"type": "Point", "coordinates": [-89.6470159, 34.9950081]}}
{"type": "Feature", "properties": {"hash": "e2b82031b20946ba", "number": "11887", "street": "E  HOLMES RD", "unit": "", "city": "COLLIERVILLE", "district": "SHELBY", "region": "TN", "postcode": "38017", "id": ""}, "geometry": {"type": "Point", "coordinates": [-89.6676399, 34.9950873]}}
{"type": "Feature", "properties": {"hash": "5d198aed9683ddb0", "number": "11883", "street": "E  HOLMES RD", "unit": "", "city": "COLLIERVILLE", "district": "SHELBY", "region": "TN", "postcode": "38017", "id": ""}, "geometry": {"type": "Point", "coordinates": [-89.6683878, 34.9952594]}}
{"type": "Feature", "properties": {"hash": "2bc0f82873d21c4d", "number": "1810", "street": "QUINN RD", "unit": "", "city": "COLLIERVILLE", "district": "SHELBY", "region": "TN", "postcode": "38017", "id": ""}, "geometry": {"type": "Point", "coordinates": [-89.6605049, 34.9956227]}}
{"type": "Feature", "properties": {"hash": "d641f84f44ffd4ff", "number": "11451", "street": "COUNTRY FOREST CV", "unit": "", "city": "COLLIERVILLE", "district": "SHELBY", "region": "TN", "postcode": "38017", "id": ""}, "geometry": {"type": "Point", "coordinates": [-89.6807611, 34.9950487]}}
{"type": "Feature", "properties": {"hash": "59497c52b13c24bd", "number": "11885", "street": "E  HOLMES RD", "unit": "", "city": "COLLIERVILLE", "district": "SHELBY", "region": "TN", "postcode": "38017", "id": ""}, "geometry": {"type": "Point", "coordinates": [-89.6656374, 34.9955339]}}
{"type": "Feature", "properties": {"hash": "3b5ece74a4b8738e", "number": "11489", "street": "COUNTRY FOREST DR", "unit": "", "city": "COLLIERVILLE", "district": "SHELBY", "region": "TN", "postcode": "38017", "id": ""}, "geometry": {"type": "Point", "coordinates": [-89.6796027, 34.9951238]}}
{"type": "Feature", "properties": {"hash": "a97a7c4298e2a129", "number": "11523", "street": "COUNTRY FOREST DR", "unit": "", "city": "COLLIERVILLE", "district": "SHELBY", "region": "TN", "postcode": "38017", "id": ""}, "geometry": {"type": "Point", "coordinates": [-89.6782084, 34.9952082]}}
{"type": "Feature", "properties": {"hash": "22cfb9f06a7d6f5c", "number": "11317", "street": "COUNTRY FOREST CV", "unit": "", "city": "COLLIERVILLE", "district": "SHELBY", "region": "TN", "postcode": "38017", "id": ""}, "geometry": {"type": "Point", "coordinates": [-89.6850435, 34.9951827]}}
{"type": "Feature", "properties": {"hash": "b19a0b07a8e44744", "number": "11357", "street": "COUNTRY FOREST CV", "unit": "", "city": "COLLIERVILLE", "district": "SHELBY", "region": "TN", "postcode": "38017", "id": ""}, "geometry": {"type": "Point", "coordinates": [-89.6842893, 34.9952192]}}
