{"type": "Feature", "properties": {"hash": "28ec52f8a7abc6c7", "number": "61", "street": "E 1500  S", "unit": "", "city": "PERRY", "district": "", "region": "UT", "postcode": "84302", "id": ""}, "geometry": {"type": "Point", "coordinates": [-112.0138254, 41.4826928]}}
{"type": "Feature", "properties": {"hash": "374bab116ef9ec37", "number": "11459", "street": "N HIGHWAY 38", "unit": "", "city": "DEWEYVILLE", "district": "", "region": "UT", "postcode": "84309", "id": ""}, "geometry": {"type": "Point", "coordinates": [-112.0936748, 41.718238]}}
{"type": "Feature", "properties": {"hash": "ddc13fa20b7fc588", "number": "5760", "street": "N 4700   W", "unit": "", "city": "BEAR RIVER CITY", "district": "", "region": "UT", "postcode": "84301", "id": ""}, "geometry": {"type": "Point", "coordinates": [-112.1265369, 41.6137087]}}
{"type": "Feature", "properties": {"hash": "24bc61d0abd05b2e", "number": "5870", "street": "N 4700   W", "unit": "", "city": "BEAR RIVER CITY", "district": "", "region": "UT", "postcode": "84301", "id": ""}, "geometry": {"type": "Point", "coordinates": [-112.126426, 41.6159154]}}
{"type": "Feature", "properties": {"hash": "735d911b8bf35e94", "number": "5871", "street": "N 4700   W", "unit": "", "city": "BEAR RIVER CITY", "district": "", "region": "UT", "postcode": "84301", "id": ""}, "geometry": {"type": "Point", "coordinates": [-112.127431, 41.6159421]}}
{"type": "Feature", "properties": {"hash": "7ed35b23710014ca", "number": "6410", "street": "N 4600   W", "unit": "", "city": "BEAR RIVER CITY", "district": "", "region": "UT", "postcode": "84314", "id": ""}, "geometry": {"type": "Point", "coordinates": [-112.1235198, 41.6255027]}}
{"type": "Feature", "properties": {"hash": "1b372c55ba1d1946", "number": "13209", "street": "N 5400   W", "unit": "", "city": "GARLAND", "district": "", "region": "UT", "postcode": "84312", "id": ""}, "geometry": {"type": "Point", "coordinates": [-112.1487365, 41.7488769]}}
{"type": "Feature", "properties": {"hash": "5150fae5f761968e", "number": "13275", "street": "N EAST GARLAND RD", "unit": "", "city": "GARLAND", "district": "", "region": "UT", "postcode": "84312", "id": ""}, "geometry": {"type": "Point", "coordinates": [-112.131501, 41.7507777]}}
{"type": "Feature", "properties": {"hash": "1bf1f11b5ca38bb6", "number": "13125", "street": "N EAST GARLAND RD", "unit": "", "city": "GARLAND", "district": "", "region": "UT", "postcode": "84312", "id": ""}, "geometry": {"type": "Point", "coordinates": [-112.1328943, 41.7479171]}}
{"type": "Feature", "properties": {"hash": "ca1895e94e2fe0b3", "number": "3745", "street": "W 2425   N", "unit": "", "city": "CORINNE", "district": "", "region": "UT", "postcode": "84307", "id": ""}, "geometry": {"type": "Point", "coordinates": [-112.1051088, 41.5486281]}}
{"type": "Feature", "properties": {"hash": "07fa2fec0deb1660", "number": "3860", "street": "W ARIZONA ST", "unit": "", "city": "CORINNE", "district": "", "region": "UT", "postcode": "84307", "id": ""}, "geometry": {"type": "Point", "coordinates": [-112.1091626, 41.546287]}}
{"type": "Feature", "properties": {"hash": "89e72ac5aeaee1f7", "number": "3860", "street": "W NORTH FRONT ST", "unit": "", "city": "CORINNE", "district": "", "region": "UT", "postcode": "84307", "id": ""}, "geometry": {"type": "Point", "coordinates": [-112.1067771, 41.5511042]}}
{"type": "Feature", "properties": {"hash": "0e4d2b20116be0f3", "number": "3820", "street": "W NORTH FRONT ST", "unit": "", "city": "CORINNE", "district": "", "region": "UT", "postcode": "84307", "id": ""}, "geometry": {"type": "Point", "coordinates": [-112.1056778, 41.5508328]}}
{"type": "Feature", "properties": {"hash": "d6601102c1757318", "number": "3840", "street": "W NORTH FRONT ST", "unit": "", "city": "CORINNE", "district": "", "region": "UT", "postcode": "84307", "id": ""}, "geometry": {"type": "Point", "coordinates": [-112.1062303, 41.5509392]}}
{"type": "Feature", "properties": {"hash": "06d283a9ffa0b718", "number": "3870", "street": "W NORTH FRONT ST", "unit": "", "city": "CORINNE", "district": "", "region": "UT", "postcode": "84307", "id": ""}, "geometry": {"type": "Point", "coordinates": [-112.1071971, 41.5511608]}}
{"type": "Feature", "properties": {"hash": "505cd370b4d64848", "number": "3835", "street": "W COLORADO ST", "unit": "", "city": "CORINNE", "district": "", "region": "UT", "postcode": "84307", "id": ""}, "geometry": {"type": "Point", "coordinates": [-112.1083522, 41.546515]}}
{"type": "Feature", "properties": {"hash": "517e703a22637455", "number": "4135", "street": "W COLORADO ST", "unit": "", "city": "CORINNE", "district": "", "region": "UT", "postcode": "84307", "id": ""}, "geometry": {"type": "Point", "coordinates": [-112.1153944, 41.5484293]}}
{"type": "Feature", "properties": {"hash": "6541e4db7c7a525a", "number": "3865", "street": "W COLORADO ST", "unit": "", "city": "CORINNE", "district": "", "region": "UT", "postcode": "84307", "id": ""}, "geometry": {"type": "Point", "coordinates": [-112.1090159, 41.5467686]}}
{"type": "Feature", "properties": {"hash": "df23bab4862408c4", "number": "3875", "street": "W COLORADO ST", "unit": "", "city": "CORINNE", "district": "", "region": "UT", "postcode": "84307", "id": ""}, "geometry": {"type": "Point", "coordinates": [-112.1093669, 41.546864]}}
{"type": "Feature", "properties": {"hash": "61f324a37dbbcc9c", "number": "3870", "street": "W COLORADO ST", "unit": "", "city": "CORINNE", "district": "", "region": "UT", "postcode": "84307", "id": ""}, "geometry": {"type": "Point", "coordinates": [-112.1088546, 41.547224]}}
{"type": "Feature", "properties": {"hash": "531f72d8640e1fca", "number": "3795", "street": "W MONTANA ST", "unit": "", "city": "CORINNE", "district": "", "region": "UT", "postcode": "84307", "id": ""}, "geometry": {"type": "Point", "coordinates": [-112.106864, 41.5472373]}}
{"type": "Feature", "properties": {"hash": "f8a9f78a1d41dbf9", "number": "3785", "street": "W MONTANA ST", "unit": "", "city": "CORINNE", "district": "", "region": "UT", "postcode": "84307", "id": ""}, "geometry": {"type": "Point", "coordinates": [-112.1064752, 41.5469793]}}
{"type": "Feature", "properties": {"hash": "82e80cdd0b31c43e", "number": "3780", "street": "W MONTANA ST", "unit": "", "city": "CORINNE", "district": "", "region": "UT", "postcode": "84307", "id": ""}, "geometry": {"type": "Point", "coordinates": [-112.1062715, 41.5475591]}}
{"type": "Feature", "properties": {"hash": "16ee9e7f8191156a", "number": "3802", "street": "W MONTANA ST", "unit": "", "city": "CORINNE", "district": "", "region": "UT", "postcode": "84307", "id": ""}, "geometry": {"type": "Point", "coordinates": [-112.1071413, 41.5478133]}}
{"type": "Feature", "properties": {"hash": "ef417b736762e663", "number": "3890", "street": "W MONTANA ST", "unit": "", "city": "CORINNE", "district": "", "region": "UT", "postcode": "84307", "id": ""}, "geometry": {"type": "Point", "coordinates": [-112.108915, 41.5482542]}}
{"type": "Feature", "properties": {"hash": "7513205e53c8a028", "number": "3885", "street": "W MONTANA ST", "unit": "", "city": "CORINNE", "district": "", "region": "UT", "postcode": "84307", "id": ""}, "geometry": {"type": "Point", "coordinates": [-112.1090779, 41.547774]}}
{"type": "Feature", "properties": {"hash": "f3c94ec66af102f0", "number": "3865", "street": "W MONTANA ST", "unit": "", "city": "CORINNE", "district": "", "region": "UT", "postcode": "84307", "id": ""}, "geometry": {"type": "Point", "coordinates": [-112.1085917, 41.5476863]}}
{"type": "Feature", "properties": {"hash": "a7a6dee657fbae68", "number": "3845", "street": "W MONTANA ST", "unit": "", "city": "CORINNE", "district": "", "region": "UT", "postcode": "84307", "id": ""}, "geometry": {"type": "Point", "coordinates": [-112.1080202, 41.5475382]}}
{"type": "Feature", "properties": {"hash": "cea4b787bfca875f", "number": "3839", "street": "W MONTANA ST", "unit": "", "city": "CORINNE", "district": "", "region": "UT", "postcode": "84307", "id": ""}, "geometry": {"type": "Point", "coordinates": [-112.1077852, 41.5474189]}}
{"type": "Feature", "properties": {"hash": "a80f97b06020448c", "number": "3815", "street": "W MONTANA ST", "unit": "", "city": "CORINNE", "district": "", "region": "UT", "postcode": "84307", "id": ""}, "geometry": {"type": "Point", "coordinates": [-112.1074261, 41.547335]}}
{"type": "Feature", "properties": {"hash": "7c51d75c5da586d9", "number": "3925", "street": "W MONTANA ST", "unit": "", "city": "CORINNE", "district": "", "region": "UT", "postcode": "84307", "id": ""}, "geometry": {"type": "Point", "coordinates": [-112.1098577, 41.5479842]}}
{"type": "Feature", "properties": {"hash": "90c11aea6f4e5d21", "number": "3935", "street": "W MONTANA ST", "unit": "", "city": "CORINNE", "district": "", "region": "UT", "postcode": "84307", "id": ""}, "geometry": {"type": "Point", "coordinates": [-112.1101544, 41.5480872]}}
{"type": "Feature", "properties": {"hash": "a16fa83ec8091157", "number": "3945", "street": "W MONTANA ST", "unit": "", "city": "CORINNE", "district": "", "region": "UT", "postcode": "84307", "id": ""}, "geometry": {"type": "Point", "coordinates": [-112.1103938, 41.5482082]}}
{"type": "Feature", "properties": {"hash": "84a1cac268bc0db5", "number": "3955", "street": "W MONTANA ST", "unit": "", "city": "CORINNE", "district": "", "region": "UT", "postcode": "84307", "id": ""}, "geometry": {"type": "Point", "coordinates": [-112.1108175, 41.5483172]}}
{"type": "Feature", "properties": {"hash": "6b7f1de98288490f", "number": "3975", "street": "W MONTANA ST", "unit": "", "city": "CORINNE", "district": "", "region": "UT", "postcode": "84307", "id": ""}, "geometry": {"type": "Point", "coordinates": [-112.1111994, 41.5483294]}}
{"type": "Feature", "properties": {"hash": "0ccd136f78a9495e", "number": "3995", "street": "W MONTANA ST", "unit": "", "city": "CORINNE", "district": "", "region": "UT", "postcode": "84307", "id": ""}, "geometry": {"type": "Point", "coordinates": [-112.1115308, 41.5484907]}}
{"type": "Feature", "properties": {"hash": "1bd5807e14d21b85", "number": "3960", "street": "W COLORADO ST", "unit": "", "city": "CORINNE", "district": "", "region": "UT", "postcode": "84307", "id": ""}, "geometry": {"type": "Point", "coordinates": [-112.1110446, 41.5477852]}}
{"type": "Feature", "properties": {"hash": "725b6219ad9725d6", "number": "3970", "street": "W COLORADO ST", "unit": "", "city": "CORINNE", "district": "", "region": "UT", "postcode": "84307", "id": ""}, "geometry": {"type": "Point", "coordinates": [-112.1113584, 41.5478359]}}
{"type": "Feature", "properties": {"hash": "3d0c635b2e0a06bf", "number": "3990", "street": "W COLORADO ST", "unit": "", "city": "CORINNE", "district": "", "region": "UT", "postcode": "84307", "id": ""}, "geometry": {"type": "Point", "coordinates": [-112.1117875, 41.5479809]}}
{"type": "Feature", "properties": {"hash": "5fb0160687402187", "number": "3995", "street": "W COLORADO ST", "unit": "", "city": "CORINNE", "district": "", "region": "UT", "postcode": "84307", "id": ""}, "geometry": {"type": "Point", "coordinates": [-112.1120095, 41.5475384]}}
{"type": "Feature", "properties": {"hash": "d505c6f7404f07d9", "number": "3975", "street": "W COLORADO ST", "unit": "", "city": "CORINNE", "district": "", "region": "UT", "postcode": "84307", "id": ""}, "geometry": {"type": "Point", "coordinates": [-112.1117574, 41.5474444]}}
{"type": "Feature", "properties": {"hash": "2f8f8b643a05fb48", "number": "3910", "street": "W MONTANA ST", "unit": "", "city": "CORINNE", "district": "", "region": "UT", "postcode": "84307", "id": ""}, "geometry": {"type": "Point", "coordinates": [-112.1095353, 41.5484488]}}
{"type": "Feature", "properties": {"hash": "b4997eb27ed78e81", "number": "3930", "street": "W MONTANA ST", "unit": "", "city": "CORINNE", "district": "", "region": "UT", "postcode": "84307", "id": ""}, "geometry": {"type": "Point", "coordinates": [-112.1098535, 41.5485053]}}
{"type": "Feature", "properties": {"hash": "e02e0da889b40ba1", "number": "3996", "street": "W MONTANA ST", "unit": "", "city": "CORINNE", "district": "", "region": "UT", "postcode": "84307", "id": ""}, "geometry": {"type": "Point", "coordinates": [-112.111312, 41.5488785]}}
{"type": "Feature", "properties": {"hash": "99cc0feb5bc0ab42", "number": "3976", "street": "W MONTANA ST", "unit": "", "city": "CORINNE", "district": "", "region": "UT", "postcode": "84307", "id": ""}, "geometry": {"type": "Point", "coordinates": [-112.1109734, 41.5488932]}}
{"type": "Feature", "properties": {"hash": "5b76e8a5ca98ef6b", "number": "4048", "street": "W SOUTH FRONT ST", "unit": "", "city": "CORINNE", "district": "", "region": "UT", "postcode": "84307", "id": ""}, "geometry": {"type": "Point", "coordinates": [-112.1120541, 41.5500939]}}
{"type": "Feature", "properties": {"hash": "56fb905acc925011", "number": "4025", "street": "W COLORADO ST", "unit": "", "city": "CORINNE", "district": "", "region": "UT", "postcode": "84307", "id": ""}, "geometry": {"type": "Point", "coordinates": [-112.1127257, 41.5477047]}}
{"type": "Feature", "properties": {"hash": "dcb92673870d9ceb", "number": "2295", "street": "N 4000   W", "unit": "", "city": "CORINNE", "district": "", "region": "UT", "postcode": "84307", "id": ""}, "geometry": {"type": "Point", "coordinates": [-112.1124006, 41.5476957]}}
{"type": "Feature", "properties": {"hash": "1a11e0211477aeae", "number": "4065", "street": "W COLORADO ST", "unit": "", "city": "CORINNE", "district": "", "region": "UT", "postcode": "84307", "id": ""}, "geometry": {"type": "Point", "coordinates": [-112.1139278, 41.5480616]}}
{"type": "Feature", "properties": {"hash": "4f190a75807845d8", "number": "4090", "street": "W COLORADO ST", "unit": "", "city": "CORINNE", "district": "", "region": "UT", "postcode": "84307", "id": ""}, "geometry": {"type": "Point", "coordinates": [-112.1141945, 41.548601]}}
{"type": "Feature", "properties": {"id": "SG74440", "unit": "", "number": "5067", "street": "N LONG SKY DR", "city": "ST GEORGE", "district": "", "region": "UT", "postcode": "84770", "hash": "c6a43817385ba6ee"}, "geometry": {"type": "Point", "coordinates": [-113.6339654, 37.1975581]}}
{"type": "Feature", "properties": {"id": "SG74464", "unit": "", "number": "1098", "street": "W CRESOLE DR", "city": "ST GEORGE", "district": "", "region": "UT", "postcode": "84770", "hash": "1a913716c9834ab5"}, "geometry": {"type": "Point", "coordinates": [-113.6065255, 37.0928001]}}
{"type": "Feature", "properties": {"id": "SG74466", "unit": "", "number": "1064", "street": "W CRESOLE DR", "city": "ST GEORGE", "district": "", "region": "UT", "postcode": "84770", "hash": "fe8625279ef1a7a6"}, "geometry": {"type": "Point", "coordinates": [-113.6059289, 37.0924128]}}
{"type": "Feature", "properties": {"id": "SG74480", "unit": "", "number": "2456", "street": "E PORTOFINO CIR", "city": "ST GEORGE", "district": "", "region": "UT", "postcode": "84790", "hash": "a9040b1ebd79b582"}, "geometry": {"type": "Point", "coordinates": [-113.5328777, 37.051918]}}
{"type": "Feature", "properties": {"id": "SG74277", "unit": "", "number": "2792", "street": "S 2220 E ST", "city": "ST GEORGE", "district": "", "region": "UT", "postcode": "84790", "hash": "9516a63616b0da25"}, "geometry": {"type": "Point", "coordinates": [-113.5386063, 37.0612488]}}
{"type": "Feature", "properties": {"id": "SG53812", "unit": "", "number": "4313", "street": "S WINDSONG WAY", "city": "ST GEORGE", "district": "", "region": "UT", "postcode": "84790", "hash": "01aa89db65c00b18"}, "geometry": {"type": "Point", "coordinates": [-113.6205911, 37.0342796]}}
{"type": "Feature", "properties": {"id": "SG53817", "unit": "", "number": "1934", "street": "W WIDE RIVER DR", "city": "ST GEORGE", "district": "", "region": "UT", "postcode": "84790", "hash": "8be7a64bb3271753"}, "geometry": {"type": "Point", "coordinates": [-113.6245407, 37.031261]}}
{"type": "Feature", "properties": {"id": "SG53928", "unit": "UNIT 8", "number": "350", "street": "W 100 S ST", "city": "ST GEORGE", "district": "", "region": "UT", "postcode": "84770", "hash": "5d7fa53602494c78"}, "geometry": {"type": "Point", "coordinates": [-113.5905638, 37.1073019]}}
{"type": "Feature", "properties": {"id": "SG53930", "unit": "", "number": "1687", "street": "W WIDE RIVER DR", "city": "ST GEORGE", "district": "", "region": "UT", "postcode": "84790", "hash": "bf0a948e921238de"}, "geometry": {"type": "Point", "coordinates": [-113.619019, 37.0339881]}}
{"type": "Feature", "properties": {"id": "SG53933", "unit": "UNIT 205", "number": "1735", "street": "W 540 N ST", "city": "ST GEORGE", "district": "", "region": "UT", "postcode": "84770", "hash": "595fc5717a78dd2a"}, "geometry": {"type": "Point", "coordinates": [-113.6213989, 37.1172577]}}
{"type": "Feature", "properties": {"id": "SG54254", "unit": "", "number": "4297", "street": "S WINDSONG WAY", "city": "ST GEORGE", "district": "", "region": "UT", "postcode": "84790", "hash": "7a9625cf8a46f20b"}, "geometry": {"type": "Point", "coordinates": [-113.6197703, 37.0343179]}}
{"type": "Feature", "properties": {"id": "SG54256", "unit": "UNIT 703", "number": "1735", "street": "W 540 N ST", "city": "ST GEORGE", "district": "", "region": "UT", "postcode": "84770", "hash": "e81ce89b0b35a85e"}, "geometry": {"type": "Point", "coordinates": [-113.622022, 37.1167569]}}
{"type": "Feature", "properties": {"id": "SG55142", "unit": "", "number": "1435", "street": "W 490 N ST", "city": "ST GEORGE", "district": "", "region": "UT", "postcode": "84770", "hash": "2659ace38e0ead6a"}, "geometry": {"type": "Point", "coordinates": [-113.6141628, 37.1166361]}}
{"type": "Feature", "properties": {"id": "SG55273", "unit": "", "number": "2036", "street": "W ECHO SPRINGS CIR", "city": "ST GEORGE", "district": "", "region": "UT", "postcode": "84790", "hash": "00d4ddaa2a12c6fc"}, "geometry": {"type": "Point", "coordinates": [-113.6266344, 37.0301707]}}
{"type": "Feature", "properties": {"id": "SG55186", "unit": "", "number": "2018", "street": "W ECHO SPRINGS CIR", "city": "ST GEORGE", "district": "", "region": "UT", "postcode": "84790", "hash": "07dbfd1a707452f3"}, "geometry": {"type": "Point", "coordinates": [-113.626223, 37.0302021]}}
{"type": "Feature", "properties": {"id": "SG54894", "unit": "", "number": "1877", "street": "W WIDE RIVER DR", "city": "ST GEORGE", "district": "", "region": "UT", "postcode": "84790", "hash": "87c2b6506d4c59b2"}, "geometry": {"type": "Point", "coordinates": [-113.6229812, 37.0318772]}}
{"type": "Feature", "properties": {"id": "SG54895", "unit": "", "number": "1910", "street": "W WIDE RIVER DR", "city": "ST GEORGE", "district": "", "region": "UT", "postcode": "84790", "hash": "41d024db43b95b36"}, "geometry": {"type": "Point", "coordinates": [-113.6239368, 37.0316443]}}
{"type": "Feature", "properties": {"id": "SG54902", "unit": "", "number": "1747", "street": "W WIDE RIVER DR", "city": "ST GEORGE", "district": "", "region": "UT", "postcode": "84790", "hash": "d1517f63e6a5c421"}, "geometry": {"type": "Point", "coordinates": [-113.6203857, 37.0333743]}}
{"type": "Feature", "properties": {"id": "SG56102", "unit": "", "number": "4438", "street": "S IRONWOOD DR", "city": "ST GEORGE", "district": "", "region": "UT", "postcode": "84790", "hash": "cb602e812ec85645"}, "geometry": {"type": "Point", "coordinates": [-113.6186203, 37.0322477]}}
{"type": "Feature", "properties": {"id": "SG57904", "unit": "", "number": "2002", "street": "W ECHO SPRINGS CIR", "city": "ST GEORGE", "district": "", "region": "UT", "postcode": "84790", "hash": "8570b56da81a3d91"}, "geometry": {"type": "Point", "coordinates": [-113.6258369, 37.0304245]}}
{"type": "Feature", "properties": {"id": "SG58096", "unit": "UNIT 55", "number": "280", "street": "W 2025 S CIR", "city": "ST GEORGE", "district": "", "region": "UT", "postcode": "84770", "hash": "eee9be57737a03b3"}, "geometry": {"type": "Point", "coordinates": [-113.5882764, 37.0728658]}}
{"type": "Feature", "properties": {"id": "SG58101", "unit": "", "number": "1853", "street": "W WIDE RIVER DR", "city": "ST GEORGE", "district": "", "region": "UT", "postcode": "84790", "hash": "0e5b87b902a63501"}, "geometry": {"type": "Point", "coordinates": [-113.6226275, 37.0323224]}}
{"type": "Feature", "properties": {"id": "SG59134", "unit": "", "number": "1707", "street": "W WARM RIVER DR", "city": "ST GEORGE", "district": "", "region": "UT", "postcode": "84790", "hash": "14a07554358863c0"}, "geometry": {"type": "Point", "coordinates": [-113.6194956, 37.0331558]}}
{"type": "Feature", "properties": {"id": "SG59248", "unit": "", "number": "517", "street": "S 400 E ST", "city": "ST GEORGE", "district": "", "region": "UT", "postcode": "84770", "hash": "4eeb4a56225b687c"}, "geometry": {"type": "Point", "coordinates": [-113.5744818, 37.0990862]}}
{"type": "Feature", "properties": {"id": "SG60821", "unit": "UNIT 73", "number": "1598", "street": "W 1170 N ST", "city": "ST GEORGE", "district": "", "region": "UT", "postcode": "84770", "hash": "5bc8c70e669c4ee5"}, "geometry": {"type": "Point", "coordinates": [-113.6181867, 37.1283356]}}
{"type": "Feature", "properties": {"id": "SG60823", "unit": "", "number": "611", "street": "S 100 W ST", "city": "ST GEORGE", "district": "", "region": "UT", "postcode": "84770", "hash": "53038be530bc6f2a"}, "geometry": {"type": "Point", "coordinates": [-113.5852462, 37.0977334]}}
{"type": "Feature", "properties": {"id": "SG62254", "unit": "", "number": "4343", "street": "S DIAMOND RIVER DR", "city": "ST GEORGE", "district": "", "region": "UT", "postcode": "84790", "hash": "260699cc223b439a"}, "geometry": {"type": "Point", "coordinates": [-113.6206449, 37.0338802]}}
{"type": "Feature", "properties": {"id": "SG61757", "unit": "", "number": "1419", "street": "W 490 N ST", "city": "ST GEORGE", "district": "", "region": "UT", "postcode": "84770", "hash": "f99e9946e5e2de79"}, "geometry": {"type": "Point", "coordinates": [-113.6138336, 37.1166391]}}
{"type": "Feature", "properties": {"id": "SG62653", "unit": "", "number": "4407", "street": "S BROADMOOR DR", "city": "ST GEORGE", "district": "", "region": "UT", "postcode": "84790", "hash": "e9b6146b799fa574"}, "geometry": {"type": "Point", "coordinates": [-113.6160494, 37.0327448]}}
{"type": "Feature", "properties": {"id": "SG64410", "unit": "", "number": "1841", "street": "W RED RIVER DR", "city": "ST GEORGE", "district": "", "region": "UT", "postcode": "84790", "hash": "ee96b0a13cb27fb7"}, "geometry": {"type": "Point", "coordinates": [-113.6223873, 37.0316856]}}
{"type": "Feature", "properties": {"id": "SG64601", "unit": "", "number": "4504", "street": "S BIG RIVER DR", "city": "ST GEORGE", "district": "", "region": "UT", "postcode": "84790", "hash": "9042d2c675da20e4"}, "geometry": {"type": "Point", "coordinates": [-113.6207942, 37.0311094]}}
{"type": "Feature", "properties": {"id": "SG65895", "unit": "UNIT 2103", "number": "1735", "street": "W 540 N ST", "city": "ST GEORGE", "district": "", "region": "UT", "postcode": "84770", "hash": "747212584ed067cb"}, "geometry": {"type": "Point", "coordinates": [-113.6196763, 37.1172548]}}
{"type": "Feature", "properties": {"id": "SG67768", "unit": "", "number": "4539", "street": "S PEACEFUL RIVER DR", "city": "ST GEORGE", "district": "", "region": "UT", "postcode": "84790", "hash": "7b2b11f53ff8372c"}, "geometry": {"type": "Point", "coordinates": [-113.6191092, 37.0305222]}}
{"type": "Feature", "properties": {"id": "SG67933", "unit": "", "number": "1709", "street": "W DESERT ROSE DR", "city": "ST GEORGE", "district": "", "region": "UT", "postcode": "84790", "hash": "59631f33bb10d70c"}, "geometry": {"type": "Point", "coordinates": [-113.6194815, 37.0325354]}}
{"type": "Feature", "properties": {"id": "SG67934", "unit": "", "number": "533", "street": "S MAIN ST", "city": "ST GEORGE", "district": "", "region": "UT", "postcode": "84770", "hash": "18b915fcbd34a508"}, "geometry": {"type": "Point", "coordinates": [-113.5829931, 37.0991274]}}
{"type": "Feature", "properties": {"id": "SG70358", "unit": "", "number": "1956", "street": "W WIDE RIVER DR", "city": "ST GEORGE", "district": "", "region": "UT", "postcode": "84790", "hash": "e844ba9d1cb8dfc8"}, "geometry": {"type": "Point", "coordinates": [-113.6248743, 37.031001]}}
{"type": "Feature", "properties": {"id": "SG70224", "unit": "", "number": "1773", "street": "W WIDE RIVER DR", "city": "ST GEORGE", "district": "", "region": "UT", "postcode": "84790", "hash": "8021aa1626e493ad"}, "geometry": {"type": "Point", "coordinates": [-113.6209856, 37.0330887]}}
{"type": "Feature", "properties": {"id": "SG69656", "unit": "UNIT 1801", "number": "1735", "street": "W 540 N ST", "city": "ST GEORGE", "district": "", "region": "UT", "postcode": "84770", "hash": "a89bea1a298f8716"}, "geometry": {"type": "Point", "coordinates": [-113.6202911, 37.1169127]}}
{"type": "Feature", "properties": {"id": "SG69773", "unit": "", "number": "4317", "street": "S WINDSONG WAY", "city": "ST GEORGE", "district": "", "region": "UT", "postcode": "84790", "hash": "4893c341862e08f6"}, "geometry": {"type": "Point", "coordinates": [-113.6207104, 37.0344171]}}
{"type": "Feature", "properties": {"id": "SG70612", "unit": "", "number": "1716", "street": "W DIAMOND RIVER DR", "city": "ST GEORGE", "district": "", "region": "UT", "postcode": "84790", "hash": "403781dfa21568f2"}, "geometry": {"type": "Point", "coordinates": [-113.6198656, 37.0351945]}}
{"type": "Feature", "properties": {"id": "SG70615", "unit": "", "number": "1762", "street": "W DIAMOND RIVER DR", "city": "ST GEORGE", "district": "", "region": "UT", "postcode": "84790", "hash": "0e0ec3ca14ad3929"}, "geometry": {"type": "Point", "coordinates": [-113.6208743, 37.0347027]}}
{"type": "Feature", "properties": {"id": "SG70797", "unit": "", "number": "4552", "street": "S COLD RIVER DR", "city": "ST GEORGE", "district": "", "region": "UT", "postcode": "84790", "hash": "751b66b5a6f3b896"}, "geometry": {"type": "Point", "coordinates": [-113.6188352, 37.0303129]}}
{"type": "Feature", "properties": {"id": "SG70804", "unit": "", "number": "1770", "street": "W DIAMOND RIVER DR", "city": "ST GEORGE", "district": "", "region": "UT", "postcode": "84790", "hash": "2c3b775e747e72f3"}, "geometry": {"type": "Point", "coordinates": [-113.6210833, 37.0346011]}}
{"type": "Feature", "properties": {"id": "SG70805", "unit": "", "number": "1778", "street": "W DIAMOND RIVER DR", "city": "ST GEORGE", "district": "", "region": "UT", "postcode": "84790", "hash": "ca2cf8abcb6ea573"}, "geometry": {"type": "Point", "coordinates": [-113.621301, 37.034478]}}
{"type": "Feature", "properties": {"id": "SG70806", "unit": "", "number": "1708", "street": "W DIAMOND RIVER DR", "city": "ST GEORGE", "district": "", "region": "UT", "postcode": "84790", "hash": "14e258aca1d67b77"}, "geometry": {"type": "Point", "coordinates": [-113.6196606, 37.0352935]}}
{"type": "Feature", "properties": {"id": "SG72516", "unit": "UNIT 58", "number": "280", "street": "W 2025 S CIR", "city": "ST GEORGE", "district": "", "region": "UT", "postcode": "84770", "hash": "dc8d057618b4b399"}, "geometry": {"type": "Point", "coordinates": [-113.5881887, 37.0728034]}}
{"type": "Feature", "properties": {"id": "SG72211", "unit": "", "number": "4443", "street": "S HOLLY GRAPE LN", "city": "ST GEORGE", "district": "", "region": "UT", "postcode": "84790", "hash": "57d6877c06d5f554"}, "geometry": {"type": "Point", "coordinates": [-113.6189083, 37.0321738]}}
{"type": "Feature", "properties": {"id": "SG75095", "unit": "UNIT 1805", "number": "1735", "street": "W 540 N ST", "city": "ST GEORGE", "district": "", "region": "UT", "postcode": "84770", "hash": "d6306db14ece82bf"}, "geometry": {"type": "Point", "coordinates": [-113.6200837, 37.1167773]}}
{"type": "Feature", "properties": {"id": "SG75096", "unit": "", "number": "4376", "street": "S IRONWOOD DR", "city": "ST GEORGE", "district": "", "region": "UT", "postcode": "84790", "hash": "44baa954deb6b8cc"}, "geometry": {"type": "Point", "coordinates": [-113.6185667, 37.033256]}}
{"type": "Feature", "properties": {"id": "SG54386", "unit": "", "number": "1673", "street": "W WARM RIVER DR", "city": "ST GEORGE", "district": "", "region": "UT", "postcode": "84790", "hash": "9c58772d74dff0cc"}, "geometry": {"type": "Point", "coordinates": [-113.6188076, 37.033394]}}
