{"type": "Feature", "properties": {"hash": "e69021a7282e9100", "number": "2812", "street": "GUM RD", "unit": "", "city": "CHESAPEAKE", "district": "", "region": "VA", "postcode": "23321", "id": ""}, "geometry": {"type": "Point", "coordinates": [-76.431598, 36.8367889]}}
{"type": "Feature", "properties": {"hash": "dca476da4e44d5a9", "number": "1208", "street": "LAKE THRASHER PKWY", "unit": "", "city": "CHESAPEAKE", "district": "", "region": "VA", "postcode": "23320", "id": ""}, "geometry": {"type": "Point", "coordinates": [-76.2036967, 36.7469911]}}
{"type": "Feature", "properties": {"hash": "a9a999f5c7451a56", "number": "4108", "street": "RIVER BREEZE CIR", "unit": "", "city": "CHESAPEAKE", "district": "", "region": "VA", "postcode": "23321", "id": ""}, "geometry": {"type": "Point", "coordinates": [-76.3913211, 36.7972264]}}
{"type": "Feature", "properties": {"hash": "49479be1de3978b5", "number": "4106", "street": "RIVER BREEZE CIR", "unit": "", "city": "CHESAPEAKE", "district": "", "region": "VA", "postcode": "23321", "id": ""}, "geometry": {"type": "Point", "coordinates": [-76.3912408, 36.7971397]}}
{"type": "Feature", "properties": {"hash": "3faa101415f63c4b", "number": "3713", "street": "BREEZE PORT ARCH", "unit": "", "city": "CHESAPEAKE", "district": "", "region": "VA", "postcode": "23321", "id": ""}, "geometry": {"type": "Point", "coordinates": [-76.3940947, 36.7975109]}}
{"type": "Feature", "properties": {"hash": "18f20c1b1a01e277", "number": "4013", "street": "RIVER BREEZE CIR", "unit": "", "city": "CHESAPEAKE", "district": "", "region": "VA", "postcode": "23321", "id": ""}, "geometry": {"type": "Point", "coordinates": [-76.3932466, 36.7960207]}}
{"type": "Feature", "properties": {"hash": "2e1e9fc63627f5dc", "number": "1002", "street": "ANABRANCH TRCE", "unit": "", "city": "CHESAPEAKE", "district": "", "region": "VA", "postcode": "23323", "id": ""}, "geometry": {"type": "Point", "coordinates": [-76.3162864, 36.7603029]}}
{"type": "Feature", "properties": {"hash": "5ac692be380c7877", "number": "4024", "street": "RIVER BREEZE CIR", "unit": "", "city": "CHESAPEAKE", "district": "", "region": "VA", "postcode": "23321", "id": ""}, "geometry": {"type": "Point", "coordinates": [-76.3927161, 36.7961498]}}
{"type": "Feature", "properties": {"hash": "e506f8f3cc9315b1", "number": "4026", "street": "RIVER BREEZE CIR", "unit": "", "city": "CHESAPEAKE", "district": "", "region": "VA", "postcode": "23321", "id": ""}, "geometry": {"type": "Point", "coordinates": [-76.3926255, 36.7961948]}}
{"type": "Feature", "properties": {"hash": "0af39c36609c3d0d", "number": "4028", "street": "RIVER BREEZE CIR", "unit": "", "city": "CHESAPEAKE", "district": "", "region": "VA", "postcode": "23321", "id": ""}, "geometry": {"type": "Point", "coordinates": [-76.3925008, 36.7962566]}}
{"type": "Feature", "properties": {"hash": "247930b771f9c4ee", "number": "3624", "street": "DOCK POINT ARCH", "unit": "", "city": "CHESAPEAKE", "district": "", "region": "VA", "postcode": "23321", "id": ""}, "geometry": {"type": "Point", "coordinates": [-76.3938388, 36.7966098]}}
{"type": "Feature", "properties": {"hash": "459386f339fcb54d", "number": "1100", "street": "STOKES ST", "unit": "", "city": "DANVILLE", "district": "", "region": "VA", "postcode": "24541", "id": ""}, "geometry": {"type": "Point", "coordinates": [-79.4002074, 36.5753692]}}
{"type": "Feature", "properties": {"hash": "d15263406bd6997d", "number": "1100", "street": "WASHINGTON ST", "unit": "", "city": "DANVILLE", "district": "", "region": "VA", "postcode": "24540", "id": ""}, "geometry": {"type": "Point", "coordinates": [-79.3884564, 36.6007942]}}
{"type": "Feature", "properties": {"hash": "325ae9d40d97c929", "number": "1101", "street": "ADAMS ST", "unit": "", "city": "DANVILLE", "district": "", "region": "VA", "postcode": "24540", "id": ""}, "geometry": {"type": "Point", "coordinates": [-79.3908305, 36.6009668]}}
{"type": "Feature", "properties": {"hash": "eaaf1ff1209866b1", "number": "1101", "street": "INDUSTRIAL AVE", "unit": "", "city": "DANVILLE", "district": "", "region": "VA", "postcode": "24541", "id": ""}, "geometry": {"type": "Point", "coordinates": [-79.4009058, 36.5725774]}}
{"type": "Feature", "properties": {"hash": "da21fc56b36569f7", "number": "1101", "street": "LOCKETT DR", "unit": "", "city": "DANVILLE", "district": "", "region": "VA", "postcode": "24541", "id": ""}, "geometry": {"type": "Point", "coordinates": [-79.4135054, 36.5527644]}}
{"type": "Feature", "properties": {"hash": "0cf6f08ca2a88646", "number": "1101", "street": "PAXTON ST", "unit": "", "city": "DANVILLE", "district": "", "region": "VA", "postcode": "24541", "id": ""}, "geometry": {"type": "Point", "coordinates": [-79.399344, 36.5765252]}}
{"type": "Feature", "properties": {"hash": "7ee4f72f00e14f3b", "number": "1101", "street": "STOKES ST", "unit": "", "city": "DANVILLE", "district": "", "region": "VA", "postcode": "24541", "id": ""}, "geometry": {"type": "Point", "coordinates": [-79.3998267, 36.5750417]}}
{"type": "Feature", "properties": {"hash": "5e93c04b1573de89", "number": "1102", "street": "CAHILL CT", "unit": "", "city": "DANVILLE", "district": "", "region": "VA", "postcode": "24541", "id": ""}, "geometry": {"type": "Point", "coordinates": [-79.4108067, 36.5904482]}}
{"type": "Feature", "properties": {"hash": "ab8c0aaee6ec3970", "number": "1102", "street": "FRANKLIN TPKE", "unit": "", "city": "DANVILLE", "district": "", "region": "VA", "postcode": "24540", "id": ""}, "geometry": {"type": "Point", "coordinates": [-79.3952577, 36.6378413]}}
{"type": "Feature", "properties": {"hash": "ac83f513a0abed7f", "number": "1102", "street": "GREENWOOD AVE", "unit": "", "city": "DANVILLE", "district": "", "region": "VA", "postcode": "24541", "id": ""}, "geometry": {"type": "Point", "coordinates": [-79.4233108, 36.5590717]}}
{"type": "Feature", "properties": {"hash": "4ec3aa73629bb329", "number": "1102", "street": "WASHINGTON ST", "unit": "", "city": "DANVILLE", "district": "", "region": "VA", "postcode": "24540", "id": ""}, "geometry": {"type": "Point", "coordinates": [-79.3884427, 36.6009225]}}
{"type": "Feature", "properties": {"hash": "843fcb17ac512bf2", "number": "350", "street": "S WASHINGTON ST", "unit": "", "city": "FALLS CHURCH", "district": "", "region": "VA", "postcode": "22046", "id": ""}, "geometry": {"type": "Point", "coordinates": [-77.1743971, 38.8807734]}}
{"type": "Feature", "properties": {"hash": "008657d66d90458d", "number": "303", "street": "S MAPLE AVE", "unit": "", "city": "FALLS CHURCH", "district": "", "region": "VA", "postcode": "22046", "id": ""}, "geometry": {"type": "Point", "coordinates": [-77.1747908, 38.8807571]}}
{"type": "Feature", "properties": {"hash": "6af20385dc4ceef9", "number": "360", "street": "S WASHINGTON ST", "unit": "", "city": "FALLS CHURCH", "district": "", "region": "VA", "postcode": "22046", "id": ""}, "geometry": {"type": "Point", "coordinates": [-77.174604, 38.8805676]}}
{"type": "Feature", "properties": {"hash": "be4dbcf0bd9b24fa", "number": "410", "street": "S WASHINGTON ST", "unit": "", "city": "FALLS CHURCH", "district": "", "region": "VA", "postcode": "22046", "id": ""}, "geometry": {"type": "Point", "coordinates": [-77.1751763, 38.8801943]}}
{"type": "Feature", "properties": {"hash": "2451f47a37dac08e", "number": "307", "street": "S MAPLE AVE", "unit": "", "city": "FALLS CHURCH", "district": "", "region": "VA", "postcode": "22046", "id": ""}, "geometry": {"type": "Point", "coordinates": [-77.1754575, 38.8806237]}}
{"type": "Feature", "properties": {"hash": "5b2481fb3ee9be72", "number": "311", "street": "S MAPLE AVE", "unit": "", "city": "FALLS CHURCH", "district": "", "region": "VA", "postcode": "22046", "id": ""}, "geometry": {"type": "Point", "coordinates": [-77.1756606, 38.8807491]}}
{"type": "Feature", "properties": {"hash": "d769aeaf6dd77cbb", "number": "436", "street": "S WASHINGTON ST", "unit": "", "city": "FALLS CHURCH", "district": "", "region": "VA", "postcode": "22046", "id": ""}, "geometry": {"type": "Point", "coordinates": [-77.1757817, 38.8800415]}}
{"type": "Feature", "properties": {"hash": "c967d2bdb4b28bed", "number": "201", "street": "S WASHINGTON ST", "unit": "", "city": "FALLS CHURCH", "district": "", "region": "VA", "postcode": "22046", "id": ""}, "geometry": {"type": "Point", "coordinates": [-77.1724758, 38.8802958]}}
{"type": "Feature", "properties": {"hash": "782a3686e18fac67", "number": "429", "street": "S MAPLE AVE", "unit": "", "city": "FALLS CHURCH", "district": "", "region": "VA", "postcode": "22046", "id": ""}, "geometry": {"type": "Point", "coordinates": [-77.1762478, 38.8804]}}
{"type": "Feature", "properties": {"hash": "50fde8f2c987c2ec", "number": "101", "street": "E ANNANDALE RD", "unit": "", "city": "FALLS CHURCH", "district": "", "region": "VA", "postcode": "22046", "id": ""}, "geometry": {"type": "Point", "coordinates": [-77.1728081, 38.8803026]}}
{"type": "Feature", "properties": {"hash": "90e151c64242e1f4", "number": "431", "street": "S MAPLE AVE", "unit": "", "city": "FALLS CHURCH", "district": "", "region": "VA", "postcode": "22046", "id": ""}, "geometry": {"type": "Point", "coordinates": [-77.176564, 38.8803645]}}
{"type": "Feature", "properties": {"hash": "7b6951fdec628bef", "number": "0", "street": "COLONNADE AVE", "unit": "", "city": "LEXINGTON", "district": "", "region": "VA", "postcode": "24450", "id": ""}, "geometry": {"type": "Point", "coordinates": [-79.4526543, 37.7872449]}}
{"type": "Feature", "properties": {"hash": "891c2952f8f3752c", "number": "0", "street": "MOSES MILL RD", "unit": "", "city": "LEXINGTON", "district": "", "region": "VA", "postcode": "24450", "id": ""}, "geometry": {"type": "Point", "coordinates": [-79.429961, 37.7913395]}}
{"type": "Feature", "properties": {"hash": "dd4d50df0da9feb6", "number": "826", "street": "N MAIN ST", "unit": "", "city": "LEXINGTON", "district": "", "region": "VA", "postcode": "24450", "id": ""}, "geometry": {"type": "Point", "coordinates": [-79.4294032, 37.7914175]}}
{"type": "Feature", "properties": {"hash": "300eacd769e3845e", "number": "0", "street": "MOSES MILL RD", "unit": "", "city": "LEXINGTON", "district": "", "region": "VA", "postcode": "24450", "id": ""}, "geometry": {"type": "Point", "coordinates": [-79.429728, 37.7913147]}}
{"type": "Feature", "properties": {"hash": "082f33c24b4b646a", "number": "826", "street": "N MAIN ST", "unit": "", "city": "LEXINGTON", "district": "", "region": "VA", "postcode": "24450", "id": ""}, "geometry": {"type": "Point", "coordinates": [-79.4295773, 37.7914603]}}
{"type": "Feature", "properties": {"hash": "1ddbb04f613b6ad7", "number": "0", "street": "MOSES MILL RD", "unit": "", "city": "LEXINGTON", "district": "", "region": "VA", "postcode": "24450", "id": ""}, "geometry": {"type": "Point", "coordinates": [-79.4301678, 37.7916227]}}
{"type": "Feature", "properties": {"hash": "550473abf775d42f", "number": "828", "street": "N MAIN ST", "unit": "", "city": "LEXINGTON", "district": "", "region": "VA", "postcode": "24450", "id": ""}, "geometry": {"type": "Point", "coordinates": [-79.4297252, 37.7916957]}}
{"type": "Feature", "properties": {"hash": "ec64269997cf51c8", "number": "105", "street": "MCLAUGHLIN ST", "unit": "", "city": "LEXINGTON", "district": "", "region": "VA", "postcode": "24450", "id": ""}, "geometry": {"type": "Point", "coordinates": [-79.4461995, 37.7860732]}}
{"type": "Feature", "properties": {"hash": "bc4d831509f815a3", "number": "107", "street": "MCLAUGHLIN ST", "unit": "", "city": "LEXINGTON", "district": "", "region": "VA", "postcode": "24450", "id": ""}, "geometry": {"type": "Point", "coordinates": [-79.4462768, 37.7860481]}}
{"type": "Feature", "properties": {"hash": "21862db71513e43d", "number": "109", "street": "MCLAUGHLIN ST", "unit": "", "city": "LEXINGTON", "district": "", "region": "VA", "postcode": "24450", "id": ""}, "geometry": {"type": "Point", "coordinates": [-79.4463871, 37.7861005]}}
{"type": "Feature", "properties": {"hash": "e7cb3c4d0915d26e", "number": "111", "street": "MCLAUGHLIN ST", "unit": "", "city": "LEXINGTON", "district": "", "region": "VA", "postcode": "24450", "id": ""}, "geometry": {"type": "Point", "coordinates": [-79.446473, 37.7861447]}}
{"type": "Feature", "properties": {"id": "", "unit": "", "number": "502", "street": "HAGAN AVE NW", "city": "NORTON", "district": "", "region": "VA", "postcode": "24273", "hash": "c49ad0eaf52ff886"}, "geometry": {"type": "Point", "coordinates": [-82.6291124, 36.9400461]}}
{"type": "Feature", "properties": {"id": "", "unit": "", "number": "508", "street": "HAGAN AVE NW", "city": "NORTON", "district": "", "region": "VA", "postcode": "24273", "hash": "1431e7193d26d6f4"}, "geometry": {"type": "Point", "coordinates": [-82.6293122, 36.9399418]}}
{"type": "Feature", "properties": {"id": "", "unit": "", "number": "403", "street": "CRAIG ST NW", "city": "NORTON", "district": "", "region": "VA", "postcode": "24273", "hash": "9ecb42d649c0f782"}, "geometry": {"type": "Point", "coordinates": [-82.6301769, 36.9396573]}}
{"type": "Feature", "properties": {"id": "", "unit": "", "number": "409", "street": "CRAIG ST NW", "city": "NORTON", "district": "", "region": "VA", "postcode": "24273", "hash": "3f06490587e132a2"}, "geometry": {"type": "Point", "coordinates": [-82.6303269, 36.9398336]}}
{"type": "Feature", "properties": {"id": "", "unit": "", "number": "415", "street": "CRAIG ST NW", "city": "NORTON", "district": "", "region": "VA", "postcode": "24273", "hash": "8908adc90b588c74"}, "geometry": {"type": "Point", "coordinates": [-82.6304905, 36.940038]}}
{"type": "Feature", "properties": {"id": "", "unit": "", "number": "419", "street": "CRAIG ST NW", "city": "NORTON", "district": "", "region": "VA", "postcode": "24273", "hash": "1e05c7897fce28ed"}, "geometry": {"type": "Point", "coordinates": [-82.630582, 36.9402087]}}
{"type": "Feature", "properties": {"id": "", "unit": "", "number": "425", "street": "CRAIG ST NW", "city": "NORTON", "district": "", "region": "VA", "postcode": "24273", "hash": "3c0d9e05e5e1888a"}, "geometry": {"type": "Point", "coordinates": [-82.6307313, 36.9404332]}}
{"type": "Feature", "properties": {"id": "", "unit": "", "number": "431", "street": "CRAIG ST NW", "city": "NORTON", "district": "", "region": "VA", "postcode": "24273", "hash": "54ddbad2461b39f4"}, "geometry": {"type": "Point", "coordinates": [-82.6308111, 36.9405779]}}
{"type": "Feature", "properties": {"id": "", "unit": "", "number": "435", "street": "CRAIG ST NW", "city": "NORTON", "district": "", "region": "VA", "postcode": "24273", "hash": "138669347b0eaf8b"}, "geometry": {"type": "Point", "coordinates": [-82.6308396, 36.9407239]}}
{"type": "Feature", "properties": {"id": "", "unit": "", "number": "439", "street": "CRAIG ST NW", "city": "NORTON", "district": "", "region": "VA", "postcode": "24273", "hash": "03312f7b8cf3d2b7"}, "geometry": {"type": "Point", "coordinates": [-82.6308973, 36.9408402]}}
{"type": "Feature", "properties": {"id": "", "unit": "", "number": "443", "street": "CRAIG ST NW", "city": "NORTON", "district": "", "region": "VA", "postcode": "24273", "hash": "14e180bd386ad52b"}, "geometry": {"type": "Point", "coordinates": [-82.630987, 36.9409775]}}
{"type": "Feature", "properties": {"hash": "fc71f6f477a9a4c2", "number": "179", "street": "SHERATON DR", "unit": "", "city": "SALEM", "district": "", "region": "VA", "postcode": "24153", "id": ""}, "geometry": {"type": "Point", "coordinates": [-80.0329412, 37.3220548]}}
{"type": "Feature", "properties": {"hash": "cce8fa7ca4108b56", "number": "140", "street": "SHERATON DR", "unit": "", "city": "SALEM", "district": "", "region": "VA", "postcode": "24153", "id": ""}, "geometry": {"type": "Point", "coordinates": [-80.0320714, 37.3217172]}}
{"type": "Feature", "properties": {"hash": "d739e14154c2a07d", "number": "122", "street": "SHERATON DR", "unit": "", "city": "SALEM", "district": "", "region": "VA", "postcode": "24153", "id": ""}, "geometry": {"type": "Point", "coordinates": [-80.0319085, 37.3210183]}}
{"type": "Feature", "properties": {"hash": "cf884271ab01ebf4", "number": "114", "street": "SHERATON DR", "unit": "", "city": "SALEM", "district": "", "region": "VA", "postcode": "24153", "id": ""}, "geometry": {"type": "Point", "coordinates": [-80.0316727, 37.3204847]}}
{"type": "Feature", "properties": {"hash": "4941e8d935969763", "number": "119", "street": "SHERATON DR", "unit": "", "city": "SALEM", "district": "", "region": "VA", "postcode": "24153", "id": ""}, "geometry": {"type": "Point", "coordinates": [-80.0326839, 37.3207272]}}
{"type": "Feature", "properties": {"hash": "a2f650885bae962e", "number": "117", "street": "SHERATON DR", "unit": "", "city": "SALEM", "district": "", "region": "VA", "postcode": "24153", "id": ""}, "geometry": {"type": "Point", "coordinates": [-80.0325454, 37.3202687]}}
{"type": "Feature", "properties": {"hash": "d32278df49f84918", "number": "115", "street": "SHERATON DR", "unit": "", "city": "SALEM", "district": "", "region": "VA", "postcode": "24153", "id": ""}, "geometry": {"type": "Point", "coordinates": [-80.0324759, 37.319821]}}
{"type": "Feature", "properties": {"hash": "6c1eae7db0cea652", "number": "1551", "street": "EPPERLY LN", "unit": "", "city": "SALEM", "district": "", "region": "VA", "postcode": "24153", "id": ""}, "geometry": {"type": "Point", "coordinates": [-80.033425, 37.3191865]}}
{"type": "Feature", "properties": {"hash": "9cc30a48c7845c71", "number": "1531", "street": "EPPERLY LN", "unit": "", "city": "SALEM", "district": "", "region": "VA", "postcode": "24153", "id": ""}, "geometry": {"type": "Point", "coordinates": [-80.0353904, 37.3189253]}}
{"type": "Feature", "properties": {"hash": "c20d29dbb67d5131", "number": "1541", "street": "EPPERLY LN", "unit": "", "city": "SALEM", "district": "", "region": "VA", "postcode": "24153", "id": ""}, "geometry": {"type": "Point", "coordinates": [-80.0344328, 37.319233]}}
{"type": "Feature", "properties": {"hash": "940df700404aea6d", "number": "1125", "street": "POLAR LN", "unit": "", "city": "SALEM", "district": "", "region": "VA", "postcode": "24153", "id": ""}, "geometry": {"type": "Point", "coordinates": [-80.0386151, 37.3182442]}}
{"type": "Feature", "properties": {"hash": "3de3f3ec85c9272a", "number": "216", "street": "PARK ST NE", "unit": "", "city": "VIENNA", "district": "", "region": "VA", "postcode": "22180", "id": ""}, "geometry": {"type": "Point", "coordinates": [-77.2650494, 38.9048593]}}
{"type": "Feature", "properties": {"hash": "bd382631f66b066c", "number": "218", "street": "LOCUST ST SE", "unit": "STE 149", "city": "VIENNA", "district": "", "region": "VA", "postcode": "22180", "id": ""}, "geometry": {"type": "Point", "coordinates": [-77.2600078, 38.903828]}}
{"type": "Feature", "properties": {"hash": "427cec298f6a2236", "number": "218", "street": "LOCUST ST SE", "unit": "STE 144", "city": "VIENNA", "district": "", "region": "VA", "postcode": "22180", "id": ""}, "geometry": {"type": "Point", "coordinates": [-77.2600078, 38.903828]}}
{"type": "Feature", "properties": {"hash": "5636328f74a227eb", "number": "523", "street": "MAPLE AVE W", "unit": "", "city": "VIENNA", "district": "", "region": "VA", "postcode": "22180", "id": ""}, "geometry": {"type": "Point", "coordinates": [-77.2751149, 38.8944777]}}
{"type": "Feature", "properties": {"hash": "5ce80001393c7d10", "number": "1037", "street": "STERLING RD", "unit": "STE 29-2", "city": "HERNDON", "district": "", "region": "VA", "postcode": "20170", "id": ""}, "geometry": {"type": "Point", "coordinates": [-77.3967879, 38.9678142]}}
{"type": "Feature", "properties": {"hash": "5832266e71be4577", "number": "1145", "street": "ARTIC QUILL RD", "unit": "", "city": "HERNDON", "district": "", "region": "VA", "postcode": "20170", "id": ""}, "geometry": {"type": "Point", "coordinates": [-77.4028612, 38.9814735]}}
{"type": "Feature", "properties": {"hash": "c76f01af2c5f5c47", "number": "1151", "street": "LISA CT", "unit": "", "city": "HERNDON", "district": "", "region": "VA", "postcode": "20170", "id": ""}, "geometry": {"type": "Point", "coordinates": [-77.3992079, 38.9812039]}}
{"type": "Feature", "properties": {"hash": "0e01cb621dc0510b", "number": "1155", "street": "CYPRESS TREE PL", "unit": "", "city": "HERNDON", "district": "", "region": "VA", "postcode": "20170", "id": ""}, "geometry": {"type": "Point", "coordinates": [-77.399036, 38.9652293]}}
{"type": "Feature", "properties": {"hash": "1f297c95dc0b5717", "number": "1364", "street": "BEVERLY RD", "unit": "", "city": "MCLEAN", "district": "", "region": "VA", "postcode": "22101", "id": ""}, "geometry": {"type": "Point", "coordinates": [-77.178799, 38.9362223]}}
{"type": "Feature", "properties": {"hash": "28171d7c7d798bf4", "number": "1355", "street": "BEVERLY RD", "unit": "", "city": "MCLEAN", "district": "", "region": "VA", "postcode": "22101", "id": ""}, "geometry": {"type": "Point", "coordinates": [-77.177206, 38.9366399]}}
{"type": "Feature", "properties": {"hash": "c9970f58a5839040", "number": "1147", "street": "COLONIAL RD", "unit": "", "city": "MCLEAN", "district": "", "region": "VA", "postcode": "22101", "id": ""}, "geometry": {"type": "Point", "coordinates": [-77.17702, 38.9437427]}}
{"type": "Feature", "properties": {"hash": "d3a2fb91a72ece22", "number": "3008", "street": "WATERFORD WAY EAST", "unit": "", "city": "HENRICO", "district": "", "region": "VA", "postcode": "232331650", "id": ""}, "geometry": {"type": "Point", "coordinates": [-77.6221429, 37.6387134]}}
{"type": "Feature", "properties": {"hash": "a4f75db2667a296c", "number": "11912", "street": "CHURCH RD", "unit": "", "city": "HENRICO", "district": "", "region": "VA", "postcode": "232332401", "id": ""}, "geometry": {"type": "Point", "coordinates": [-77.6149813, 37.6326452]}}
{"type": "Feature", "properties": {"hash": "f435cbd1e872da80", "number": "1015", "street": "HORSEPEN RD", "unit": "", "city": "HENRICO", "district": "", "region": "VA", "postcode": "232296726", "id": ""}, "geometry": {"type": "Point", "coordinates": [-77.5357951, 37.591081]}}
{"type": "Feature", "properties": {"hash": "1fce5e2e07c08546", "number": "606", "street": "W WILLOW ST", "unit": "", "city": "HENRICO", "district": "", "region": "VA", "postcode": "230751419", "id": ""}, "geometry": {"type": "Point", "coordinates": [-77.3265629, 37.5527442]}}
{"type": "Feature", "properties": {"hash": "651b240457f38a12", "number": "9607", "street": "WOODMAN RD", "unit": "", "city": "HENRICO", "district": "", "region": "VA", "postcode": "232281325", "id": ""}, "geometry": {"type": "Point", "coordinates": [-77.4944326, 37.6447553]}}
{"type": "Feature", "properties": {"hash": "7bdf043ddf32696c", "number": "3101", "street": "NORTHSIDE AVE", "unit": "", "city": "HENRICO", "district": "", "region": "VA", "postcode": "232285409", "id": ""}, "geometry": {"type": "Point", "coordinates": [-77.4908612, 37.6045641]}}
{"type": "Feature", "properties": {"hash": "842f08ff5ec4188e", "number": "505", "street": "RIDGELEY LN", "unit": "", "city": "HENRICO", "district": "", "region": "VA", "postcode": "232297235", "id": ""}, "geometry": {"type": "Point", "coordinates": [-77.5688998, 37.5862239]}}
{"type": "Feature", "properties": {"hash": "9fccba407e755cff", "number": "5525", "street": "PONY FARM DR", "unit": "", "city": "HENRICO", "district": "", "region": "VA", "postcode": "232273120", "id": ""}, "geometry": {"type": "Point", "coordinates": [-77.4273626, 37.607099]}}
{"type": "Feature", "properties": {"hash": "57311765ba89bfba", "number": "2517", "street": "POATES DR", "unit": "", "city": "HENRICO", "district": "", "region": "VA", "postcode": "232283041", "id": ""}, "geometry": {"type": "Point", "coordinates": [-77.4948347, 37.6263871]}}
{"type": "Feature", "properties": {"hash": "4129e734ad783897", "number": "2111", "street": "CEDARFIELD LN", "unit": "", "city": "HENRICO", "district": "", "region": "VA", "postcode": "232331937", "id": ""}, "geometry": {"type": "Point", "coordinates": [-77.5834812, 37.6280571]}}
{"type": "Feature", "properties": {"hash": "becd819031e40350", "number": "6004", "street": "MULHOLLAND DR", "unit": "", "city": "GLEN ALLEN", "district": "", "region": "VA", "postcode": "230597008", "id": ""}, "geometry": {"type": "Point", "coordinates": [-77.6130242, 37.6935128]}}
{"type": "Feature", "properties": {"id": "", "unit": "", "number": "732", "street": "LONE PINE RD", "city": "BURKEVILLE", "district": "", "region": "VA", "postcode": "23922", "hash": "adc510b3d17c6c97"}, "geometry": {"type": "Point", "coordinates": [-78.1665405, 37.1500727]}}
{"type": "Feature", "properties": {"id": "", "unit": "", "number": "7942", "street": "HUNGARYTOWN RD", "city": "CREWE", "district": "", "region": "VA", "postcode": "23930", "hash": "44133d100350d0d7"}, "geometry": {"type": "Point", "coordinates": [-78.1334758, 37.0799987]}}
{"type": "Feature", "properties": {"id": "", "unit": "", "number": "1337", "street": "LITTLE CREEK RD", "city": "CREWE", "district": "", "region": "VA", "postcode": "23930", "hash": "aa4890daa0db6282"}, "geometry": {"type": "Point", "coordinates": [-78.0229019, 37.2285537]}}
{"type": "Feature", "properties": {"id": "", "unit": "", "number": "1356", "street": "WOODMANS RD", "city": "CREWE", "district": "", "region": "VA", "postcode": "23930", "hash": "dbc5823d883a7795"}, "geometry": {"type": "Point", "coordinates": [-78.1773453, 37.2241582]}}
{"type": "Feature", "properties": {"id": "", "unit": "", "number": "236", "street": "ROGERS LN", "city": "CREWE", "district": "", "region": "VA", "postcode": "23930", "hash": "f53ce8a527aeb342"}, "geometry": {"type": "Point", "coordinates": [-78.1380854, 37.2542365]}}
{"type": "Feature", "properties": {"id": "", "unit": "", "number": "1942", "street": "GOOD HOPE RD", "city": "CREWE", "district": "", "region": "VA", "postcode": "23930", "hash": "f81c763782f9bcd3"}, "geometry": {"type": "Point", "coordinates": [-78.1318358, 37.2509715]}}
{"type": "Feature", "properties": {"id": "", "unit": "", "number": "848", "street": "ROBERTSONS RD", "city": "BLACKSTONE", "district": "", "region": "VA", "postcode": "23824", "hash": "32e3088b7edec7f9"}, "geometry": {"type": "Point", "coordinates": [-78.0988272, 37.0688994]}}
{"type": "Feature", "properties": {"id": "", "unit": "", "number": "7781", "street": "W PATRICK HENRY HWY", "city": "CREWE", "district": "", "region": "VA", "postcode": "23930", "hash": "54adb7c853b26f89"}, "geometry": {"type": "Point", "coordinates": [-78.1447703, 37.2271447]}}
{"type": "Feature", "properties": {"id": "", "unit": "", "number": "8203", "street": "E PARTICK HENRY HWY", "city": "CREWE", "district": "", "region": "VA", "postcode": "23930", "hash": "af49f0b28df6791f"}, "geometry": {"type": "Point", "coordinates": [-78.1403955, 37.2313798]}}
{"type": "Feature", "properties": {"id": "", "unit": "", "number": "329", "street": "SECOND ST", "city": "BURKEVILLE", "district": "", "region": "VA", "postcode": "23922", "hash": "46b4575e20c59901"}, "geometry": {"type": "Point", "coordinates": [-78.1962598, 37.1884053]}}
{"type": "Feature", "properties": {"id": "", "unit": "", "number": "725", "street": "HUNGARYTOWN RD", "city": "BLACKSTONE", "district": "", "region": "VA", "postcode": "23824", "hash": "2ba00941c4ac36c9"}, "geometry": {"type": "Point", "coordinates": [-78.0182421, 37.0716866]}}
