{"type": "Feature", "properties": {"hash": "5c361c05bdfc4aa0", "number": "599", "street": "COSTLY LN", "unit": "", "city": "ASOTIN", "district": "", "region": "WA", "postcode": "99402", "id": ""}, "geometry": {"type": "Point", "coordinates": [-13031125.9842, 5834266]}}
{"type": "Feature", "properties": {"hash": "f44ce11ff3eb78bb", "number": "617", "street": "ASOTIN CREEK RD", "unit": "", "city": "ASOTIN", "district": "", "region": "WA", "postcode": "99402", "id": ""}, "geometry": {"type": "Point", "coordinates": [-13031048.3052, 5834510]}}
{"type": "Feature", "properties": {"hash": "6641a2146ad03820", "number": "619", "street": "ASOTIN CREEK RD", "unit": "", "city": "ASOTIN", "district": "", "region": "WA", "postcode": "99402", "id": ""}, "geometry": {"type": "Point", "coordinates": [-13031161.9641, 5834403.5]}}
{"type": "Feature", "properties": {"hash": "13d587669d8f64a7", "number": "15544", "street": "SNAKE RIVER RD", "unit": "", "city": "ASOTIN", "district": "", "region": "WA", "postcode": "99402", "id": ""}, "geometry": {"type": "Point", "coordinates": [-13019892.7455, 5817828]}}
{"type": "Feature", "properties": {"hash": "e25079e91578bc22", "number": "15962", "street": "SNAKE RIVER RD", "unit": "", "city": "ASOTIN", "district": "", "region": "WA", "postcode": "99402", "id": ""}, "geometry": {"type": "Point", "coordinates": [-13019988.0737, 5817380]}}
{"type": "Feature", "properties": {"hash": "f35491b8a6f5f288", "number": "15758", "street": "SNAKE RIVER RD", "unit": "", "city": "ASOTIN", "district": "", "region": "WA", "postcode": "99402", "id": ""}, "geometry": {"type": "Point", "coordinates": [-13019822.25, 5817602.5]}}
{"type": "Feature", "properties": {"hash": "5823f97771991107", "number": "2600", "street": "REMINGTON WAY", "unit": "", "city": "CLARKSTON", "district": "", "region": "WA", "postcode": "99403", "id": ""}, "geometry": {"type": "Point", "coordinates": [-13035363.1143, 5845491]}}
{"type": "Feature", "properties": {"hash": "d51ea76921d315cb", "number": "2060", "street": "MARILYN WAY", "unit": "", "city": "CLARKSTON", "district": "", "region": "WA", "postcode": "99403", "id": ""}, "geometry": {"type": "Point", "coordinates": [-13035223.5074, 5845554.5]}}
{"type": "Feature", "properties": {"hash": "1150f5fc324d2683", "number": "2001", "street": "EVANS RD", "unit": "", "city": "CLARKSTON", "district": "", "region": "WA", "postcode": "99403", "id": ""}, "geometry": {"type": "Point", "coordinates": [-13035970.8386, 5845737]}}
{"type": "Feature", "properties": {"hash": "f8a784e6785b8930", "number": "2523", "street": "LINDA LN", "unit": "", "city": "CLARKSTON", "district": "", "region": "WA", "postcode": "99403", "id": ""}, "geometry": {"type": "Point", "coordinates": [-13035806.1183, 5845793.5]}}
{"type": "Feature", "properties": {"hash": "11a060a2088ac8b0", "number": "2419", "street": "LINDA LN", "unit": "", "city": "CLARKSTON", "district": "", "region": "WA", "postcode": "99403", "id": ""}, "geometry": {"type": "Point", "coordinates": [-13035201.675, 5845638.5]}}
{"type": "Feature", "properties": {"hash": "9e987dc02e2fd799", "number": "2550", "street": "REMINGTON WAY", "unit": "", "city": "CLARKSTON", "district": "", "region": "WA", "postcode": "99403", "id": ""}, "geometry": {"type": "Point", "coordinates": [-13035169.0237, 5845599.5]}}
{"type": "Feature", "properties": {"hash": "1cd192a447397d3a", "number": "807", "street": "10TH ST", "unit": "", "city": "Bellingham", "district": "", "region": "WA", "postcode": "98225-6226", "id": "50700-807"}, "geometry": {"type": "Point", "coordinates": [-122.5046524, 48.7260691]}}
{"type": "Feature", "properties": {"hash": "25ce2c400b423760", "number": "811", "street": "10TH ST", "unit": "", "city": "Bellingham", "district": "", "region": "WA", "postcode": "98225-6227", "id": "50700-811"}, "geometry": {"type": "Point", "coordinates": [-122.5046564, 48.7257889]}}
{"type": "Feature", "properties": {"hash": "a8231bbdb74c4e4e", "number": "201", "street": "MCKENZIE AVE", "unit": "", "city": "Bellingham", "district": "", "region": "WA", "postcode": "98225", "id": "31565-201"}, "geometry": {"type": "Point", "coordinates": [-122.5134542, 48.7195226]}}
{"type": "Feature", "properties": {"hash": "82cc22ff666e7fc7", "number": "1140", "street": "BRIGHTON CREST DR", "unit": "", "city": "Bellingham", "district": "", "region": "WA", "postcode": "98229-6905", "id": "80236-1140"}, "geometry": {"type": "Point", "coordinates": [-122.4873872, 48.6827397]}}
{"type": "Feature", "properties": {"hash": "00697a621f629135", "number": "1907", "street": "38TH ST", "unit": "", "city": "Bellingham", "district": "", "region": "WA", "postcode": "98229-4927", "id": "53500-1907"}, "geometry": {"type": "Point", "coordinates": [-122.4668215, 48.7141452]}}
{"type": "Feature", "properties": {"hash": "4e001e809eedaccd", "number": "1000", "street": "W LAKE SAMISH DR", "unit": "", "city": "Bellingham", "district": "", "region": "WA", "postcode": "98229", "id": "81969-1000"}, "geometry": {"type": "Point", "coordinates": [-122.4130308, 48.6697724]}}
{"type": "Feature", "properties": {"hash": "422e8846c94045b5", "number": "3022", "street": "BEAVER PL", "unit": "", "city": "Sedro Woolley", "district": "", "region": "WA", "postcode": "98284", "id": "80132-3022"}, "geometry": {"type": "Point", "coordinates": [-122.3295, 48.662969]}}
{"type": "Feature", "properties": {"hash": "6a5e9114c363b745", "number": "2039", "street": "LUMMI VIEW DR", "unit": "", "city": "Bellingham", "district": "", "region": "WA", "postcode": "98226", "id": "70056-2039"}, "geometry": {"type": "Point", "coordinates": [-122.6591026, 48.7270056]}}
{"type": "Feature", "properties": {"hash": "288cfbad04a8019b", "number": "7569", "street": "OLSEN DR", "unit": "", "city": "Glacier", "district": "", "region": "WA", "postcode": "98244", "id": "81350-7569"}, "geometry": {"type": "Point", "coordinates": [-121.9968996, 48.9151493]}}
{"type": "Feature", "properties": {"hash": "5dc726ed93ccaf2d", "number": "340", "street": "CHERRY ST", "unit": "", "city": "Blaine", "district": "", "region": "WA", "postcode": "98230", "id": "64043-340"}, "geometry": {"type": "Point", "coordinates": [-122.7490021, 48.9898311]}}
{"type": "Feature", "properties": {"hash": "ec3b72cf9338e243", "number": "9141", "street": "BELTED KINGFISHER RD", "unit": "", "city": "Blaine", "district": "", "region": "WA", "postcode": "98230", "id": "64027-9141"}, "geometry": {"type": "Point", "coordinates": [-122.7954925, 48.9744142]}}
{"type": "Feature", "properties": {"hash": "568064775ecbb6b9", "number": "5519", "street": "CANVASBACK RD", "unit": "", "city": "Blaine", "district": "", "region": "WA", "postcode": "98230", "id": "64040-5519"}, "geometry": {"type": "Point", "coordinates": [-122.7815323, 48.9656716]}}
{"type": "Feature", "properties": {"id": "", "unit": "", "number": "17807", "street": "93RD PL NE", "city": "BOTHELL", "district": "K", "region": "WA", "postcode": "98011", "hash": "15a2a7263225d49c"}, "geometry": {"type": "Point", "coordinates": [-122.2165257, 47.7572548]}}
{"type": "Feature", "properties": {"id": "", "unit": "", "number": "1630", "street": "228TH ST SE", "city": "BOTHELL", "district": "S", "region": "WA", "postcode": "98021", "hash": "dfcca53c64c35dc0"}, "geometry": {"type": "Point", "coordinates": [-122.2106563, 47.7908]}}
{"type": "Feature", "properties": {"id": "", "unit": "", "number": "923", "street": "228TH ST SE", "city": "BOTHELL", "district": "S", "region": "WA", "postcode": "98021", "hash": "724bb087c75ac3fb"}, "geometry": {"type": "Point", "coordinates": [-122.2192974, 47.7922086]}}
{"type": "Feature", "properties": {"id": "", "unit": "", "number": "11022", "street": "NE 197TH ST", "city": "BOTHELL", "district": "K", "region": "WA", "postcode": "98011", "hash": "a391b9f7149f010d"}, "geometry": {"type": "Point", "coordinates": [-122.1935161, 47.7719405]}}
{"type": "Feature", "properties": {"id": "", "unit": "", "number": "15300", "street": "112TH AVE NE", "city": "BOTHELL", "district": "K", "region": "WA", "postcode": "98011", "hash": "a5ebf3bc4558ba84"}, "geometry": {"type": "Point", "coordinates": [-122.1906915, 47.7391526]}}
{"type": "Feature", "properties": {"id": "", "unit": "", "number": "18612", "street": "BEARDSLEE BLVD", "city": "BOTHELL", "district": "K", "region": "WA", "postcode": "98011", "hash": "5982bb0099b7dd2d"}, "geometry": {"type": "Point", "coordinates": [-122.194602, 47.7624331]}}
{"type": "Feature", "properties": {"id": "", "unit": "", "number": "16477", "street": "107TH PL NE", "city": "BOTHELL", "district": "K", "region": "WA", "postcode": "98011", "hash": "3a280b746e171f09"}, "geometry": {"type": "Point", "coordinates": [-122.1976232, 47.7472493]}}
{"type": "Feature", "properties": {"id": "", "unit": "", "number": "12942", "street": "NE 201ST WAY", "city": "WOODINVILLE", "district": "K", "region": "WA", "postcode": "98072", "hash": "96201b4c4112bdc2"}, "geometry": {"type": "Point", "coordinates": [-122.1672614, 47.7728817]}}
{"type": "Feature", "properties": {"id": "", "unit": "", "number": "15515", "street": "JUANITA-WOODINVILLE WAY NE", "city": "BOTHELL", "district": "K", "region": "WA", "postcode": "98011", "hash": "f5f4254686ded870"}, "geometry": {"type": "Point", "coordinates": [-122.1896909, 47.7408118]}}
{"type": "Feature", "properties": {"id": "", "unit": "", "number": "16125", "street": "JUANITA-WOODINVILLE WAY NE", "city": "BOTHELL", "district": "K", "region": "WA", "postcode": "98011", "hash": "04118ce29e2d065a"}, "geometry": {"type": "Point", "coordinates": [-122.184413, 47.7460978]}}
{"type": "Feature", "properties": {"id": "", "unit": "", "number": "8700", "street": "88TH AVE NE", "city": "BOTHELL", "district": "K", "region": "WA", "postcode": "98011", "hash": "f97bc0a0dc33b750"}, "geometry": {"type": "Point", "coordinates": [-122.2247489, 47.7541488]}}
{"type": "Feature", "properties": {"id": "", "unit": "", "number": "16388", "street": "119TH LN NE", "city": "BOTHELL", "district": "K", "region": "WA", "postcode": "98011", "hash": "53eb061e96bab5d4"}, "geometry": {"type": "Point", "coordinates": [-122.1808979, 47.7470578]}}
{"type": "Feature", "properties": {"hash": "5ea9bd861380e314", "number": "5826", "street": "N Driscoll Blvd", "unit": "", "city": "Spokane", "district": "", "region": "WA", "postcode": "99205", "id": "53670009"}, "geometry": {"type": "Point", "coordinates": [-117.4727455, 47.7122401]}}
{"type": "Feature", "properties": {"hash": "6435e20a65b6c181", "number": "811", "street": "E Gordon Ave", "unit": "", "city": "Spokane", "district": "", "region": "WA", "postcode": "99207", "id": "536700059"}, "geometry": {"type": "Point", "coordinates": [-117.3972114, 47.6909605]}}
{"type": "Feature", "properties": {"hash": "b54d3274356a66c9", "number": "1327", "street": "W Kiernan Ave", "unit": "", "city": "Spokane", "district": "", "region": "WA", "postcode": "99205", "id": "536700077"}, "geometry": {"type": "Point", "coordinates": [-117.4321866, 47.6915637]}}
{"type": "Feature", "properties": {"hash": "037dd289e4c304bd", "number": "3302", "street": "W Central Ave", "unit": "", "city": "Spokane", "district": "", "region": "WA", "postcode": "99205", "id": "5367000127"}, "geometry": {"type": "Point", "coordinates": [-117.460809, 47.7116461]}}
{"type": "Feature", "properties": {"hash": "85f15ff46bff6808", "number": "2303", "street": "W Kiernan Ave", "unit": "", "city": "Spokane", "district": "", "region": "WA", "postcode": "99205", "id": "5367000145"}, "geometry": {"type": "Point", "coordinates": [-117.4448747, 47.6915172]}}
{"type": "Feature", "properties": {"hash": "885968034611b960", "number": "5320", "street": "N Alameda Blvd", "unit": "", "city": "Spokane", "district": "", "region": "WA", "postcode": "99205", "id": "5367000184"}, "geometry": {"type": "Point", "coordinates": [-117.4694445, 47.7069224]}}
{"type": "Feature", "properties": {"hash": "e3f61693730fc5ac", "number": "5303", "street": "N Elgin St", "unit": "", "city": "Spokane", "district": "", "region": "WA", "postcode": "99205", "id": "5367000195"}, "geometry": {"type": "Point", "coordinates": [-117.4420835, 47.706416]}}
{"type": "Feature", "properties": {"hash": "df6fef888fb98a46", "number": "3303", "street": "E Gordon Ave", "unit": "", "city": "Spokane", "district": "", "region": "WA", "postcode": "99217", "id": "5367000234"}, "geometry": {"type": "Point", "coordinates": [-117.3613677, 47.6919407]}}
{"type": "Feature", "properties": {"hash": "352d4f91791aa8fa", "number": "4712", "street": "N Lee St", "unit": "", "city": "Spokane", "district": "", "region": "WA", "postcode": "99207", "id": "5367000252"}, "geometry": {"type": "Point", "coordinates": [-117.3773097, 47.7009971]}}
{"type": "Feature", "properties": {"hash": "916e93eb1a8d9b7b", "number": "408", "street": "E Olympic Ave", "unit": "", "city": "Spokane", "district": "", "region": "WA", "postcode": "99207", "id": "5367000302"}, "geometry": {"type": "Point", "coordinates": [-117.40419, 47.7029253]}}
{"type": "Feature", "properties": {"hash": "9c69e6f342b7c117", "number": "4007", "street": "N Monroe St", "unit": "", "city": "Spokane", "district": "", "region": "WA", "postcode": "99205", "id": "5367000320"}, "geometry": {"type": "Point", "coordinates": [-117.4260581, 47.6947756]}}
{"type": "Feature", "properties": {"hash": "fce587cf3b000a59", "number": "4123", "street": "E Marietta Ave", "unit": "", "city": "Spokane", "district": "", "region": "WA", "postcode": "99217", "id": "5367000370"}, "geometry": {"type": "Point", "coordinates": [-117.3493492, 47.6815277]}}
{"type": "Feature", "properties": {"hash": "660bc9c2a82c68c3", "number": "2053", "street": "MAPLE ST", "unit": "", "city": "LONGVIEW", "district": "COWLITZ", "region": "WA", "postcode": "98632", "id": ""}, "geometry": {"type": "Point", "coordinates": [-122.9437652, 46.1421191]}}
{"type": "Feature", "properties": {"hash": "a42e9c557b838abe", "number": "2005", "street": "OLYMPIA WAY", "unit": "", "city": "LONGVIEW", "district": "COWLITZ", "region": "WA", "postcode": "98632", "id": ""}, "geometry": {"type": "Point", "coordinates": [-122.9427811, 46.1430231]}}
{"type": "Feature", "properties": {"hash": "84d810e186564f97", "number": "1614", "street": "21ST AVE", "unit": "", "city": "LONGVIEW", "district": "COWLITZ", "region": "WA", "postcode": "98632", "id": ""}, "geometry": {"type": "Point", "coordinates": [-122.9435174, 46.1427306]}}
{"type": "Feature", "properties": {"hash": "7a4c843e3ec83dae", "number": "1626", "street": "21ST AVE", "unit": "", "city": "LONGVIEW", "district": "COWLITZ", "region": "WA", "postcode": "98632", "id": ""}, "geometry": {"type": "Point", "coordinates": [-122.943325, 46.1430584]}}
{"type": "Feature", "properties": {"hash": "75e965be40fd5685", "number": "2025", "street": "OLYMPIA WAY", "unit": "", "city": "LONGVIEW", "district": "COWLITZ", "region": "WA", "postcode": "98632", "id": ""}, "geometry": {"type": "Point", "coordinates": [-122.9431457, 46.1433779]}}
{"type": "Feature", "properties": {"hash": "ae9f014ef86573f8", "number": "1619", "street": "21ST AVE", "unit": "", "city": "LONGVIEW", "district": "COWLITZ", "region": "WA", "postcode": "98632", "id": ""}, "geometry": {"type": "Point", "coordinates": [-122.9440489, 46.1429104]}}
{"type": "Feature", "properties": {"hash": "7cc13a0cec89f5cd", "number": "1609", "street": "21ST AVE", "unit": "", "city": "LONGVIEW", "district": "COWLITZ", "region": "WA", "postcode": "98632", "id": ""}, "geometry": {"type": "Point", "coordinates": [-122.944155, 46.142654]}}
{"type": "Feature", "properties": {"hash": "42d12c5d3312af26", "number": "1632", "street": "22ND AVE", "unit": "", "city": "LONGVIEW", "district": "COWLITZ", "region": "WA", "postcode": "98632", "id": ""}, "geometry": {"type": "Point", "coordinates": [-122.9445317, 46.1434383]}}
{"type": "Feature", "properties": {"hash": "9dcc986227457d82", "number": "1539", "street": "21ST AVE", "unit": "", "city": "LONGVIEW", "district": "COWLITZ", "region": "WA", "postcode": "98632", "id": ""}, "geometry": {"type": "Point", "coordinates": [-122.9443542, 46.1422253]}}
{"type": "Feature", "properties": {"hash": "ff6d89fdec3cce8c", "number": "1515", "street": "21ST AVE", "unit": "", "city": "LONGVIEW", "district": "COWLITZ", "region": "WA", "postcode": "98632", "id": ""}, "geometry": {"type": "Point", "coordinates": [-122.9445869, 46.1415648]}}
{"type": "Feature", "properties": {"hash": "82159ce7e179695b", "number": "1607", "street": "20TH AVE", "unit": "", "city": "LONGVIEW", "district": "COWLITZ", "region": "WA", "postcode": "98632", "id": ""}, "geometry": {"type": "Point", "coordinates": [-122.943015, 46.1424243]}}
{"type": "Feature", "properties": {"hash": "1264f7487a68da6b", "number": "2015", "street": "OLYMPIA WAY", "unit": "", "city": "LONGVIEW", "district": "COWLITZ", "region": "WA", "postcode": "98632", "id": ""}, "geometry": {"type": "Point", "coordinates": [-122.9429853, 46.1432255]}}
{"type": "Feature", "properties": {"id": "", "unit": "", "number": "30356", "street": "Hwy 243 S", "city": "Mattawa", "district": "", "region": "WA", "postcode": "99349", "hash": "cf9c123fe486ad4a"}, "geometry": {"type": "Point", "coordinates": [-119.8713644, 46.6446756]}}
{"type": "Feature", "properties": {"id": "", "unit": "", "number": "30286", "street": "Hwy 243 S", "city": "Mattawa", "district": "", "region": "WA", "postcode": "99349", "hash": "8934e700e5055f74"}, "geometry": {"type": "Point", "coordinates": [-119.8720507, 46.6459764]}}
{"type": "Feature", "properties": {"id": "", "unit": "", "number": "17379", "street": "Main St SW", "city": "Beverly", "district": "", "region": "WA", "postcode": "99321", "hash": "93748c99e7f72680"}, "geometry": {"type": "Point", "coordinates": [-119.9340062, 46.83458]}}
{"type": "Feature", "properties": {"id": "", "unit": "", "number": "17373", "street": "Main St SW", "city": "Beverly", "district": "", "region": "WA", "postcode": "99321", "hash": "61fbe402d9c9697e"}, "geometry": {"type": "Point", "coordinates": [-119.9340082, 46.8347083]}}
{"type": "Feature", "properties": {"id": "", "unit": "", "number": "19780", "street": "Rd 6 SE", "city": "Warden", "district": "", "region": "WA", "postcode": "98857", "hash": "72ac2545f7240c14"}, "geometry": {"type": "Point", "coordinates": [-119.0653457, 47.0036924]}}
{"type": "Feature", "properties": {"id": "", "unit": "", "number": "801", "street": "S Frontage Rd E", "city": "Moses Lake", "district": "", "region": "WA", "postcode": "98837", "hash": "8e4991263eaaee04"}, "geometry": {"type": "Point", "coordinates": [-119.4759032, 47.1020191]}}
{"type": "Feature", "properties": {"id": "", "unit": "", "number": "1402", "street": "Rd 2 NW", "city": "Moses Lake", "district": "", "region": "WA", "postcode": "98837", "hash": "018c7cab0c261092"}, "geometry": {"type": "Point", "coordinates": [-119.522016, 47.118862]}}
{"type": "Feature", "properties": {"id": "", "unit": "", "number": "1512", "street": "Rd 2 NW", "city": "Moses Lake", "district": "", "region": "WA", "postcode": "98837", "hash": "3fb3f2181b2c8fd8"}, "geometry": {"type": "Point", "coordinates": [-119.5244503, 47.1187322]}}
{"type": "Feature", "properties": {"id": "", "unit": "", "number": "1458", "street": "Rd 2 NW", "city": "Moses Lake", "district": "", "region": "WA", "postcode": "98837", "hash": "3b2025a21c7ae80b"}, "geometry": {"type": "Point", "coordinates": [-119.5229197, 47.1187493]}}
{"type": "Feature", "properties": {"id": "", "unit": "", "number": "17491", "street": "Rd 5.2 NW", "city": "Quincy", "district": "", "region": "WA", "postcode": "98848", "hash": "6b2662aa7c557b41"}, "geometry": {"type": "Point", "coordinates": [-119.8638234, 47.163638]}}
{"type": "Feature", "properties": {"id": "", "unit": "", "number": "10478", "street": "Largent St NE", "city": "Coulee City", "district": "", "region": "WA", "postcode": "99115", "hash": "7afb4a7d33626650"}, "geometry": {"type": "Point", "coordinates": [-119.2674817, 47.637328]}}
{"type": "Feature", "properties": {"id": "", "unit": "", "number": "10469", "street": "Northern Ave NE", "city": "Coulee City", "district": "", "region": "WA", "postcode": "99115", "hash": "1bae19f387d6ac54"}, "geometry": {"type": "Point", "coordinates": [-119.2677533, 47.6375013]}}
{"type": "Feature", "properties": {"hash": "9c966be5328005ae", "number": "611", "street": "3RD ST", "unit": "", "city": "Steilacoom", "district": "", "region": "WA", "postcode": "98388", "id": ""}, "geometry": {"type": "Point", "coordinates": [-122.608996, 47.166377]}}
{"type": "Feature", "properties": {"hash": "9003441888a47971", "number": "306", "street": "GOVE ST", "unit": "", "city": "Steilacoom", "district": "", "region": "WA", "postcode": "98388", "id": ""}, "geometry": {"type": "Point", "coordinates": [-122.6082999, 47.1666983]}}
{"type": "Feature", "properties": {"hash": "12f48b338ca440c9", "number": "207", "street": "3RD ST", "unit": "", "city": "Steilacoom", "district": "", "region": "WA", "postcode": "98388", "id": ""}, "geometry": {"type": "Point", "coordinates": [-122.6089675, 47.1702053]}}
{"type": "Feature", "properties": {"hash": "a522a344dd9023de", "number": "307", "street": "MARTIN ST", "unit": "", "city": "Steilacoom", "district": "", "region": "WA", "postcode": "98388", "id": ""}, "geometry": {"type": "Point", "coordinates": [-122.6087817, 47.1698504]}}
{"type": "Feature", "properties": {"hash": "9d7e868d915e8eab", "number": "1310", "street": "RAINIER ST", "unit": "", "city": "Steilacoom", "district": "", "region": "WA", "postcode": "98388", "id": ""}, "geometry": {"type": "Point", "coordinates": [-122.600902, 47.1701043]}}
{"type": "Feature", "properties": {"hash": "1538c694ce849439", "number": "1407", "street": "RAINIER ST", "unit": "", "city": "Steilacoom", "district": "", "region": "WA", "postcode": "98388", "id": ""}, "geometry": {"type": "Point", "coordinates": [-122.6005731, 47.1708603]}}
{"type": "Feature", "properties": {"hash": "e8c43485aa64f052", "number": "1415", "street": "LAFAYETTE ST", "unit": "", "city": "Steilacoom", "district": "", "region": "WA", "postcode": "98388", "id": ""}, "geometry": {"type": "Point", "coordinates": [-122.6009227, 47.1717646]}}
{"type": "Feature", "properties": {"hash": "5308e186ad5e6523", "number": "1411", "street": "LAFAYETTE ST", "unit": "", "city": "Steilacoom", "district": "", "region": "WA", "postcode": "98388", "id": ""}, "geometry": {"type": "Point", "coordinates": [-122.6011567, 47.1717235]}}
{"type": "Feature", "properties": {"hash": "d33b00dff1dc4da2", "number": "110", "street": "UNION AVE", "unit": "", "city": "Steilacoom", "district": "", "region": "WA", "postcode": "98388", "id": ""}, "geometry": {"type": "Point", "coordinates": [-122.6033462, 47.1709639]}}
{"type": "Feature", "properties": {"hash": "646ebe578f829a2e", "number": "102", "street": "UNION AVE", "unit": "", "city": "Steilacoom", "district": "", "region": "WA", "postcode": "98388", "id": ""}, "geometry": {"type": "Point", "coordinates": [-122.6032936, 47.1712494]}}
{"type": "Feature", "properties": {"hash": "115d30ef30b46c64", "number": "1601", "street": "SEQUALISH ST", "unit": "", "city": "Steilacoom", "district": "", "region": "WA", "postcode": "98388", "id": ""}, "geometry": {"type": "Point", "coordinates": [-122.5966311, 47.1698559]}}
{"type": "Feature", "properties": {"hash": "8f3d5ca3117a773b", "number": "410", "street": "PACIFIC ST", "unit": "", "city": "Steilacoom", "district": "", "region": "WA", "postcode": "98388", "id": ""}, "geometry": {"type": "Point", "coordinates": [-122.597723, 47.1702775]}}
{"type": "Feature", "properties": {"hash": "97f385f95e44f926", "number": "1404", "street": "MARSH RD", "unit": "", "city": "YAKIMA", "district": "", "region": "WA", "postcode": "98901", "id": ""}, "geometry": {"type": "Point", "coordinates": [-120.4853558, 46.6186786]}}
{"type": "Feature", "properties": {"hash": "0e804966f48090dc", "number": "1312", "street": "MARSH RD", "unit": "", "city": "YAKIMA", "district": "", "region": "WA", "postcode": "98901", "id": ""}, "geometry": {"type": "Point", "coordinates": [-120.4865726, 46.6186371]}}
{"type": "Feature", "properties": {"hash": "ccbe7a0db6a97257", "number": "2125", "street": "MARSH RD", "unit": "", "city": "YAKIMA", "district": "", "region": "WA", "postcode": "98901", "id": ""}, "geometry": {"type": "Point", "coordinates": [-120.4740701, 46.6171437]}}
{"type": "Feature", "properties": {"hash": "8b16154975706ecb", "number": "1114", "street": "N  2ND ST", "unit": "", "city": "YAKIMA", "district": "", "region": "WA", "postcode": "98901", "id": ""}, "geometry": {"type": "Point", "coordinates": [-120.5109773, 46.6169143]}}
{"type": "Feature", "properties": {"hash": "5ebaeea05a761c4c", "number": "1112", "street": "N  2ND ST", "unit": "", "city": "YAKIMA", "district": "", "region": "WA", "postcode": "98901", "id": ""}, "geometry": {"type": "Point", "coordinates": [-120.5111508, 46.6168087]}}
{"type": "Feature", "properties": {"hash": "1e017885fd73e8a4", "number": "1110", "street": "N  2ND ST", "unit": "", "city": "YAKIMA", "district": "", "region": "WA", "postcode": "98901", "id": ""}, "geometry": {"type": "Point", "coordinates": [-120.510977, 46.6167113]}}
{"type": "Feature", "properties": {"hash": "aa804f3727b703ba", "number": "1108", "street": "N  2ND ST", "unit": "", "city": "YAKIMA", "district": "", "region": "WA", "postcode": "98901", "id": ""}, "geometry": {"type": "Point", "coordinates": [-120.5110035, 46.6165835]}}
{"type": "Feature", "properties": {"hash": "8d14a6be946eb0fb", "number": "831", "street": "N  15TH ST", "unit": "", "city": "YAKIMA", "district": "", "region": "WA", "postcode": "98901", "id": ""}, "geometry": {"type": "Point", "coordinates": [-120.4834456, 46.6161017]}}
{"type": "Feature", "properties": {"hash": "c2238f8b36aaa06c", "number": "904", "street": "BOUCHER LN", "unit": "", "city": "YAKIMA", "district": "", "region": "WA", "postcode": "98901", "id": ""}, "geometry": {"type": "Point", "coordinates": [-120.4730673, 46.6158738]}}
{"type": "Feature", "properties": {"hash": "ab0cd1361672aa7b", "number": "2102", "street": "MARSH RD", "unit": "", "city": "YAKIMA", "district": "", "region": "WA", "postcode": "98901", "id": ""}, "geometry": {"type": "Point", "coordinates": [-120.4747564, 46.6155789]}}
{"type": "Feature", "properties": {"hash": "bc3e78be7d2516a8", "number": "810", "street": "BOCHER LN", "unit": "", "city": "YAKIMA", "district": "", "region": "WA", "postcode": "98901", "id": ""}, "geometry": {"type": "Point", "coordinates": [-120.4722192, 46.6150372]}}
{"type": "Feature", "properties": {"hash": "54a2e1b6741fe968", "number": "1809", "street": "HARTFORD RD", "unit": "", "city": "YAKIMA", "district": "", "region": "WA", "postcode": "98901", "id": ""}, "geometry": {"type": "Point", "coordinates": [-120.4786251, 46.614841]}}
