{"type": "Feature", "properties": {"hash": "e1ccdc3d47499636", "number": "612", "street": "W ABBOTT AV", "unit": "", "city": "MILWAUKEE", "district": "", "region": "WI", "postcode": "53221-3633", "id": ""}, "geometry": {"type": "Point", "coordinates": [-87.9201403, 42.9499946]}}
{"type": "Feature", "properties": {"hash": "f0d2572794c24dea", "number": "613", "street": "W ABBOTT AV", "unit": "", "city": "MILWAUKEE", "district": "", "region": "WI", "postcode": "53221-3632", "id": ""}, "geometry": {"type": "Point", "coordinates": [-87.920173, 42.9494972]}}
{"type": "Feature", "properties": {"hash": "ff92df519ee24520", "number": "632", "street": "W ABBOTT AV", "unit": "", "city": "MILWAUKEE", "district": "", "region": "WI", "postcode": "53221-3633", "id": ""}, "geometry": {"type": "Point", "coordinates": [-87.920687, 42.9499973]}}
{"type": "Feature", "properties": {"hash": "76c975272735ceea", "number": "700", "street": "W ABBOTT AV", "unit": "", "city": "MILWAUKEE", "district": "", "region": "WI", "postcode": "53221-3635", "id": ""}, "geometry": {"type": "Point", "coordinates": [-87.9209597, 42.9499988]}}
{"type": "Feature", "properties": {"hash": "520086258d3145b4", "number": "707", "street": "W ABBOTT AV", "unit": "", "city": "MILWAUKEE", "district": "", "region": "WI", "postcode": "53221-3634", "id": ""}, "geometry": {"type": "Point", "coordinates": [-87.921069, 42.9495014]}}
{"type": "Feature", "properties": {"hash": "bdd4274492e171d3", "number": "711", "street": "W ABBOTT AV", "unit": "", "city": "MILWAUKEE", "district": "", "region": "WI", "postcode": "53221-3634", "id": ""}, "geometry": {"type": "Point", "coordinates": [-87.9212931, 42.9495025]}}
{"type": "Feature", "properties": {"hash": "3858fd00493e24a7", "number": "716", "street": "W ABBOTT AV", "unit": "", "city": "MILWAUKEE", "district": "", "region": "WI", "postcode": "53221-3635", "id": ""}, "geometry": {"type": "Point", "coordinates": [-87.9215051, 42.9500012]}}
{"type": "Feature", "properties": {"hash": "8426a5df13a2503b", "number": "1214", "street": "W LAYTON AV", "unit": "", "city": "MILWAUKEE", "district": "", "region": "WI", "postcode": "53221-2433", "id": ""}, "geometry": {"type": "Point", "coordinates": [-87.9282065, 42.9596965]}}
{"type": "Feature", "properties": {"hash": "62a5abedbea039ab", "number": "727", "street": "W ABBOTT AV", "unit": "", "city": "MILWAUKEE", "district": "", "region": "WI", "postcode": "53221-3634", "id": ""}, "geometry": {"type": "Point", "coordinates": [-87.9217467, 42.9495045]}}
{"type": "Feature", "properties": {"hash": "a8e1d023883c0a99", "number": "801", "street": "W ABBOTT AV", "unit": "", "city": "MILWAUKEE", "district": "", "region": "WI", "postcode": "53221-3636", "id": ""}, "geometry": {"type": "Point", "coordinates": [-87.9221976, 42.9495059]}}
{"type": "Feature", "properties": {"hash": "8707f2d21096e253", "number": "812", "street": "W ABBOTT AV", "unit": "", "city": "MILWAUKEE", "district": "", "region": "WI", "postcode": "53221-3637", "id": ""}, "geometry": {"type": "Point", "coordinates": [-87.9223862, 42.9500028]}}
{"type": "Feature", "properties": {"hash": "97fb4f77131166c2", "number": "827", "street": "W ABBOTT AV", "unit": "", "city": "MILWAUKEE", "district": "", "region": "WI", "postcode": "53221-3636", "id": ""}, "geometry": {"type": "Point", "coordinates": [-87.9228673, 42.9495092]}}
{"type": "Feature", "properties": {"hash": "8f5443f8b588748e", "number": "835", "street": "W ABBOTT AV", "unit": "", "city": "MILWAUKEE", "district": "", "region": "WI", "postcode": "53221-3636", "id": ""}, "geometry": {"type": "Point", "coordinates": [-87.9230915, 42.9495103]}}
{"type": "Feature", "properties": {"hash": "f1456719040164cf", "number": "1802", "street": "W ABBOTT AV", "unit": "", "city": "MILWAUKEE", "district": "", "region": "WI", "postcode": "53221-3508", "id": ""}, "geometry": {"type": "Point", "coordinates": [-87.9362899, 42.9504389]}}
{"type": "Feature", "properties": {"hash": "a77942350a19f221", "number": "1810", "street": "W ABBOTT AV", "unit": "", "city": "MILWAUKEE", "district": "", "region": "WI", "postcode": "53221-3508", "id": ""}, "geometry": {"type": "Point", "coordinates": [-87.9365143, 42.9504403]}}
{"type": "Feature", "properties": {"hash": "dec1e920b44166f1", "number": "1818", "street": "W ABBOTT AV", "unit": "", "city": "MILWAUKEE", "district": "", "region": "WI", "postcode": "53221-3508", "id": ""}, "geometry": {"type": "Point", "coordinates": [-87.9367384, 42.9504416]}}
{"type": "Feature", "properties": {"hash": "da399a795aa8724d", "number": "1819", "street": "W ABBOTT AV", "unit": "", "city": "MILWAUKEE", "district": "", "region": "WI", "postcode": "53221-3507", "id": ""}, "geometry": {"type": "Point", "coordinates": [-87.9367467, 42.9499478]}}
{"type": "Feature", "properties": {"hash": "cc69daa2b67aaf51", "number": "1827", "street": "W ABBOTT AV", "unit": "", "city": "MILWAUKEE", "district": "", "region": "WI", "postcode": "53221-3507", "id": ""}, "geometry": {"type": "Point", "coordinates": [-87.9369708, 42.9499492]}}
{"type": "Feature", "properties": {"hash": "475be1d748b6b4c4", "number": "1837", "street": "W ABBOTT AV", "unit": "", "city": "MILWAUKEE", "district": "", "region": "WI", "postcode": "53221-3507", "id": ""}, "geometry": {"type": "Point", "coordinates": [-87.9372048, 42.9499505]}}
{"type": "Feature", "properties": {"hash": "263e2a6dac218f45", "number": "2251", "street": "W ABBOTT AV", "unit": "", "city": "MILWAUKEE", "district": "", "region": "WI", "postcode": "53221-3566", "id": ""}, "geometry": {"type": "Point", "coordinates": [-87.9431156, 42.9500971]}}
{"type": "Feature", "properties": {"hash": "0420b42fd43df010", "number": "2301", "street": "W ABBOTT AV", "unit": "", "city": "MILWAUKEE", "district": "", "region": "WI", "postcode": "53221-3422", "id": ""}, "geometry": {"type": "Point", "coordinates": [-87.9443107, 42.9500891]}}
{"type": "Feature", "properties": {"hash": "b7230588fca4369e", "number": "2322", "street": "W ABBOTT AV", "unit": "", "city": "MILWAUKEE", "district": "", "region": "WI", "postcode": "53221-3423", "id": ""}, "geometry": {"type": "Point", "coordinates": [-87.94476, 42.9505486]}}
{"type": "Feature", "properties": {"hash": "0f2aa5427e0ebb84", "number": "2332", "street": "W ABBOTT AV", "unit": "", "city": "MILWAUKEE", "district": "", "region": "WI", "postcode": "53221-3423", "id": ""}, "geometry": {"type": "Point", "coordinates": [-87.9450402, 42.9505503]}}
{"type": "Feature", "properties": {"hash": "47991096ddee9cef", "number": "2420", "street": "W ABBOTT AV", "unit": "", "city": "MILWAUKEE", "district": "", "region": "WI", "postcode": "53221-3425", "id": ""}, "geometry": {"type": "Point", "coordinates": [-87.9458805, 42.9505552]}}
{"type": "Feature", "properties": {"hash": "86363d2066beb825", "number": "2423", "street": "W ABBOTT AV", "unit": "", "city": "MILWAUKEE", "district": "", "region": "WI", "postcode": "53221-3424", "id": ""}, "geometry": {"type": "Point", "coordinates": [-87.9459907, 42.9501125]}}
{"type": "Feature", "properties": {"id": "", "unit": "", "number": "W6285", "street": "SUMMIT AVE", "city": "BAY CITY", "district": "PIERCE", "region": "WI", "postcode": "54723", "hash": "f345aa53bcecd682"}, "geometry": {"type": "Point", "coordinates": [-92.4461263, 44.5874557]}}
{"type": "Feature", "properties": {"id": "", "unit": "", "number": "N1830", "street": "110TH ST", "city": "PLUM CITY", "district": "PIERCE", "region": "WI", "postcode": "54761", "hash": "dad18e24bbec4e03"}, "geometry": {"type": "Point", "coordinates": [-92.1837612, 44.6021021]}}
{"type": "Feature", "properties": {"id": "", "unit": "", "number": "W288", "street": "230TH AVE", "city": "PLUM CITY", "district": "PIERCE", "region": "WI", "postcode": "54761", "hash": "095c91574ffbf8de"}, "geometry": {"type": "Point", "coordinates": [-92.1443576, 44.6193226]}}
{"type": "Feature", "properties": {"id": "", "unit": "", "number": "W448", "street": "310TH AVE", "city": "PLUM CITY", "district": "PIERCE", "region": "WI", "postcode": "54761", "hash": "77a7dfdd88ea04b0"}, "geometry": {"type": "Point", "coordinates": [-92.1526475, 44.6490777]}}
{"type": "Feature", "properties": {"id": "", "unit": "", "number": "W446", "street": "310TH AVE", "city": "PLUM CITY", "district": "PIERCE", "region": "WI", "postcode": "54761", "hash": "77085feacaffd863"}, "geometry": {"type": "Point", "coordinates": [-92.1523186, 44.6491317]}}
{"type": "Feature", "properties": {"id": "", "unit": "", "number": "W798", "street": "310TH AVE", "city": "PLUM CITY", "district": "PIERCE", "region": "WI", "postcode": "54761", "hash": "79044b03515480a7"}, "geometry": {"type": "Point", "coordinates": [-92.1699128, 44.6498435]}}
{"type": "Feature", "properties": {"id": "", "unit": "", "number": "W1479", "street": "330TH AVE", "city": "PLUM CITY", "district": "PIERCE", "region": "WI", "postcode": "54761", "hash": "27d789a1e9ceeaf3"}, "geometry": {"type": "Point", "coordinates": [-92.20414, 44.6534371]}}
{"type": "Feature", "properties": {"id": "", "unit": "", "number": "N3461", "street": "50TH ST", "city": "ARKANSAW", "district": "PIERCE", "region": "WI", "postcode": "54721", "hash": "484da5f0a8440ae4"}, "geometry": {"type": "Point", "coordinates": [-92.1569017, 44.6608395]}}
{"type": "Feature", "properties": {"id": "", "unit": "", "number": "N3498", "street": "150TH ST", "city": "PLUM CITY", "district": "PIERCE", "region": "WI", "postcode": "54761", "hash": "fc9d444af205e30c"}, "geometry": {"type": "Point", "coordinates": [-92.2030159, 44.6618]}}
{"type": "Feature", "properties": {"id": "", "unit": "", "number": "W1898", "street": "370TH AVE", "city": "MAIDEN ROCK", "district": "PIERCE", "region": "WI", "postcode": "54750", "hash": "1ab9abc84f72f5c5"}, "geometry": {"type": "Point", "coordinates": [-92.2248001, 44.6704185]}}
{"type": "Feature", "properties": {"id": "", "unit": "", "number": "N3902", "street": "130TH ST", "city": "PLUM CITY", "district": "PIERCE", "region": "WI", "postcode": "54761", "hash": "17eb80c38bef76a9"}, "geometry": {"type": "Point", "coordinates": [-92.1845214, 44.6779076]}}
{"type": "Feature", "properties": {"id": "", "unit": "", "number": "N4065", "street": "150TH ST", "city": "PLUM CITY", "district": "PIERCE", "region": "WI", "postcode": "54761", "hash": "4f34c4110087becb"}, "geometry": {"type": "Point", "coordinates": [-92.2092465, 44.6832203]}}
{"type": "Feature", "properties": {"id": "", "unit": "", "number": "N2477", "street": "50TH ST", "city": "PLUM CITY", "district": "PIERCE", "region": "WI", "postcode": "54761", "hash": "df6589c89e7824e5"}, "geometry": {"type": "Point", "coordinates": [-92.1562373, 44.6254558]}}
{"type": "Feature", "properties": {"id": "", "unit": "", "number": "N2496", "street": "80TH ST", "city": "PLUM CITY", "district": "PIERCE", "region": "WI", "postcode": "54761", "hash": "c97169cb54ac0460"}, "geometry": {"type": "Point", "coordinates": [-92.166499, 44.625752]}}
{"type": "Feature", "properties": {"id": "", "unit": "", "number": "N2498", "street": "50TH ST", "city": "PLUM CITY", "district": "PIERCE", "region": "WI", "postcode": "54761", "hash": "32e60e6c839538e6"}, "geometry": {"type": "Point", "coordinates": [-92.1522643, 44.6254929]}}
{"type": "Feature", "properties": {"id": "", "unit": "", "number": "N2591", "street": "50TH ST", "city": "PLUM CITY", "district": "PIERCE", "region": "WI", "postcode": "54761", "hash": "54c81e9731791f3a"}, "geometry": {"type": "Point", "coordinates": [-92.1577095, 44.6292996]}}
{"type": "Feature", "properties": {"id": "", "unit": "", "number": "W602", "street": "270TH AVE", "city": "PLUM CITY", "district": "PIERCE", "region": "WI", "postcode": "54761", "hash": "0c1c931ee6e8e575"}, "geometry": {"type": "Point", "coordinates": [-92.1626353, 44.6374765]}}
{"type": "Feature", "properties": {"id": "", "unit": "", "number": "W662", "street": "170TH AVE", "city": "PLUM CITY", "district": "PIERCE", "region": "WI", "postcode": "54761", "hash": "4b9f1a82b051241e"}, "geometry": {"type": "Point", "coordinates": [-92.1654612, 44.597943]}}
{"type": "Feature", "properties": {"id": "", "unit": "", "number": "W316", "street": "170TH AVE", "city": "PLUM CITY", "district": "PIERCE", "region": "WI", "postcode": "54761", "hash": "7f81beecaf4351cb"}, "geometry": {"type": "Point", "coordinates": [-92.1458504, 44.5976509]}}
{"type": "Feature", "properties": {"id": "", "unit": "", "number": "N1752", "street": "20TH ST", "city": "PLUM CITY", "district": "PIERCE", "region": "WI", "postcode": "54761", "hash": "88f4869e4a2377c6"}, "geometry": {"type": "Point", "coordinates": [-92.1393792, 44.599651]}}
{"type": "Feature", "properties": {"id": "", "unit": "", "number": "N1761", "street": "130TH ST", "city": "PLUM CITY", "district": "PIERCE", "region": "WI", "postcode": "54761", "hash": "5aa75c6c908db1e3"}, "geometry": {"type": "Point", "coordinates": [-92.1908465, 44.598699]}}
{"type": "Feature", "properties": {"id": "", "unit": "", "number": "N1787", "street": "150TH ST", "city": "PLUM CITY", "district": "PIERCE", "region": "WI", "postcode": "54761", "hash": "ea5bbc853c996bdd"}, "geometry": {"type": "Point", "coordinates": [-92.2057376, 44.6007531]}}
{"type": "Feature", "properties": {"id": "", "unit": "", "number": "N1805", "street": "70TH ST", "city": "PLUM CITY", "district": "PIERCE", "region": "WI", "postcode": "54761", "hash": "fedcd1905178193c"}, "geometry": {"type": "Point", "coordinates": [-92.1643368, 44.6013282]}}
{"type": "Feature", "properties": {"id": "", "unit": "", "number": "N1843", "street": "20TH ST", "city": "PLUM CITY", "district": "PIERCE", "region": "WI", "postcode": "54761", "hash": "4e1223ba3c4553ad"}, "geometry": {"type": "Point", "coordinates": [-92.1401754, 44.6024689]}}
{"type": "Feature", "properties": {"id": "", "unit": "", "number": "N1848", "street": "190TH ST", "city": "MAIDEN ROCK", "district": "PIERCE", "region": "WI", "postcode": "54750", "hash": "03e9df182246dcbc"}, "geometry": {"type": "Point", "coordinates": [-92.2244921, 44.6027965]}}
{"type": "Feature", "properties": {"hash": "6e47ebe2967200db", "number": "N1310", "street": "LOCUST LN", "unit": "", "city": "Waupaca", "district": "", "region": "WI", "postcode": "54981", "id": ""}, "geometry": {"type": "Point", "coordinates": [-89.095659, 44.28797]}}
{"type": "Feature", "properties": {"hash": "cc4611d8e4f72cc3", "number": "N1310", "street": "LOCUST LN", "unit": "", "city": "Waupaca", "district": "", "region": "WI", "postcode": "54981", "id": ""}, "geometry": {"type": "Point", "coordinates": [-89.0958456, 44.2879745]}}
{"type": "Feature", "properties": {"hash": "c1f05b1c8aaf20a1", "number": "N1310", "street": "LOCUST LN", "unit": "", "city": "Waupaca", "district": "", "region": "WI", "postcode": "54981", "id": ""}, "geometry": {"type": "Point", "coordinates": [-89.0961496, 44.2879788]}}
{"type": "Feature", "properties": {"hash": "dfcdd61d6e1966b9", "number": "N1310", "street": "LOCUST LN", "unit": "", "city": "Waupaca", "district": "", "region": "WI", "postcode": "54981", "id": ""}, "geometry": {"type": "Point", "coordinates": [-89.0962947, 44.2879834]}}
{"type": "Feature", "properties": {"hash": "1835a753423219e9", "number": "N1310", "street": "LOCUST LN", "unit": "", "city": "Waupaca", "district": "", "region": "WI", "postcode": "54981", "id": ""}, "geometry": {"type": "Point", "coordinates": [-89.0964468, 44.287988]}}
{"type": "Feature", "properties": {"hash": "f84d87f0fe5a4f86", "number": "N1310", "street": "LOCUST LN", "unit": "", "city": "Waupaca", "district": "", "region": "WI", "postcode": "54981", "id": ""}, "geometry": {"type": "Point", "coordinates": [-89.0950232, 44.2879468]}}
{"type": "Feature", "properties": {"hash": "17340babe8f31690", "number": "N1310", "street": "LOCUST LN", "unit": "", "city": "Waupaca", "district": "", "region": "WI", "postcode": "54981", "id": ""}, "geometry": {"type": "Point", "coordinates": [-89.0966195, 44.2879925]}}
{"type": "Feature", "properties": {"hash": "ab6c6eddb792c045", "number": "N1310", "street": "LOCUST LN", "unit": "", "city": "Waupaca", "district": "", "region": "WI", "postcode": "54981", "id": ""}, "geometry": {"type": "Point", "coordinates": [-89.0964531, 44.2878639]}}
{"type": "Feature", "properties": {"hash": "c6fde011b4612f96", "number": "N1310", "street": "LOCUST LN", "unit": "", "city": "Waupaca", "district": "", "region": "WI", "postcode": "54981", "id": ""}, "geometry": {"type": "Point", "coordinates": [-89.096308, 44.2878592]}}
{"type": "Feature", "properties": {"hash": "3fb75d7e45416e71", "number": "N1310", "street": "LOCUST LN", "unit": "", "city": "Waupaca", "district": "", "region": "WI", "postcode": "54981", "id": ""}, "geometry": {"type": "Point", "coordinates": [-89.0961628, 44.2878497]}}
{"type": "Feature", "properties": {"hash": "15f900c51dc3cdd2", "number": "N1310", "street": "LOCUST LN", "unit": "", "city": "Waupaca", "district": "", "region": "WI", "postcode": "54981", "id": ""}, "geometry": {"type": "Point", "coordinates": [-89.0960039, 44.2878451]}}
{"type": "Feature", "properties": {"hash": "53808837b7b028fc", "number": "N1310", "street": "LOCUST LN", "unit": "", "city": "Waupaca", "district": "", "region": "WI", "postcode": "54981", "id": ""}, "geometry": {"type": "Point", "coordinates": [-89.0958588, 44.2878455]}}
{"type": "Feature", "properties": {"hash": "e802f5889ed31a85", "number": "N4553", "street": "PINE PLAIN RD", "unit": "", "city": "Waupaca", "district": "", "region": "WI", "postcode": "54981", "id": ""}, "geometry": {"type": "Point", "coordinates": [-89.0529625, 44.4048647]}}
{"type": "Feature", "properties": {"hash": "5c476c215e5fbff2", "number": "E8548", "street": "RINDT RD", "unit": "", "city": "Clintonville", "district": "", "region": "WI", "postcode": "54929", "id": ""}, "geometry": {"type": "Point", "coordinates": [-88.7953471, 44.6566732]}}
{"type": "Feature", "properties": {"hash": "2a6dc24d6fb551dc", "number": "N335", "street": "MARTEN RD", "unit": "", "city": "Fremont", "district": "", "region": "WI", "postcode": "54940", "id": ""}, "geometry": {"type": "Point", "coordinates": [-88.8202221, 44.2518557]}}
{"type": "Feature", "properties": {"hash": "52b423145705d776", "number": "E9040", "street": "KENDALL LN", "unit": "", "city": "New London", "district": "", "region": "WI", "postcode": "54961", "id": ""}, "geometry": {"type": "Point", "coordinates": [-88.770668, 44.3659111]}}
{"type": "Feature", "properties": {"hash": "c15c9e28b84f1f01", "number": "N4588", "street": "KRISEL LN", "unit": "", "city": "Ogdensburg", "district": "", "region": "WI", "postcode": "54962", "id": ""}, "geometry": {"type": "Point", "coordinates": [-88.9934265, 44.4059483]}}
{"type": "Feature", "properties": {"hash": "5aa69c9eb767f3d5", "number": "N3355", "street": "FRANCES LN", "unit": "", "city": "New London", "district": "", "region": "WI", "postcode": "54961", "id": ""}, "geometry": {"type": "Point", "coordinates": [-88.7421018, 44.3613384]}}
{"type": "Feature", "properties": {"hash": "cde5db2da27770e6", "number": "N3350", "street": "FRANCES LN", "unit": "", "city": "New London", "district": "", "region": "WI", "postcode": "54961", "id": ""}, "geometry": {"type": "Point", "coordinates": [-88.7408709, 44.3607293]}}
{"type": "Feature", "properties": {"hash": "61b194bf96c614af", "number": "E9652", "street": "PINE TREE LN", "unit": "", "city": "New London", "district": "", "region": "WI", "postcode": "54961", "id": ""}, "geometry": {"type": "Point", "coordinates": [-88.7405162, 44.3664796]}}
{"type": "Feature", "properties": {"hash": "37edbaa8590b6bf6", "number": "E8915", "street": "BROKEN BRANCH LN", "unit": "", "city": "New London", "district": "", "region": "WI", "postcode": "54961", "id": ""}, "geometry": {"type": "Point", "coordinates": [-88.7770494, 44.3270959]}}
{"type": "Feature", "properties": {"hash": "4f37ea601852c22d", "number": "N2123", "street": "FOX RIDGE LN", "unit": "", "city": "New London", "district": "", "region": "WI", "postcode": "54961", "id": ""}, "geometry": {"type": "Point", "coordinates": [-88.7655604, 44.3168197]}}
{"type": "Feature", "properties": {"hash": "6abfbc6bb91152b3", "number": "N9995", "street": "HWY 49", "unit": "", "city": "Iola", "district": "", "region": "WI", "postcode": "54945", "id": ""}, "geometry": {"type": "Point", "coordinates": [-89.2137779, 44.6014428]}}
{"type": "Feature", "properties": {"hash": "6fd08ebeab3f827a", "number": "E6547", "street": "CTY HWY X", "unit": "", "city": "Weyauwega", "district": "", "region": "WI", "postcode": "54983", "id": ""}, "geometry": {"type": "Point", "coordinates": [-88.897839, 44.3454961]}}
{"type": "Feature", "properties": {"hash": "a09e7317b9a3aed6", "number": "E7190", "street": "HWY 54", "unit": "", "city": "New London", "district": "", "region": "WI", "postcode": "54961", "id": ""}, "geometry": {"type": "Point", "coordinates": [-88.8668975, 44.4119148]}}
{"type": "Feature", "properties": {"hash": "5f9f9cf9e0525619", "number": "1122", "street": "Hines Rd", "unit": "", "city": "Town of Remington", "district": "", "region": "WI", "postcode": "54413", "id": ""}, "geometry": {"type": "Point", "coordinates": [-90.0906468, 44.2859186]}}
{"type": "Feature", "properties": {"hash": "9310e506973d447a", "number": "1545", "street": "Necedah Rd", "unit": "", "city": "Town of Remington", "district": "", "region": "WI", "postcode": "54413", "id": ""}, "geometry": {"type": "Point", "coordinates": [-90.1159924, 44.3001182]}}
{"type": "Feature", "properties": {"hash": "8bb41b15b4c0a877", "number": "1044A", "street": "STH 80", "unit": "", "city": "Town of Remington", "district": "", "region": "WI", "postcode": "54413", "id": ""}, "geometry": {"type": "Point", "coordinates": [-90.1318787, 44.2808589]}}
{"type": "Feature", "properties": {"hash": "d4e27d22ee4a97d2", "number": "6130", "street": "STH 173", "unit": "", "city": "Town of Cranmoor", "district": "", "region": "WI", "postcode": "54495", "id": ""}, "geometry": {"type": "Point", "coordinates": [-90.0264122, 44.3246169]}}
{"type": "Feature", "properties": {"hash": "7769324b416f653f", "number": "2818", "street": "STH 80", "unit": "", "city": "Town of Dexter", "district": "", "region": "WI", "postcode": "54495", "id": ""}, "geometry": {"type": "Point", "coordinates": [-90.1079283, 44.3460168]}}
{"type": "Feature", "properties": {"hash": "2d6f7c322e2ac711", "number": "1197", "street": "Hazelnut Trl", "unit": "", "city": "Town of Port Edwards", "district": "", "region": "WI", "postcode": "54413", "id": ""}, "geometry": {"type": "Point", "coordinates": [-90.0808349, 44.2887782]}}
{"type": "Feature", "properties": {"hash": "3ffc8197a4f45241", "number": "6136", "street": "STH 173", "unit": "", "city": "Town of Cranmoor", "district": "", "region": "WI", "postcode": "54495", "id": ""}, "geometry": {"type": "Point", "coordinates": [-90.028383, 44.3243186]}}
{"type": "Feature", "properties": {"hash": "7cc400da6ca14e64", "number": "1644", "street": "Oak St", "unit": "", "city": "Town of Remington", "district": "", "region": "WI", "postcode": "54413", "id": ""}, "geometry": {"type": "Point", "coordinates": [-90.1086152, 44.3050456]}}
{"type": "Feature", "properties": {"hash": "f4e7e0f883d586a7", "number": "2260", "street": "CTH D", "unit": "", "city": "Town of Cranmoor", "district": "", "region": "WI", "postcode": "54495", "id": ""}, "geometry": {"type": "Point", "coordinates": [-90.0382571, 44.3291647]}}
{"type": "Feature", "properties": {"hash": "8d1e06233ccc6532", "number": "2570", "street": "Cranberry Rd", "unit": "", "city": "Town of Hiles", "district": "", "region": "WI", "postcode": "54466", "id": ""}, "geometry": {"type": "Point", "coordinates": [-90.3155274, 44.339706]}}
{"type": "Feature", "properties": {"hash": "b11f07e0490335a2", "number": "7380", "street": "Partridge Ln", "unit": "", "city": "Town of Dexter", "district": "", "region": "WI", "postcode": "54495", "id": ""}, "geometry": {"type": "Point", "coordinates": [-90.0852327, 44.3526053]}}
{"type": "Feature", "properties": {"hash": "e5b0d672752ef463", "number": "1527", "street": "STH 80", "unit": "", "city": "Town of Remington", "district": "", "region": "WI", "postcode": "54495", "id": ""}, "geometry": {"type": "Point", "coordinates": [-90.1157062, 44.3025034]}}
{"type": "Feature", "properties": {"hash": "78eb30c23d804f9b", "number": "1576", "street": "Pine St", "unit": "", "city": "Town of Remington", "district": "", "region": "WI", "postcode": "54413", "id": ""}, "geometry": {"type": "Point", "coordinates": [-90.1113741, 44.3025359]}}
{"type": "Feature", "properties": {"hash": "e3a23b0a57629baf", "number": "1582", "street": "STH 80", "unit": "", "city": "Town of Remington", "district": "", "region": "WI", "postcode": "54413", "id": ""}, "geometry": {"type": "Point", "coordinates": [-90.1099371, 44.3026774]}}
{"type": "Feature", "properties": {"hash": "41896adf741bff10", "number": "1579", "street": "Oak St", "unit": "", "city": "Town of Remington", "district": "", "region": "WI", "postcode": "54413", "id": ""}, "geometry": {"type": "Point", "coordinates": [-90.109064, 44.3026445]}}
{"type": "Feature", "properties": {"hash": "6179426c5a8bc944", "number": "1576", "street": "Oak St", "unit": "", "city": "Town of Remington", "district": "", "region": "WI", "postcode": "54413", "id": ""}, "geometry": {"type": "Point", "coordinates": [-90.1084759, 44.3026118]}}
{"type": "Feature", "properties": {"hash": "0e71e8d7b67a3a35", "number": "1578", "street": "STH 80", "unit": "", "city": "Town of Remington", "district": "", "region": "WI", "postcode": "54413", "id": ""}, "geometry": {"type": "Point", "coordinates": [-90.1099134, 44.3025219]}}
{"type": "Feature", "properties": {"hash": "2546e3f4e36c1396", "number": "1572", "street": "Oak St", "unit": "", "city": "Town of Remington", "district": "", "region": "WI", "postcode": "54413", "id": ""}, "geometry": {"type": "Point", "coordinates": [-90.1084929, 44.3024239]}}
{"type": "Feature", "properties": {"hash": "c40793191d9e7bbe", "number": "1574", "street": "STH 80", "unit": "", "city": "Town of Remington", "district": "", "region": "WI", "postcode": "54413", "id": ""}, "geometry": {"type": "Point", "coordinates": [-90.1098858, 44.3024053]}}
{"type": "Feature", "properties": {"hash": "4de42b2523cda4c1", "number": "1571", "street": "Oak St", "unit": "", "city": "Town of Remington", "district": "", "region": "WI", "postcode": "54413", "id": ""}, "geometry": {"type": "Point", "coordinates": [-90.1090438, 44.3023639]}}
{"type": "Feature", "properties": {"hash": "2279f8384022b65d", "number": "1566", "street": "STH 80", "unit": "", "city": "Town of Remington", "district": "", "region": "WI", "postcode": "54413", "id": ""}, "geometry": {"type": "Point", "coordinates": [-90.1098752, 44.3021682]}}
{"type": "Feature", "properties": {"hash": "6a7a7d3e3a550640", "number": "1157", "street": "STH 173", "unit": "", "city": "Town of Remington", "district": "", "region": "WI", "postcode": "54413", "id": ""}, "geometry": {"type": "Point", "coordinates": [-90.1380221, 44.2866123]}}
{"type": "Feature", "properties": {"hash": "7fb986a0a943443d", "number": "1147", "street": "Hines Rd", "unit": "", "city": "Town of Remington", "district": "", "region": "WI", "postcode": "54413", "id": ""}, "geometry": {"type": "Point", "coordinates": [-90.0913641, 44.2865933]}}
{"type": "Feature", "properties": {"hash": "95742954adf05467", "number": "1148", "street": "Hines Rd", "unit": "", "city": "Town of Remington", "district": "", "region": "WI", "postcode": "54413", "id": ""}, "geometry": {"type": "Point", "coordinates": [-90.0905859, 44.2866005]}}
{"type": "Feature", "properties": {"hash": "2f5002602a48e4e2", "number": "1161", "street": "STH 80", "unit": "", "city": "Town of Remington", "district": "", "region": "WI", "postcode": "54413", "id": ""}, "geometry": {"type": "Point", "coordinates": [-90.1316857, 44.2873047]}}
