street,city,state,zip
26800 EKLUTNA VILLAGE RD,Chugiak,AK,99567
26960 EKLUTNA VILLAGE RD,Chugiak,AK,99567
26636 EKLUTNA VILLAGE RD,Chugiak,AK,99567
26585 EKLUTNA VILLAGE RD,Chugiak,AK,99567
26612 EKLUTNA VILLAGE RD,Chugiak,AK,99567
26527 EKLUTNA VILLAGE RD,Chugiak,AK,99567
26527 EKLUTNA VILLAGE RD,Chugiak,AK,99567
26527 EKLUTNA VILLAGE RD,Chugiak,AK,99567
26527 EKLUTNA VILLAGE RD,Chugiak,AK,99567
26450 EKLUTNA VILLAGE RD,Chugiak,AK,99567
26428 EKLUTNA VILLAGE RD,Chugiak,AK,99567
26439 EKLUTNA VILLAGE RD,Chugiak,AK,99567
28350 GLACIER LOOP RD,Chugiak,AK,99567
26339 EKLUTNA VILLAGE RD,Chugiak,AK,99567
26338 EKLUTNA VILLAGE RD,Chugiak,AK,99567
26301 RUSTICATE DR,Chugiak,AK,99567
26281 RUSTICATE DR,Chugiak,AK,99567
27540 HARICOT DR,Chugiak,AK,99567
27522 HARICOT DR,Chugiak,AK,99567
27508 HARICOT DR,Chugiak,AK,99567
26118 RUSTICATE DR,Chugiak,AK,99567
26106 RUSTICATE DR,Chugiak,AK,99567
26101 OLD GLENN HWY,Chugiak,AK,99567
26044 HARICOT CIR,Chugiak,AK,99567
26034 HARICOT CIR,Chugiak,AK,99567
26024 HARICOT CIR,Chugiak,AK,99567
26015 HARICOT CIR,Chugiak,AK,99567
26014 HARICOT CIR,Chugiak,AK,99567
38035 ROSEHIP RIDGE RD,Chugiak,AK,99567
38283 ROSEHIP RIDGE RD,Chugiak,AK,99567
34683 EKLUTNA LAKE RD,Chugiak,AK,99567
34620 EKLUTNA LAKE RD,Chugiak,AK,99567
34709 EKLUTNA LAKE RD,Chugiak,AK,99567
35400 EKLUTNA LAKE RD,Chugiak,AK,99567
35851 EKLUTNA LAKE RD,Chugiak,AK,99567
35780 EKLUTNA LAKE RD,Chugiak,AK,99567
35790 EKLUTNA LAKE RD,Chugiak,AK,99567
35845 EKLUTNA LAKE RD,Chugiak,AK,99567
35850 EKLUTNA LAKE RD,Chugiak,AK,99567
35900 EKLUTNA LAKE RD,Chugiak,AK,99567
35870 EKLUTNA LAKE RD,Chugiak,AK,99567
32551 EKLUTNA LAKE RD,Chugiak,AK,99567
31401 EKLUTNA LAKE RD,Chugiak,AK,99567
30001 EKLUTNA LAKE RD,Chugiak,AK,99567
31085 EKLUTNA LAKE RD,Chugiak,AK,99567
25351 OLD GLENN HWY,Chugiak,AK,99567
25321 OLD GLENN HWY,Chugiak,AK,99567
25240 THUNDERBIRD DR,Chugiak,AK,99567
27339 GOLDEN EAGLE CT,Chugiak,AK,99567
25210 THUNDERBIRD DR,Chugiak,AK,99567
27333 GOLDEN EAGLE CT,Chugiak,AK,99567
27345 GOLDEN EAGLE CT,Chugiak,AK,99567
25144 THUNDERBIRD DR,Chugiak,AK,99567
27336 GOLDEN EAGLE CT,Chugiak,AK,99567
25122 THUNDERBIRD DR,Chugiak,AK,99567
27211 FALCON DR,Chugiak,AK,99567
27231 FALCON DR,Chugiak,AK,99567
25111 THUNDERBIRD DR,Chugiak,AK,99567
27220 FALCON DR,Chugiak,AK,99567
25043 THUNDERBIRD DR,Chugiak,AK,99567
27366 GOSHAWK CT,Chugiak,AK,99567
25034 THUNDERBIRD DR,Chugiak,AK,99567
27346 GOSHAWK CT,Chugiak,AK,99567
27326 GOSHAWK CT,Chugiak,AK,99567
27306 GOSHAWK CT,Chugiak,AK,99567
25016 THUNDERBIRD DR,Chugiak,AK,99567
24946 THUNDERBIRD DR,Chugiak,AK,99567
24939 THUNDERBIRD DR,Chugiak,AK,99567
24928 THUNDERBIRD DR,Chugiak,AK,99567
24853 TEAL LOOP,Chugiak,AK,99567
24845 TEAL LOOP,Chugiak,AK,99567
24837 TEAL LOOP,Chugiak,AK,99567
27231 SANDPIPER CT,Chugiak,AK,99567
24823 TEAL LOOP,Chugiak,AK,99567
24865 THUNDERBIRD DR,Chugiak,AK,99567
27217 SANDPIPER CT,Chugiak,AK,99567
27232 SANDPIPER CT,Chugiak,AK,99567
24865 TEAL LOOP,Chugiak,AK,99567
24807 TEAL LOOP,Chugiak,AK,99567
24817 THUNDERBIRD DR,Chugiak,AK,99567
24824 TEAL LOOP,Chugiak,AK,99567
24805 THUNDERBIRD DR,Chugiak,AK,99567
24839 THUNDERBIRD DR,Chugiak,AK,99567
24854 TEAL LOOP,Chugiak,AK,99567
24743 TEAL LOOP,Chugiak,AK,99567
27222 SANDPIPER CT,Chugiak,AK,99567
24808 TEAL LOOP,Chugiak,AK,99567
27212 SANDPIPER CT,Chugiak,AK,99567
24810 THUNDERBIRD DR,Chugiak,AK,99567
24846 THUNDERBIRD DR,Chugiak,AK,99567
24744 TEAL LOOP,Chugiak,AK,99567
24832 THUNDERBIRD DR,Chugiak,AK,99567
24737 THUNDERBIRD DR,Chugiak,AK,99567
24739 TEAL LOOP,Chugiak,AK,99567
24888 TEAL LOOP,Chugiak,AK,99567
24723 TEAL LOOP,Chugiak,AK,99567
24712 TEAL LOOP,Chugiak,AK,99567
24709 TEAL LOOP,Chugiak,AK,99567
24707 THUNDERBIRD DR,Chugiak,AK,99567
24643 TEAL LOOP,Chugiak,AK,99567
