street,city,state,zip
200 QUAPAW AVE,HOT SPRINGS,AR,71901
605 QUAPAW AVE,HOT SPRINGS,AR,71901
201 AFTON ST,HOT SPRINGS,AR,71913
217 AFTON ST,HOT SPRINGS,AR,71913
205 ASH ST,HOT SPRINGS,AR,71901
108 BAFANRIDGE ST,HOT SPRINGS,AR,71901
110 BAFANRIDGE ST,HOT SPRINGS,AR,71901
107 BARRETT ST,HOT SPRINGS,AR,71901
229 BAYARD ST,HOT SPRINGS,AR,71901
102 BAYBERRY ST,HOT SPRINGS,AR,71901
204 BELLVIEW ST,HOT SPRINGS,AR,71901
602 BELLVIEW ST,HOT SPRINGS,AR,71901
606 BELLVIEW ST,HOT SPRINGS,AR,71901
610 BELLVIEW ST,HOT SPRINGS,AR,71901
614 BELLVIEW ST,HOT SPRINGS,AR,71901
618 BELLVIEW ST,HOT SPRINGS,AR,71901
622 BELLVIEW ST,HOT SPRINGS,AR,71901
104 BENTTREE CT,HOT SPRINGS,AR,71913
118 BLAKE ST,HOT SPRINGS,AR,71901
226 BLUFF ST,HOT SPRINGS,AR,71901
104 BOND CT,HOT SPRINGS,AR,71901
104 BRENTWOOD ST,HOT SPRINGS,AR,71901
105 BRENTWOOD ST,HOT SPRINGS,AR,71901
113 BRIDGEVIEW CIR,HOT SPRINGS,AR,71913
102 BRYAN PAUL ST,HOT SPRINGS,AR,71901
104 BRYAN PAUL ST,HOT SPRINGS,AR,71901
105 BRYAN PAUL ST,HOT SPRINGS,AR,71901
777 CARPENTER DAM RD,HOT SPRINGS,AR,71901
258 CATHERINE HEIGHTS RD,HOT SPRINGS,AR,71901
267 CATHERINE HEIGHTS LOOP,HOT SPRINGS,AR,71901
200 CATHERINE HEIGHTS LOOP,HOT SPRINGS,AR,71901
408 CEDAR ST,HOT SPRINGS,AR,71901
105 CENTERWOOD ST,HOT SPRINGS,AR,71901
507 CHATTANOOGA ST,HOT SPRINGS,AR,71901
617 CHATTANOOGA ST,HOT SPRINGS,AR,71901
152 CHELLE ST,HOT SPRINGS,AR,71901
210 CHELSEA ST,HOT SPRINGS,AR,71901
323 SHAWNEE ST,HOT SPRINGS,AR,71901
401 SPRING ST,HOT SPRINGS,AR,71901
201 CLAIRMONT ST,HOT SPRINGS,AR,71901
207 CLAIRMONT ST,HOT SPRINGS,AR,71901
107 CLARK ST,HOT SPRINGS,AR,71913
109 CLARK ST,HOT SPRINGS,AR,71913
30 CLIFF LOOP,HOT SPRINGS,AR,71913
40 CLIFF LOOP,HOT SPRINGS,AR,71913
70 CLIFF LOOP,HOT SPRINGS,AR,71913
80 CLIFF LOOP,HOT SPRINGS,AR,71913
55 CLIFF LOOP,HOT SPRINGS,AR,71913
90 CLIFF LOOP,HOT SPRINGS,AR,71913
332 CONES RD,HOT SPRINGS,AR,71901
146 Ouachita 88 Rd,Camden,AR,71701
186 Ouachita 88 Rd,Camden,AR,71701
337 Ouachita 88 Rd,Camden,AR,71701
356 Ouachita 88 Rd,Camden,AR,71701
362 Ouachita 88 Rd,Camden,AR,71701
446 Ouachita 43 Rd,Camden,AR,71701
408 Ouachita 88 Rd,Camden,AR,71701
410 Ouachita 88 Rd,Camden,AR,71701
503 Ouachita 88 Rd,Camden,AR,71701
511 Ouachita 88 Rd,Camden,AR,71701
513 Ouachita 88 Rd,Camden,AR,71701
522 Ouachita 88 Rd,Camden,AR,71701
527 Ouachita 88 Rd,Camden,AR,71701
537 Ouachita 88 Rd,Camden,AR,71701
549 Ouachita 88 Rd,Camden,AR,71701
877 1st St NE,Bearden,AR,71720
104 Ouachita 85 Rd,Bearden,AR,71720
129 Ouachita 284 Rd,Bearden,AR,71720
141 Ouachita 284 Rd,Bearden,AR,71720
143 Ouachita 284 Rd,Bearden,AR,71720
151 Ouachita 284 Rd,Bearden,AR,71720
327 Ouachita 85 Rd,Bearden,AR,71720
327 Ouachita 85 Rd,Bearden,AR,71720
338 Ouachita 85 Rd,Bearden,AR,71720
341 Ouachita 85 Rd,Bearden,AR,71720
347 Ouachita 85 Rd,Bearden,AR,71720
1100 1st St NE,Bearden,AR,71720
112 Ouachita 291 Rd,Bearden,AR,71720
118 Ouachita 291 Rd,Bearden,AR,71720
122 Ouachita 291 Rd,Bearden,AR,71720
124 Ouachita 291 Rd,Bearden,AR,71720
125 Ouachita 583 Rd,Bearden,AR,71720
137 Ouachita 583 Rd,Bearden,AR,71720
151 Ouachita 583 Rd,Bearden,AR,71720
163 Ouachita 583 Rd,Bearden,AR,71720
112 Ouachita 247 Rd,Bearden,AR,71720
126 Ouachita 247 Rd,Bearden,AR,71720
1598 Highway 203 Hwy,Bearden,AR,71720
1601 Highway 203 Hwy,Bearden,AR,71720
1625 Highway 203 Hwy,Bearden,AR,71720
1410 Highway 203 Hwy,Bearden,AR,71720
1443 Highway 203 Hwy,Bearden,AR,71720
4000 Highway 79 Hwy N,Bearden,AR,71720
126 Ouachita 90 Rd,Bearden,AR,71720
150 Ouachita 221 Rd,Bearden,AR,71720
165 Ouachita 221 Rd,Bearden,AR,71720
145 Ouachita 284 Rd,Bearden,AR,71720
185 Ouachita 257 Rd,Bearden,AR,71720
235 Ouachita 257 Rd,Bearden,AR,71720
344 Ouachita 85 Rd,Bearden,AR,71720
