street,city,state,zip
304 S OSO DORADO DR,PAYSON,AZ,85541
304 S GOLDEN BEAR PT,PAYSON,AZ,85541
305 S GOLDEN BEAR PT,PAYSON,AZ,85541
5626 E ROBERTS DR,GLOBE,AZ,85501
5614 E ROBERTS DR,GLOBE,AZ,85501
5574 E ROBERTS DR,GLOBE,AZ,85501
5513 E ROBERTS DR,GLOBE,AZ,85501
5501 E ROBERTS DR,GLOBE,AZ,85501
5493 E ROBERTS DR,GLOBE,AZ,85501
5483 E ROBERTS DR,GLOBE,AZ,85501
5463 E ROBERTS DR,GLOBE,AZ,85501
5460 E APACHE HILLS LN,GLOBE,AZ,85501
5494 E APACHE HILLS LN,GLOBE,AZ,85501
5504 E APACHE HILLS LN,GLOBE,AZ,85501
5512 E APACHE HILLS LN,GLOBE,AZ,85501
5522 E APACHE HILLS LN,GLOBE,AZ,85501
5377 E WASHBORN ST,GLOBE,AZ,85501
5453 E WASHBORN ST,GLOBE,AZ,85501
6071 W RIMVIEW DR,PINE,AZ,85544
6053 W RIMVIEW DR,PINE,AZ,85544
256 N SECOND ST,GLOBE,AZ,85501
108 W HILLSIDE DR,HAYDEN,AZ,85135
114 W HILLSIDE DR,HAYDEN,AZ,85135
118 W HILLSIDE DR,HAYDEN,AZ,85135
512 N SAN PEDRO RD,HAYDEN,AZ,85135
194 E HILLSIDE DR,HAYDEN,AZ,85135
213 E HILLSIDE DR,HAYDEN,AZ,85135
218 E HILLSIDE DR,HAYDEN,AZ,85135
521 N SAN PEDRO RD,HAYDEN,AZ,85135
524 N SAN PEDRO RD,HAYDEN,AZ,85135
533 N SAN PEDRO RD,HAYDEN,AZ,85135
100 N MOUNTAIN VW,HAYDEN,AZ,85135
521 W AZ HIGHWAY 177,HAYDEN,AZ,85135
534 W AZ HIGHWAY 177,HAYDEN,AZ,85135
573 W AZ HIGHWAY 177,HAYDEN,AZ,85135
597 W AZ HIGHWAY 177,HAYDEN,AZ,85135
607 W AZ HIGHWAY 177,HAYDEN,AZ,85135
621 W AZ HIGHWAY 177,HAYDEN,AZ,85135
637 W AZ HIGHWAY 177,HAYDEN,AZ,85135
679 W AZ HIGHWAY 177,HAYDEN,AZ,85135
721 W AZ HIGHWAY 177,HAYDEN,AZ,85135
692 W AZ HIGHWAY 177,HAYDEN,AZ,85135
676 W AZ HIGHWAY 177,HAYDEN,AZ,85135
660 W AZ HIGHWAY 177,HAYDEN,AZ,85135
648 W AZ HIGHWAY 177,HAYDEN,AZ,85135
189 N MOUNTAIN VW,HAYDEN,AZ,85135
201 N MOUNTAIN VW,HAYDEN,AZ,85135
215 N MOUNTAIN VW,HAYDEN,AZ,85135
227 N MOUNTAIN VW,HAYDEN,AZ,85135
239 N MOUNTAIN VW,HAYDEN,AZ,85135
2195 MALAHINI,Lake Havasu City,AZ,86404
1345 AVALON,Lake Havasu City,AZ,86404
1487 BEEFEATER,Lake Havasu City,AZ,86404
1425 PATRICIAN,Lake Havasu City,AZ,86404
1495 AVALON,Lake Havasu City,AZ,86404
2346 MANDALAY,Lake Havasu City,AZ,86404
1489 BEEFEATER,Lake Havasu City,AZ,86404
2375 PALO VERDE NORTH,Lake Havasu City,AZ,86404
1470 TANQUERAY,Lake Havasu City,AZ,86404
2065 PALO VERDE NORTH,Lake Havasu City,AZ,86404
2216 PALO VERDE NORTH,Lake Havasu City,AZ,86404
2135 LAKE HAVASU,Lake Havasu City,AZ,86404
1375 TANQUERAY,Lake Havasu City,AZ,86404
1445 NAUTILUS,Lake Havasu City,AZ,86404
2325 REGATTA,Lake Havasu City,AZ,86404
1605 AVALON,Lake Havasu City,AZ,86404
2319 PORPOISE,Lake Havasu City,AZ,86404
1445 LAKE HAVASU NORTH,Lake Havasu City,AZ,86404
1675 AVALON,Lake Havasu City,AZ,86404
2185 MALAHINI,Lake Havasu City,AZ,86404
2270 HILLSIDE,Lake Havasu City,AZ,86404
2280 MALAHINI,Lake Havasu City,AZ,86404
2125 BOMBAY,Lake Havasu City,AZ,86404
2370 INVERNESS,Lake Havasu City,AZ,86404
2220 INTERCEPTOR,Lake Havasu City,AZ,86404
1395 LAKE HAVASU NORTH,Lake Havasu City,AZ,86404
2475 MANDALAY,Lake Havasu City,AZ,86404
1667 RIVERBELLE,Lake Havasu City,AZ,86404
1236 LAKE HAVASU NORTH,Lake Havasu City,AZ,86404
2375 FLAGSHIP,Lake Havasu City,AZ,86404
1545 AVALON,Lake Havasu City,AZ,86404
1290 BOMBAY,Lake Havasu City,AZ,86404
2075 BOMBAY,Lake Havasu City,AZ,86404
1515 LAKE HAVASU NORTH,Lake Havasu City,AZ,86404
1645 AVALON,Lake Havasu City,AZ,86404
1320 TANQUERAY,Lake Havasu City,AZ,86404
2371 MALAHINI,Lake Havasu City,AZ,86404
2210 MALAHINI,Lake Havasu City,AZ,86404
1235 LAKE HAVASU,Lake Havasu City,AZ,86404
2135 LAKE HAVASU,Lake Havasu City,AZ,86404
1340 TANQUERAY,Lake Havasu City,AZ,86404
2396 MALAHINI,Lake Havasu City,AZ,86404
2355 SWIFT,Lake Havasu City,AZ,86404
2050 HILLSIDE,Lake Havasu City,AZ,86404
1420 LAKE HAVASU NORTH,Lake Havasu City,AZ,86404
2310 SWIFT,Lake Havasu City,AZ,86404
1315 BOMBAY,Lake Havasu City,AZ,86404
1669 AVALON,Lake Havasu City,AZ,86404
1570 NEPTUNE,Lake Havasu City,AZ,86404
1385 LAKE HAVASU NORTH,Lake Havasu City,AZ,86404
