street,city,state,zip
510 E 10TH ST,BAKERSFIELD,CA,93307
513 E 10TH ST,BAKERSFIELD,CA,93307
513 1/2 E 10TH ST,BAKERSFIELD,CA,93307
515 E 10TH ST,BAKERSFIELD,CA,93307
515 1/2 E 10TH ST,BAKERSFIELD,CA,93307
530 E 10TH ST,BAKERSFIELD,CA,93307
600 E 10TH ST,BAKERSFIELD,CA,93307
601 E 10TH ST,BAKERSFIELD,CA,93307
601 E 10TH ST,BAKERSFIELD,CA,93307
601 E 10TH ST,BAKERSFIELD,CA,93307
610 E 10TH ST,BAKERSFIELD,CA,93307
612 E 10TH ST,BAKERSFIELD,CA,93307
631 PICKERELL AVE,CORCORAN,CA,93212
2719 SHERMAN AVE,CORCORAN,CA,93212
2600 OLYMPIC AVE,CORCORAN,CA,93212
2626 GABLE AVE,CORCORAN,CA,93212
1040 BIRCH AVE,CORCORAN,CA,93212
615 HALE AVE,CORCORAN,CA,93212
1225 BRANUM ST,CORCORAN,CA,93212
1120 HANNA AVE,CORCORAN,CA,93212
1801 JOSEPHINE AVE,CORCORAN,CA,93212
1809 JOSEPHINE AVE,CORCORAN,CA,93212
1813 JOSEPHINE AVE,CORCORAN,CA,93212
1937 DOGWOOD CT,CORCORAN,CA,93212
205 Kingsley Street,Bridgeport,CA,93517
892 White Mountain Estates Road,White Mountain Estates,CA,93512
887 White Mountain Estates Road,White Mountain Estates,CA,93512
2046 Old Mammoth Road,Mammoth Lakes,CA,93546
2046 Old Mammoth Road,Mammoth Lakes,CA,93546
2046 Old Mammoth Road,Mammoth Lakes,CA,93546
1989 Old Mammoth Road,Mammoth Lakes,CA,93546
170 Woodmen Street,Mammoth Lakes,CA,93546
200 Azimuth Drive,Mammoth Lakes,CA,93546
200 Azimuth Drive,Mammoth Lakes,CA,93546
1989 Old Mammoth Road,Mammoth Lakes,CA,93546
1989 Old Mammoth Road,Mammoth Lakes,CA,93546
19700 VICTORIA DRIVE,Grass Valley,CA,95949
15452 KINGSBURY CIRCLE,Grass Valley,CA,95949
601 LONG STREET,Nevada City,CA,95959
12445 BANNER LAVA CAP ROAD,Nevada City,CA,95959
126 JACKRABBIT ROAD,Grass Valley,CA,95945
10041 DONNER TRAIL ROAD,Truckee,CA,96161
11570 DONNER PASS ROAD,Truckee,CA,96161
16891 RED DOG ROAD,Nevada City,CA,95959
14305 TYROL ROAD,Truckee,CA,96161
23216 SOILI ROAD,Grass Valley,CA,95949
13926 RAMSHORN STREET,Truckee,CA,96161
509 SOUTH AUBURN STREET,Grass Valley,CA,95945
1857 MADERA AVE,ONTARIO,CA,91764
1856 MADERA AVE,ONTARIO,CA,91764
1857 MARIN AVE,ONTARIO,CA,00000
1856 MARIN AVE,ONTARIO,CA,91764
1668 E 8TH ST,ONTARIO,CA,91764
0 8TH ST,ONTARIO,CA,91764
1722 E EIGHTH ST,ONTARIO,CA,91764
1855 N ORANGE AVE,ONTARIO,CA,91764
1856 N ORANGE AVE,ONTARIO,CA,91762
1855 N PLACER AVE,ONTARIO,CA,91764
1856 N PLACER AVE,ONTARIO,CA,91761
1855 SACRAMENTO AVE,ONTARIO,CA,91764
2806 GOBAT AVE,San Diego,CA,92122
619 GOETSCHL ST,San Diego,CA,92114
771 GOETSCHL ST,San Diego,CA,92114
786 GOETSCHL ST,San Diego,CA,92114
10445 MAST BLVD,Santee,CA,92071
9425 MAST BLVD,Santee,CA,92071
9252 MAST BLVD,Santee,CA,92071
9228 MAST BLVD,Santee,CA,92071
9799 MAST BLVD,Santee,CA,92071
10251 MAST BLVD,Santee,CA,92071
2501 GOETZE ST,San Diego,CA,92139
2502 GOETZE ST,San Diego,CA,92139
6766 SUNRIVER LANE,Vallejo,CA,94591
229 TOLEDO COURT,Vallejo,CA,94591
148 SKYWAY,Vallejo,CA,94591
102 CAROUSEL DRIVE,Vallejo,CA,94589
159 ERIN DRIVE,Vallejo,CA,94589
1701 GATEWAY DRIVE,Vallejo,CA,94589
614 FALCON DRIVE,Vallejo,CA,94589
463 WHITNEY AVENUE,Vallejo,CA,94589
6461 EAGLE RIDGE DRIVE,Vallejo,CA,94591
1301 MAGAZINE STREET,Vallejo,CA,94591
1000 GRANT STREET,Benicia,CA,94510
9018 CAMBRIDGE CIRCLE,Vallejo,CA,94591
11985 North Township Road,Live Oak,CA,95953
11995 North Township Road,Live Oak,CA,95953
11909 Highway 99,Gridley,CA,95948
3079 Riviera Road,Gridley,CA,95948
2989 Riviera Road,Gridley,CA,95948
11738 Robinson Road,Gridley,CA,95948
2851 Riviera Road,Gridley,CA,95948
2695 Riviera Road,Gridley,CA,95948
11820 Larkin Road,Gridley,CA,95948
12058 Larkin Road,Gridley,CA,95948
12007 Metteer Road,Live Oak,CA,95953
11761 Metteer Road,Live Oak,CA,95953
