street,city,state,zip
13 SOUTHEAST TRAIL,,CT,
12 GRETL LN,,CT,
10 GRETL LN,,CT,
9 GRETL LN,,CT,
8 GRETL LN,,CT,
7 GRETL LN,,CT,
6 GRETL LN,,CT,
5 GRETL LN,,CT,
4 GRETL LN,,CT,
3 GRETL LN,,CT,
2 GRETL LN,,CT,
1 GRETL LN,,CT,
576 DANBURY RD,,CT,
581 DANBURY RD,,CT,
570 DANBURY RD,,CT,
12 NEW BRIDGE RD,,CT,
10 NEW BRIDGE RD,,CT,
7 JOEYS LN,,CT,
4 SUNRISE LN,,CT,
151 TOWN FARM RD,,CT,
6 SUNRISE LN,,CT,
106 GREEN POND RD,,CT,
63 DEAN RD,,CT,
23 TOWN FARM RD,,CT,
1 WINSTON WAY,,CT,
6 WINSTON WAY,,CT,
102 GREEN POND RD,,CT,
17 DEAN RD,,CT,
67 DEAN RD,,CT,
16 DEAN RD,,CT,
66 DEAN RD,,CT,
100 GREEN POND RD,,CT,
257 GROVE ST,,CT,
249 GROVE ST,,CT,
26 REVERE RD,,CT,
5 MAPLEWOOD DR,,CT,
28 REVERE RD,,CT,
30 REVERE RD,,CT,
20 GLENBROOK DR,,CT,
21 GLENBROOK DR,,CT,
12 REVERE RD,,CT,
7 DEAN RD,,CT,
8 PLEASANT VIEW RD,,CT,
21 FOREST DR,,CT,
1 GALLOWS HILL RD,,CT,
1 OLD MIDDLE RD,,CT,
98 ALDRICH RD,,CT,
600 DANBURY RD MAIN,,CT,
101 ALDRICH RD,,CT,
574 DANBURY RD,,CT,
568 DANBURY RD,,CT,
510 DANBURY RD,,CT,
1 LILLINONAH RIDGE DR,,CT,
2 ARTHURS CT,,CT,
6 ARTHURS CT,,CT,
234 PUMPKIN HILL RD,,CT,
3 TUCCIOS CT,,CT,
3 LILLINONAH RIDGE DR,,CT,
15 LILLINONAH RIDGE DR,,CT,
5 LILLINONAH RIDGE DR,,CT,
237 PUMPKIN HILL RD,,CT,
3 STONE LEDGE RD,,CT,
45 TURKEY TROT RD,,CT,
198 PUMPKIN HILL RD,,CT,
46 TURKEY TROT RD,,CT,
7 PUMPKIN HILL LN,,CT,
54 MOREY RD,,CT,
5 STONE LEDGE RD,,CT,
47 TURKEY TROT RD,,CT,
455 DANBURY RD,,CT,
48 TURKEY TROT RD,,CT,
456 DANBURY RD,,CT,
28 PUMPKIN HILL LN,,CT,
15 PUMPKIN HILL LN,,CT,
453 DANBURY RD,,CT,
186 PUMPKIN HILL RD,,CT,
185 PUMPKIN HILL RD,,CT,
50 MOREY RD,,CT,
52 TURKEY TROT RD,,CT,
449 DANBURY RD,,CT,
51 TURKEY TROT RD,,CT,
46 MOREY RD,,CT,
187 PUMPKIN HILL RD,,CT,
56 TURKEY TROT RD,,CT,
442 DANBURY RD,,CT,
62 TURKEY TROT RD,,CT,
441 DANBURY RD,,CT,
445 DANBURY RD,,CT,
42 MOREY RD,,CT,
171 PUMPKIN HILL RD,,CT,
61 TURKEY TROT RD,,CT,
20 DOGWOOD DR,,CT,
63 TURKEY TROT RD,,CT,
18 DOGWOOD DR,,CT,
64 TURKEY TROT RD,,CT,
437 DANBURY RD,,CT,
38 MOREY RD,,CT,
1 MUIR LN,,CT,
17 DOGWOOD DR,,CT,
34 MOREY RD,,CT,
