street,city,state,zip
1 WEST  UNIVERSITY AVENUE,GAINESVILLE,FL,32601
1 SOUTHWEST  91ST STREET,GAINESVILLE,FL,32607
1 SOUTHEAST  14TH STREET,GAINESVILLE,FL,32641
1 SOUTHEAST  26TH STREET,GAINESVILLE,FL,32641
1 NORTHWEST  10TH AVENUE,GAINESVILLE,FL,32601
1 SOUTHEAST  26TH TERRACE,GAINESVILLE,FL,32641
1 NORTHWEST  91ST STREET,GAINESVILLE,FL,32607
1 NORTHWEST  13TH STREET,GAINESVILLE,FL,32601
2 SOUTHEAST  26TH STREET,GAINESVILLE,FL,32641
2 SOUTHEAST  26TH TERRACE,GAINESVILLE,FL,32641
2 EAST  UNIVERSITY AVENUE,GAINESVILLE,FL,32601
2 NORTHWEST  16TH AVENUE,GAINESVILLE,FL,32609
2 NORTHWEST  101ST COURT,GAINESVILLE,FL,32607
2 NORTHWEST  29TH STREET,GAINESVILLE,FL,32607
2 WEST  UNIVERSITY AVENUE,GAINESVILLE,FL,32601
3 SOUTHWEST  24TH STREET,GAINESVILLE,FL,32607
5 W MEDINAH DR,HOMOSASSA,FL,34446
47 GOLFVIEW CT,HOMOSASSA,FL,34446
4472 W GLEN ST,LECANTO,FL,34461
6994 S FINALE PT,HOMOSASSA,FL,34446
3200 N TURKEY OAK DR,CRYSTAL RIVER,FL,34428
6094 E KING LN,INVERNESS,FL,34452
6094 E KING LN,INVERNESS,FL,34452
2621 S PEBBLE BROOK DR,HOMOSASSA,FL,34448
5598 E TURKEY TRAIL DR,HERNANDO,FL,34442
6594 E CHANNEL DR,HERNANDO,FL,34442
304 W CHASE ST,HERNANDO,FL,34442
7208 W SASSER ST,HOMOSASSA,FL,34446
10200 W LARCHWOOD ST,HOMOSASSA,FL,34448
8 CUPANIA CT,HOMOSASSA,FL,34446
11428 W CLUBVIEW DR,HOMOSASSA,FL,34448
11490 W CLUBVIEW DR,HOMOSASSA,FL,34448
6613 CANAL AVE,BUNNELL,FL,32110
2197 WATER OAK RD,BUNNELL,FL,32110
1908 BAYBERRY ST,BUNNELL,FL,32110
1631 BAYBERRY ST,BUNNELL,FL,32110
1345 BAYBERRY ST,BUNNELL,FL,32110
1117 ASH ST,BUNNELL,FL,32110
1083 BIRCH ST,BUNNELL,FL,32110
5871 CANAL AVE,BUNNELL,FL,32110
1112 COTTONWOOD ST,BUNNELL,FL,32110
5814 MAHOGANY BLVD,BUNNELL,FL,32110
1636 GUAVA LN,BUNNELL,FL,32110
1698 HOLLY LN,BUNNELL,FL,32110
1963 HOLLY LN,BUNNELL,FL,32110
1823 LAUREL AVE,BUNNELL,FL,32110
1572 LEMON ST,BUNNELL,FL,32110
2 FLARESTONE CT,PALM COAST,FL,32137
22225 CROOM RD,BROOKSVILLE,FL,34601
22271 CROOM RD,BROOKSVILLE,FL,34601
22227 CROOM RD,BROOKSVILLE,FL,34601
9322 WHEYSTONE DR,WEBSTER,FL,33597
34219 MINERAL STONE DR,WEBSTER,FL,33597
25065 POWELL RD,BROOKSVILLE,FL,34602
3107 CLOUDCROFT AVE,SPRING HILL,FL,34609
6807 E RICHARD DR,WEEKI WACHEE,FL,34607
7053 LANDOVER BLVD,SPRING HILL,FL,34608
11075 HEATHROW AVE,SPRING HILL,FL,34609
11103 HEATHROW AVE,SPRING HILL,FL,34609
11071 HEATHROW AVE,SPRING HILL,FL,34609
11251 HEATHROW AVE,SPRING HILL,FL,34609
11107 HEATHROW AVE,SPRING HILL,FL,34609
11067 HEATHROW AVE,SPRING HILL,FL,34609
3008 OVERVIEW LN,SPRING HILL,FL,34608
570 57TH AVE W,BRADENTON,FL,34207
3333 26TH AVE E,BRADENTON,FL,34208
905 24TH AVE W,PALMETTO,FL,34221
2581 WHITFIELD AVE,SARASOTA,FL,34243
415 32ND AVE E,BRADENTON,FL,34208
620 57TH AVE W,BRADENTON,FL,34207
570 57TH AVE W,BRADENTON,FL,34207
603 63RD AVE W,BRADENTON,FL,34207
5128 WINDMILL MANOR AVE,BRADENTON,FL,34203
2311 14TH AVE W,PALMETTO,FL,34221
620 57TH AVE W,BRADENTON,FL,34207
620 57TH AVE W,BRADENTON,FL,34207
7710 115TH AVE E,PARRISH,FL,34219
1015 12TH AVE W,PALMETTO,FL,34221
7607 49TH AVE E,BRADENTON,FL,34203
46 39TH AVE E,PALMETTO,FL,34221
4141 GULF OF MEXICO DR,Longboat Key,FL,34228
4141 GULF OF MEXICO DR,Longboat Key,FL,34228
4141 GULF OF MEXICO DR,Longboat Key,FL,34228
4131 GULF OF MEXICO DR,Longboat Key,FL,34228
4141 GULF OF MEXICO DR,Longboat Key,FL,34228
4141 GULF OF MEXICO DR,Longboat Key,FL,34228
4127 GULF OF MEXICO DR,Longboat Key,FL,34228
4127 GULF OF MEXICO DR,Longboat Key,FL,34228
4127 GULF OF MEXICO DR,Longboat Key,FL,34228
4110 GULF OF MEXICO DR,Longboat Key,FL,34228
4127 GULF OF MEXICO DR,Longboat Key,FL,34228
4127 GULF OF MEXICO DR,Longboat Key,FL,34228
4127 GULF OF MEXICO DR,Longboat Key,FL,34228
4129 GULF OF MEXICO DR,Longboat Key,FL,34228
4125 GULF OF MEXICO DR,Longboat Key,FL,34228
4125 GULF OF MEXICO DR,Longboat Key,FL,34228
