street,city,state,zip
1268 AL ROBERTS RD,SENOIA,GA,30276
50 HILL TOP CIR,GRANTVILLE,GA,30220
227 GLAZIER RD,SENOIA,GA,30276
15 BILL ESTES RD,SENOIA,GA,30276
1160 AL ROBERTS RD,SENOIA,GA,30276
230 WAGON WHEEL TRL,SENOIA,GA,30276
146 GLAZIER FARMS DR,SENOIA,GA,30276
315 WAGON WHEEL TRL,SENOIA,GA,30276
60 TINSLEY WAY,SENOIA,GA,30276
1424 AL ROBERTS RD,SENOIA,GA,30276
69 STAFFORD RD,GRANTVILLE,GA,30220
2 PELHAM CT,GRANTVILLE,GA,30220
286 HIGHWAY 85,HARALSON,GA,30276
260 WAGON WHEEL TRL,SENOIA,GA,30276
4880 Rock Hill Spring Court,ELLENWOOD,GA,30294
3871 Busby Mill Court,ELLENWOOD,GA,30294
4828 Chickadee Lane,ELLENWOOD,GA,30294
3816 Busby Mill Court,ELLENWOOD,GA,30294
4047 Lucas Lane,ELLENWOOD,GA,30294
4451 Cavitt Mill Court,ELLENWOOD,GA,30294
4428 Cavitt Mill Court,ELLENWOOD,GA,30294
3762 Busby Mill Court,ELLENWOOD,GA,30294
4437 Cavitt Mill Court,ELLENWOOD,GA,30294
4421 Cavitt Mill Court,ELLENWOOD,GA,30294
4413 Cavitt Mill Court,ELLENWOOD,GA,30294
3976 Yellow Hammer Court,ELLENWOOD,GA,30294
4810 Macy Way,ELLENWOOD,GA,30294
3941 Busby Mill Court,ELLENWOOD,GA,30294
477 BROOKS RD,BRK,GA,30205
467 BROOKS RD,BRK,GA,30205
446 BROOKS RD,BRK,GA,30205
449 BROOKS RD,BRK,GA,30205
1547 HIGHWAY 85 CONNECTOR,BRK,GA,30205
442 BROOKS RD,BRK,GA,30205
441 BROOKS RD,BRK,GA,30205
430 BROOKS RD,BRK,GA,30205
422 BROOKS RD,BRK,GA,30205
415 BROOKS RD,BRK,GA,30205
725 BANKSTOWN RD,BRK,GA,30205
715 BANKSTOWN RD,BRK,GA,30205
358 BROOKS RD,BRK,GA,30205
699 BANKSTOWN RD,BRK,GA,30205
7541 Deer Creek Drive,Union City,GA,30291
4523 Ravenwood Place,Union City,GA,30291
5381 Rosewood Place,Union City,GA,30213
2327 Delowe Drive,East Point,GA,30344
483 Quailfoot Run,Fairburn,GA,30213
5825 Dodson Road,Union City,GA,30213
8610 Wilkerson Mill Road,Chattahoochee Hills,GA,30268
2485 Village Green Drive,Fairburn,GA,30213
6745 Tell Road,Fairburn,GA,30213
483 North Avenue,Hapeville,GA,30354
823 Virginia Avenue,Hapeville,GA,30354
596 Carlton Road,Palmetto,GA,30268
413 North  Central Avenue,Hapeville,GA,30354
3269 Wheeler Street,Hapeville,GA,30354
3026 REGAL PARK CT,DULUTH,GA,30096
2662 ORIOLE LN,DULUTH,GA,30096
3362 BLUE JAY DR,DULUTH,GA,30096
3207 MEADOW LARK DR,DULUTH,GA,30096
3006 CARDINAL LAKE CIR,DULUTH,GA,30096
3637 REGENCY PARK DR,DULUTH,GA,30096
2808 MOCKINGBIRD CIR,DULUTH,GA,30096
2921 CREEK DR,DULUTH,GA,30096
3128 ROBIN LN,DULUTH,GA,30096
2882 CREEK DR,DULUTH,GA,30096
2892 CREEK DR,DULUTH,GA,30096
3586 LORI LN,DULUTH,GA,30096
3197 MEADOW LARK DR,DULUTH,GA,30096
3342 BLUE JAY DR,DULUTH,GA,30096
711 Fourth St,Augusta,GA,30901
2048 Battle Row,Augusta,GA,30904
2048 Battle Row,Augusta,GA,30904
2048 Battle Row,Augusta,GA,30904
2048 Battle Row,Augusta,GA,30904
2627 Carrington Dr,Hephzibah,GA,30815
4584 Peach Orchard Rd,Hephzibah,GA,30815
4580 Peach Orchard Rd,Hephzibah,GA,30815
1552 Flagler Rd,Augusta,GA,30909
1613 Doug Barnard Pkwy,Augusta,GA,30906
2702 Washington Rd,Augusta,GA,30909
11 Valencia Way,Augusta,GA,30906
18 Valencia Way,Augusta,GA,30906
3101 Dandridge Way,Augusta,GA,30909
5004 MUSE RD,RESACA,GA,30735
5038 MUSE RD,RESACA,GA,30735
5036 MUSE RD,RESACA,GA,30735
5032 MUSE RD,RESACA,GA,30735
4950 MUSE RD,RESACA,GA,30735
4951 MUSE RD,RESACA,GA,30735
4943 MUSE RD,RESACA,GA,30735
167 PAYNE WAY,RESACA,GA,30735
159 PAYNE WAY,RESACA,GA,30735
118 PAYNE WAY,RESACA,GA,30735
117 PAYNE WAY,RESACA,GA,30735
4930 MUSE RD,RESACA,GA,30735
4937 MUSE RD,RESACA,GA,30735
4927 MUSE RD,RESACA,GA,30735
