street,city,state,zip
10600 HANA HWY,HANA,HI,96713
10301 HANA HWY,HANA,HI,96713
13375 HANA HWY,HANA,HI,96713
13385 HANA HWY,HANA,HI,96713
459 KEANAE RD,HANA,HI,96713
900 KEANAE RD,HANA,HI,96713
600 KEANAE RD,HANA,HI,96713
13616 HANA HWY,HAIKU,HI,96708
30 KEANAE RD,HANA,HI,96713
316 KEANAE RD,HANA,HI,96713
284 KEANAE RD,HANA,HI,96713
210 KEANAE RD,HANA,HI,96713
281 KEANAE RD,HANA,HI,96713
311 KEANAE RD,HANA,HI,96713
325 KEANAE RD,HANA,HI,96713
690 KEANAE RD,HANA,HI,96713
480 KEANAE RD,HANA,HI,96713
310 KEANAE RD,HANA,HI,96713
135 WAILUA RD,HANA,HI,96713
115 WAILUA RD,HANA,HI,96713
45 WAILUA RD,HANA,HI,96713
114 WAILUA RD,HANA,HI,96713
291 WAILUA RD,HANA,HI,96713
273 WAILUA RD,HAIKU,HI,96708
263 WAILUA RD,HANA,HI,96713
245 WAILUA RD,HANA,HI,96713
225 WAILUA RD,HANA,HI,96713
185 WAILUA RD,HANA,HI,96713
187 WAILUA RD,HANA,HI,96713
120 KAMILO ST,HAIKU,HI,96708
235 KAMILO ST,HAIKU,HI,96708
180 WAILUA RD,HANA,HI,96713
215 KAMILO ST,HANA,HI,96713
220 WAILUA RD,HAIKU,HI,96708
80 KAMILO ST,HANA,HI,96713
262 WAILUA RD,HANA,HI,96713
333 WAILUA RD,HANA,HI,96713
321 WAILUA RD,HAIKU,HI,96708
320 WAILUA RD,HAIKU,HI,96708
83 KAMILO ST,HANA,HI,96713
125 KAMILO ST,HAIKU,HI,96708
185 KAMILO ST,HAIKU,HI,96708
13650 HANA HWY,HAIKU,HI,96708
13655 HANA HWY,HAIKU,HI,96708
13660 HANA HWY,HAIKU,HI,96708
13670 HANA HWY,HAIKU,HI,96708
13675 HANA HWY,HAIKU,HI,96708
13678 HANA HWY,HAIKU,HI,96708
13680 HANA HWY,HAIKU,HI,96708
13685 HANA HWY,HAIKU,HI,96708
13690 HANA HWY,HAIKU,HI,96708
13695 HANA HWY,HAIKU,HI,96708
13705 HANA HWY,HAIKU,HI,96708
13710 HANA HWY,HAIKU,HI,96708
13712 HANA HWY,HAIKU,HI,96708
13718 HANA HWY,HAIKU,HI,96708
13720 HANA HWY,HAIKU,HI,96708
13889 HANA HWY,HAIKU,HI,96708
13895 HANA HWY,HAIKU,HI,96708
13953 HANA HWY,HANA,HI,96713
13955 HANA HWY,HANA,HI,96713
14560 HANA HWY,HANA,HI,96713
14004 HANA HWY,HANA,HI,96713
14006 HANA HWY,HANA,HI,96713
14167 HANA HWY,HAIKU,HI,96713
14173 HANA HWY,HAIKU,HI,96713
14175 HANA HWY,HANA,HI,96713
14000 HANA HWY,HANA,HI,96713
14300 HANA HWY,HANA,HI,96713
14306 HANA HWY,HANA,HI,96713
15470 HANA HWY,HANA,HI,96713
273 NAHIKU RD,HANA,HI,96713
655 NAHIKU RD,HANA,HI,96713
719 NAHIKU RD,HANA,HI,96713
725 NAHIKU RD,HANA,HI,96713
1107 NAHIKU RD,HANA,HI,96713
1077 NAHIKU RD,HANA,HI,96713
1101 NAHIKU RD,HANA,HI,96713
1010 NAHIKU RD,HAIKU,HI,96708
885 NAHIKU RD,HAIKU,HI,96708
955 NAHIKU RD,HAIKU,HI,96708
1141 NAHIKU RD,HANA,HI,96713
1163 NAHIKU RD,HANA,HI,96713
1104 NAHIKU RD,HANA,HI,96713
1220 NAHIKU RD,HANA,HI,96713
940 NAHIKU RD,HAIKU,HI,96708
836 NAHIKU RD,HANA,HI,96713
772 NAHIKU RD,HANA,HI,96713
420 NAHIKU RD,HANA,HI,96713
274 NAHIKU RD,HANA,HI,96713
278 NAHIKU RD,HANA,HI,96713
1155 NAHIKU RD,HANA,HI,96713
540 NAHIKU RD,HANA,HI,96713
542 NAHIKU RD,HANA,HI,96713
600 NAHIKU RD,HAIKU,HI,96708
610 NAHIKU RD,HAIKU,HI,96708
720 NAHIKU RD,HANA,HI,96713
740 NAHIKU RD,HANA,HI,96713
802 NAHIKU RD,HANA,HI,96713
806 NAHIKU RD,HANA,HI,96713
