street,city,state,zip
1051 50th Street Dr,La Porte City,IA,50651-8804
5073 15th Avenue Dr,La Porte City,IA,50651-9000
505 COUNTY AVE,Sheldahl,IA,50243
501 COUNTY AVE,Sheldahl,IA,50243
1763 Marquis Rd,Janesville,IA,50647-9749
2761 Larrabee Ave,Denver,IA,50622-1067
1975 Quonset Ave,Winthrop,IA,50682-9512
1456 Cummings Ave,Fairbank,IA,50629-8605
4975 250th Ave,Albert City,IA,50510-7593
5469 220th Ave,Albert City,IA,50510-7534
1631 400th St,Lake City,IA,51449-7545
3971 Preston Ave,Lohrville,IA,51453-7535
21472 Noble Ave,Carroll,IA,51401-8697
21296 Noble Ave,Carroll,IA,51401-8691
60706 770th St,Anita,IA,50020-8830
61302 720th St,Wiota,IA,50274-8750
646 420th St,Paullina,IA,51046
4202 E Ave,Paullina,IA,51046-7607
1200 Benson St,Grand River,IA,50108-8000
1300 Adair St,Grand River,IA,50108-8001
1156 100th St,Mapleton,IA,51034-7508
1216 100th St,Mapleton,IA,51034-7503
2905 145th St,Urbandale,IA,50323-2060
2811 145th St,Urbandale,IA,50323-2048
10031 110th Ave,Grand River,IA,50108-1085
10297 110th Ave,Grand River,IA,50108-1086
310 South St,Dundee,IA,52038-8626
207 S Main St,Dundee,IA,52038-8622
1068 130th St,Lake Park,IA,51347
1161 120th St,Lake Park,IA,51347-7071
1071 403rd Ave,Estherville,IA,51334-7743
1356 450th Ave,Estherville,IA,51334-7731
624 220th St,Alexander,IA,50420-8048
2161 Balsam Ave,Meservey,IA,50457-8003
4278 280th St,Shenandoah,IA,51601-4020
4278 260th St,Shenandoah,IA,51601-4016
146 G Ave,Churdan,IA,50050-8539
612 110th St,Churdan,IA,50050-8540
1350 Chestnut Rd,Coon Rapids,IA,50058-8046
1323 Fig Ave,Coon Rapids,IA,50058-8007
2330 Ziegler Ave,Williams,IA,50271-7596
3535 240th St,Alden,IA,50006-7501
19308 Highway S27,Alden,IA,50006-8076
22132 E Ave,Radcliffe,IA,50230-8113
1513 Toledo Ave,Dunlap,IA,51529-6007
4307 Poplar St,Little Sioux,IA,51545-5005
2627 140th St,Riceville,IA,50466
13252 Evergreen Ave,Riceville,IA,50466-7056
2697 Penn Ave,Badger,IA,50516-8506
2745 Lone Tree Rd,Badger,IA,50516-8508
1915 Quail Ave,Arthur,IA,51431-8010
1961 Quail Ave,Arthur,IA,51431-8010
13236 S 128th Ave W,Runnells,IA,50237-8020
12286 S 128th Ave W,Runnells,IA,50237-8014
6994 LOLA LN SE,LONE TREE,IA,52755
6988 WAPSI LN SE,LONE TREE,IA,52755
3702 240th Ave,Buffalo Center,IA,50424-7010
4802 240th Ave,Buffalo Center,IA,50424-7019
42077 210th Ave,Chariton,IA,50049-7846
41912 242nd Ave,Chariton,IA,50049-7759
1662 Ashley Ave,Larchwood,IA,51241-7538
2147 Dogwood Ave,Alvord,IA,51230-7527
101 10th Ave,Bevington,IA,50033
301 Williamson St,Bevington,IA,50033
2071 Highway 5,Bussey,IA,50044-7537
421 Merrill St,Bussey,IA,50044-7711
3349 Davidson Ave,Rhodes,IA,50234-9720
3360 Davidson Ave,Rhodes,IA,50234-9720
604 S Railway St,Hastings,IA,51540-3000
405 Maple St,Henderson,IA,51541-5003
234 S 3rd St,Castana,IA,51010-7727
109 Willow St,Castana,IA,51010-7702
5268 1st St,Melrose,IA,52569-8586
5242 2nd St,Melrose,IA,52569-8589
1349 Adams Montgomery St,Corning,IA,50841-9001
108 Oak Ave,Grant,IA,50847
3887 440th St,Ayrshire,IA,50515-8526
3637 420th St,Ayrshire,IA,50515-8508
51814 Little Clear Lake Rd,Albert City,IA,50510-8610
10357 510th St,Albert City,IA,50510-8616
406 N Main St,Early,IA,50535-5024
108 E 2nd St,Early,IA,50535-7704
812 6th St,Harlan,IA,51537-1494
1648 Redwood Rd,Kirkman,IA,51447
5078 Kingbird Ave,Alton,IA,51003-7568
5098 Kennedy Ave,Alton,IA,51003-8639
1191 400th St,Paton,IA,50217-8079
1719 400th St,Paton,IA,50217-9001
1321 400th St,Buffalo Center,IA,50424-7622
39360 10th Ave,Buffalo Center,IA,50424-7654
2696 County Road B16,Calmar,IA,52132-7515
2646 County Road B16,Calmar,IA,52132-7515
105 Maglorie St,Woolstock,IA,50599
405 W Neville St,Woolstock,IA,50599-8046
