street,city,state,zip
251 W  MAIN ST,KUNA,ID,83634
329 W  MAIN ST,KUNA,ID,83634
339 W  MAIN ST,KUNA,ID,83634
361 W  MAIN ST,KUNA,ID,83634
371 W  MAIN ST,KUNA,ID,83634
379 W  MAIN ST,KUNA,ID,83634
397 W  MAIN ST,KUNA,ID,83634
587 W  MAIN ST,KUNA,ID,83634
444 W  MAIN ST,KUNA,ID,83634
458 W  MAIN ST,KUNA,ID,83634
452 W  MAIN ST,KUNA,ID,83634
462 W  MAIN ST,KUNA,ID,83634
478 W  MAIN ST,KUNA,ID,83634
482 W  MAIN ST,KUNA,ID,83634
451 W  MAIN ST,KUNA,ID,83634
738 E  AVALON ST,KUNA,ID,83634
820 E  AVALON ST,KUNA,ID,83634
104 N  STORY BOOK WAY,EAGLE,ID,83616
414 W  MAIN ST,KUNA,ID,83634
2055 W  HUBBARD RD,KUNA,ID,83634
1403 N  MERIDIAN RD,KUNA,ID,83634
62 S  STEPHENSON ST,EAGLE,ID,83616
74 S  STEPHENSON ST,EAGLE,ID,83616
86 S  STEPHENSON ST,EAGLE,ID,83616
100 S  STEPHENSON ST,EAGLE,ID,83616
437 Curlew DR,Ammon,ID,83406
2770 Brooklyn ST,Ammon,ID,83406
2825 Brooklyn ST,Ammon,ID,83406
2834 Brooklyn ST,Ammon,ID,83406
2799 Brooklyn ST,Ammon,ID,83406
2837 Brooklyn ST,Ammon,ID,83406
2780 Brooklyn ST,Ammon,ID,83406
2812 Brooklyn ST,Ammon,ID,83406
2783 Brooklyn ST,Ammon,ID,83406
246 Curlew DR,Ammon,ID,83406
2802 Brooklyn ST,Ammon,ID,83406
380 Curlew DR,Ammon,ID,83406
2811 Brooklyn ST,Ammon,ID,83406
2824 Brooklyn ST,Ammon,ID,83406
2844 Brooklyn ST,Ammon,ID,83406
2792 Brooklyn ST,Ammon,ID,83406
2758 Brooklyn ST,Ammon,ID,83406
2849 Brooklyn ST,Ammon,ID,83406
401 Curlew DR,Ammon,ID,83406
419 Curlew DR,Ammon,ID,83406
295 Coachman Dr DR,Idaho Falls,ID,83402
1228 Event Center DR,Idaho Falls,ID,83402
5215 Tildy LN,Ammon,ID,83406
6175 S 5th,Idaho Falls,ID,83404
1968 W Broadway,Idaho Falls,ID,83402
4161 NORTHFORK DR,AHSAHKA,ID,83520
4161 NORTHFORK DR,AHSAHKA,ID,83520
4161 NORTHFORK DR,AHSAHKA,ID,83520
4161 NORTHFORK DR,AHSAHKA,ID,83520
4161 NORTHFORK DR,AHSAHKA,ID,83520
4161 NORTHFORK DR,AHSAHKA,ID,83520
4161 NORTHFORK DR,AHSAHKA,ID,83520
4161 NORTHFORK DR,AHSAHKA,ID,83520
4161 NORTHFORK DR,AHSAHKA,ID,83520
4165 NORTHFORK DR,AHSAHKA,ID,83520
4171 NORTHFORK DR M5,AHSAHKA,ID,83520
4171 NORTHFORK DR M4,AHSAHKA,ID,83520
4171 NORTHFORK DR M6,AHSAHKA,ID,83520
4171 NORTHFORK DR M7,AHSAHKA,ID,83520
4171 NORTHFORK DR M8,AHSAHKA,ID,83520
4171 NORHTFORK DR,AHSAHKA,ID,83520
4207 AHSAHKA LOOP RD,AHSAHKA,ID,83520
4197 AHSAHKA LOOP RD,AHSAHKA,ID,83520
1020 BOBCAT DR,AHSAHKA,ID,83520
3430 DEBERTIN DR,OROFINO,ID,83544
3449 HWY 12,OROFINO,ID,83544
4385 HWY 11,OROFINO,ID,83544
4368 HWY 11,OROFINO,ID,83544
4286 JACKSON RD,OROFINO,ID,83544
4006 HWY 11,WEIPPE,ID,83553
10290 Woolstenhulme Way,Victor,ID,83455
10220 Alpenglow Ln,Victor,ID,83455
10185 Alpenglow Ln,Victor,ID,83455
10025 S 500 E,Victor,ID,83455
10310 Woolstenhulme Way,Victor,ID,83455
10250 Alpenglow Ln,Victor,ID,83455
9948 S 1000 W,Victor,ID,83455
9983 Little Pine Ln,Victor,ID,83455
9952 Little Pine Ln,Victor,ID,83455
9899 Little Pine Ln,Victor,ID,83455
9809 Little Pine Ln,Victor,ID,83455
9790 Little Pine Ln,Victor,ID,83455
9760 Little Pine Ln,Victor,ID,83455
9715 Little Pine Ln,Victor,ID,83455
9668 Little Pine Ln,Victor,ID,83455
9645 Little Pine Ln,Victor,ID,83455
9448 Little Pine Ln,Victor,ID,83455
9436 Little Pine Ln,Victor,ID,83455
10702 S 1000 W,Victor,ID,83455
10875 S 1000 W,Victor,ID,83455
1265 W 9500 S,Victor,ID,83455
1465 W 9500 S,Victor,ID,83455
9540 S 2000 W,Victor,ID,83455
9502 S 2000 W,Victor,ID,83455
9790 S 2000 W,Victor,ID,83455
