street,city,state,zip
112 BELT AVE,O'FALLON,IL,62269
1040 OXFORD HILL RD,O'FALLON,IL,62269
1046 THORNBURY PL,O'FALLON,IL,62269
1025 STONYBROOK DR,O'FALLON,IL,62269
845 DEER CREEK RD,O'FALLON,IL,62269
112 E 3RD ST,O'FALLON,IL,62269
217 W 4TH ST,O'FALLON,IL,62269
502 W JEFFERSON ST,O'FALLON,IL,62269
107 WILLOW DR,O'FALLON,IL,62269
409 PIERCE BLVD,O'FALLON,IL,62269
208 W 2ND ST,O'FALLON,IL,62269
1014 EDGEWOOD DR,O'FALLON,IL,62269
1302 DORAL CT,O'FALLON,IL,62269
503 REBECCA DR,O'FALLON,IL,62269
1108 BARBER ST,WEST CHICAGO      ,IL,60185
6717 LEONARD DR,DARIEN            ,IL,60561
7349 S PARK AVE,BURR RIDGE        ,IL,60527
919 WHITEWATER LN,NAPERVILLE        ,IL,60540
728 CARDIGAN CT,NAPERVILLE        ,IL,60565
1712 MONMOUTH PL,DOWNERS GROVE     ,IL,60516
9 S THURLOW ST,HINSDALE          ,IL,60521
29W439 CANDLEWOOD LN,WARRENVILLE       ,IL,60555
2329 CHARMINGFARE DR,WOODRIDGE         ,IL,60517
1301 S ADDISON AVE,LOMBARD           ,IL,60148
920 KENT AVE,ELMHURST          ,IL,60126
2N775 ALMA AVE,LOMBARD           ,IL,60148
985 E CREST AVE,ADDISON           ,IL,60101
800 BRANDYWINE DR,ROSELLE           ,IL,60172
25819 W Grass Lake Rd,Antioch,IL,60002
25819 W Grass Lake Rd,Antioch,IL,60002
25819 W Grass Lake Rd,Antioch,IL,60002
1055 Main St,Antioch,IL,60002
43178 N Hunt Club Rd,Antioch,IL,60002
303 Main St,Antioch,IL,60002
303 Main St,Antioch,IL,60002
303 Main St,Antioch,IL,60002
303 Main St,Antioch,IL,60002
25819 W Grass Lake Rd,Antioch,IL,60002
25867 W Grass Lake Rd,Antioch,IL,60002
25903 W Grass Lake Rd,Antioch,IL,60002
303 Main St,Antioch,IL,60002
303 Main St,Antioch,IL,60002
232 FORREST LN,MEREDOSIA,IL,62665
228 FORREST LN,MEREDOSIA,IL,62665
224 FORREST LN,MEREDOSIA,IL,62665
218 FORREST LN,MEREDOSIA,IL,62665
212 FORREST LN,MEREDOSIA,IL,62665
198 FORREST LN,MEREDOSIA,IL,62665
188 FORREST LN,MEREDOSIA,IL,62665
178 FORREST LN,MEREDOSIA,IL,62665
166 FORREST LN,MEREDOSIA,IL,62665
154 FORREST LN,MEREDOSIA,IL,62665
142 FORREST LN,MEREDOSIA,IL,62665
238 BEACH RD,MEREDOSIA,IL,62665
228 BEACH RD,MEREDOSIA,IL,62665
224 BEACH RD,MEREDOSIA,IL,62665
23215 N DUNCAN RD,PRINCEVILLE,IL,61559
14813 W STREITMATTER RD,PRINCEVILLE,IL,61559
22307 N ELLIOTT RD,PRINCEVILLE,IL,61559
14520 W STREITMATTER RD,PRINCEVILLE,IL,61559
14518 W STREITMATTER RD,PRINCEVILLE,IL,61559
14705 W MENDELL RD,PRINCEVILLE,IL,61559
23203 N DUNCAN RD,PRINCEVILLE,IL,61559
13401 W STREITMATTER RD,PRINCEVILLE,IL,61559
13407 W MENDELL RD,PRINCEVILLE,IL,61559
12719 W MENDELL RD,PRINCEVILLE,IL,61559
19008 N MAHER RD,PRINCEVILLE,IL,61559
16008 W MENDELL RD,PRINCEVILLE,IL,61559
15800 W MENDELL RD,PRINCEVILLE,IL,61559
15413 W ROUTE 90,PRINCEVILLE,IL,61559
580 E 500 NORTH RD,HERRICK,IL,62431
14 N 600 EAST RD,HERRICK,IL,62431
27 N 450 EAST RD,HERRICK,IL,62431
769 COUNTY HIGHWAY 13,HERRICK,IL,62431
927 COUNTY HIGHWAY 22,HERRICK,IL,62431
1039 COUNTY HIGHWAY 22,HERRICK,IL,62431
550 E 500 NORTH RD,HERRICK,IL,62431
620 N 700 EAST RD,HERRICK,IL,62431
645 N 600 EAST RD,HERRICK,IL,62431
547 COUNTY HIGHWAY 13,HERRICK,IL,62431
149 N 975 EAST RD,HERRICK,IL,62431
139 N 500 EAST RD,HERRICK,IL,62431
145 N 600 EAST RD,HERRICK,IL,62431
155 N 1100 EAST RD,HERRICK,IL,62431
1720 S  BELT WEST,BELLEVILLE          ,IL,62226     
1700 S  BELT WEST,BELLEVILLE          ,IL,62226     
701 W  HANOVER              ST,NEW BADEN           ,IL,62265     
1115 N  18TH                 ST,EAST SAINT LOUIS    ,IL,62205     
3235 BIRKNER              RD,NEW ATHENS          ,IL,62264     
10815 PLATINUM             LN,MASCOUTAH           ,IL,62258     
10971 PLATINUM             LN,MASCOUTAH           ,IL,62258     
10951 PLATINUM             LN,MASCOUTAH           ,IL,62258     
720 BELLEVILLE           RD,CASEYVILLE          ,IL,62232     
505 S  8TH                  ST,EAST SAINT LOUIS    ,IL,62201     
700 CARDIFF              CT,OFALLON             ,IL,62269     
1010 N  ILLINOIS             ST,BELLEVILLE          ,IL,62226     
1167 FORTUNE              BLVD,OFALLON             ,IL,62269     
1173 FORTUNE              BLVD,OFALLON             ,IL,62269     
