street,city,state,zip
1712 E 100 N,MONROE,IN,46772-0000
4885 W 200 S-1,BLUFFTON,IN,46714-0000
8150 N 250 W,DECATUR,IN,46733-0000
2858 W 100 N,MONROE,IN,46772-0000
6891 N 200 E,DECATUR,IN,46733-0000
117 W JACKSON ST,MONROE,IN,46772-0000
5090 W 700 S,GENEVA,IN,46740-0000
7031 2ND ST,GENEVA,IN,46740-0000
1640 WINCHESTER ST,DECATUR,IN,46733-0000
431 MERCER AVE,DECATUR,IN,46733-0000
6600 S 200 E,BERNE,IN,46711-0000
1040 LAKE SHORES DR,DECATUR,IN,46733-0000
227 N 3RD ST,DECATUR,IN,46733-0000
6766 W US HIGHWAY 224,DECATUR,IN,46733-0000
2240 W 550 N,DECATUR,IN,46733-0000
1116 WINCHESTER ST,DECATUR,IN,46733-0000
4767 N 100 W,DECATUR,IN,46733-0000
6959 W 100 N,DECATUR,IN,46733-0000
6126 W 100 N,DECATUR,IN,46733-0000
1772 E 400 S,BERNE,IN,46711-0000
2570 E STATE RD 218,BERNE,IN,46711-0000
888 W 1000 N,DECATUR,IN,46733-0000
814 W 1000 N,DECATUR,IN,46733-0000
1039 WINCHESTER ST,DECATUR,IN,46733-0000
2415 W STATE ROAD 124,MONROE,IN,46772-0000
1031-33 Wildflower Ln,Dyer,IN,46311
817 Wellington Dr,Dyer,IN,46311
428-430 Ben Dr,Schererville,IN,46375
431-433 Spivak Dr,Schererville,IN,46375
419-421 Spivak Dr,Schererville,IN,46375
848- Blue Jay Way,Dyer,IN,46311
519-521 Spivak Dr,Schererville,IN,46375
1027 Cambridge Ln,Dyer,IN,46311
506-510 Ben Dr,Schererville,IN,46375
1019-10 Wildflower Ln,Dyer,IN,46311
508-510 Spivak Dr,Schererville,IN,46375
516-518 Spivak Dr,Schererville,IN,46375
505-509 Ben Dr,Schererville,IN,46375
511-513 Spivak Dr,Schererville,IN,46375
447-449 Ben Dr,Schererville,IN,46375
446-448 Ben Dr,Schererville,IN,46375
449-451 Spivak Dr,Schererville,IN,46375
319-321 Industrial Dr,Schererville,IN,46375
437-439 Spivak Dr,Schererville,IN,46375
318-322 Scherland Dr,Schererville,IN,46375
435-437 Ben Dr,Schererville,IN,46375
429-431 Ben Dr,Schererville,IN,46375
422-424 Ben Dr,Schererville,IN,46375
423-425 Ben Dr,Schererville,IN,46375
413-415 Spivak Dr,Schererville,IN,46375
703 TURTLE CREEK SDR,INDIANAPOLIS,IN,46227
209 TROY AVE,INDIANAPOLIS,IN,46225
2544 STOCKBRIDGE DR,INDIANAPOLIS,IN,46268
7633 SANTA MONICA DR,INDIANAPOLIS,IN,46268
2413 PLAZA DR,INDIANAPOLIS,IN,46268
8209 WALDORF LN,INDIANAPOLIS,IN,46268
8278 WALDORF LN,INDIANAPOLIS,IN,46268
4816 PENNINGTON CT,INDIANAPOLIS,IN,46254
5529 RUE ROYALE,INDIANAPOLIS,IN,46227
3833 DEER RIDGE,INDIANAPOLIS,IN,46254
6335 COMMONS DR,INDIANAPOLIS,IN,46254
4155 EAGLES ROOST DR,INDIANAPOLIS,IN,46234
6338 WHITEHAVEN RD,INDIANAPOLIS,IN,46254
6615 LONGWOODS CIR,INDIANAPOLIS,IN,46254
4552 BROOKHOLLOW BLVD,INDIANAPOLIS,IN,46254
6454 WHITEHAVEN RD,INDIANAPOLIS,IN,46254
4851 PENDRAGON BLVD,INDIANAPOLIS,IN,46268
9733 WILLOWTREE LN,INDIANAPOLIS,IN,46229
11251 REDSKIN LN,INDIANAPOLIS,IN,46235
3667 NEWGATE LN,INDIANAPOLIS,IN,46235
3748 TUDOR PARK DR,INDIANAPOLIS,IN,46235
3693 WINGATE CT,INDIANAPOLIS,IN,46235
3671 WINGATE CT,INDIANAPOLIS,IN,46235
3682 LONG WHARF DR,INDIANAPOLIS,IN,46235
10357 WINGATE BLVD,INDIANAPOLIS,IN,46235
600 E,Kouts,IN,46347
500 E,Kouts,IN,46347
500 E,Kouts,IN,46347
500 E,Kouts,IN,46347
600 E,Kouts,IN,46347
500 E,Kouts,IN,46347
1435 S 500 E,Kouts,IN,46347
1419 S 500 E,Kouts,IN,46347
1400 S,Kouts,IN,46347
1419 S 500 E,Kouts,IN,46347
500 E,Kouts,IN,46347
500 E,Kouts,IN,46347
500 E,Kouts,IN,46347
1402 S 500 E,Kouts,IN,46347
500 E,Kouts,IN,46347
536 E 1400 S,Kouts,IN,46347
544 E 1400 S,Kouts,IN,46347
1400 S,Kouts,IN,46347
554 E 1400 S,Kouts,IN,46347
594 E 1400 S,Kouts,IN,46347
1399 S 600 E,Kouts,IN,46347
1401 S 600 E,Kouts,IN,46347
500 E,Kouts,IN,46347
500 E,Kouts,IN,46347
565 E 1400 S,Kouts,IN,46347
