street,city,state,zip
100 E CREEK AVE,HARDTNER,KS,67057
1011 COATS ST,KIOWA,KS,67070
223 N ELEVENTH ST,KIOWA,KS,67070
310 DRUMM ST,KIOWA,KS,67070
321 S 5TH ST,KIOWA,KS,67070
410 MARVIN ST,KIOWA,KS,67070
506 DRUMM ST,KIOWA,KS,67070
5851 SE HARPER RD,UNINCORPORATED,KS,67138
8579 NW PRATT,UNINCORPORATED,KS,67134
1 WHITNEY LN,MEDICINE LODGE,KS,67104
100 E FIRST AVE,MEDICINE LODGE,KS,67104
100 E LOCKWOOD AVE,MEDICINE LODGE,KS,67104
100 KELLY ST,MEDICINE LODGE,KS,67104
100 LESLIE ST,MEDICINE LODGE,KS,67104
100 N MAIN ST,MEDICINE LODGE,KS,67104
100 S CEDAR ST,MEDICINE LODGE,KS,67104
100 S ILIFF ST,MEDICINE LODGE,KS,67104
100 S MAIN ST,MEDICINE LODGE,KS,67104
1000 N HIGH ST,MEDICINE LODGE,KS,67104
10001 SW SANDY CREEK RD,UNINCORPORATED,KS,67071
15356 US 160 HWY,WINFIELD,KS,67156
29288 97TH RD,ARKANSAS CITY,KS,67005
10562 284TH DR,ARKANSAS CITY,KS,67005
21200 85TH RD,WINFIELD,KS,67156
27064 309TH RD,CEDAR VALE,KS,67024
14065 152ND RD,WINFIELD,KS,67156
24977 85TH RD,WINFIELD,KS,67156
26910 71ST RD,ARKANSAS CITY,KS,67005
3244 122ND RD,OXFORD,KS,67119
804 W 33RD AVE,WINFIELD,KS,67156
18958 US 166 HWY,ARKANSAS CITY,KS,67005
14710 US 160 HWY,WINFIELD,KS,67156
15785 21ST RD,OXFORD,KS,67119
14313 51ST RD,WINFIELD,KS,67156
5688 142ND RD,WINFIELD,KS,67156
23297 85TH RD,WINFIELD,KS,67156
12499 152ND RD,WINFIELD,KS,67156
28440 91ST RD,ARKANSAS CITY,KS,67005
17815 61ST RD,WINFIELD,KS,67156
32348 111TH RD,ARKANSAS CITY,KS,67005
1125 N 900 RD,UNINCORPORATED,KS,66006
1176 N 800 RD,UNINCORPORATED,KS,66006
682 E 1150 RD,UNINCORPORATED,KS,66006
1023 N 680 RD,UNINCORPORATED,KS,66006
774 N 400 RD,UNINCORPORATED,KS,66006
895 E 1150 RD,UNINCORPORATED,KS,66006
878 E 1150 RD,UNINCORPORATED,KS,66006
861 E 1150 RD,UNINCORPORATED,KS,66006
856 E 1150 RD,UNINCORPORATED,KS,66006
793 E 1055 RD,UNINCORPORATED,KS,66006
777 E 1150 RD,UNINCORPORATED,KS,66006
781 E 1055 RD,UNINCORPORATED,KS,66006
739 E 1100 RD,UNINCORPORATED,KS,66006
731 E 1100 RD,UNINCORPORATED,KS,66006
729 E 1150 RD,UNINCORPORATED,KS,66006
707 E 1100 RD,UNINCORPORATED,KS,66006
1208 N 650 RD,UNINCORPORATED,KS,66006
1021 N 680 RD,UNINCORPORATED,KS,66006
1094 N 650 RD,UNINCORPORATED,KS,66006
1088 N 650 RD,UNINCORPORATED,KS,66006
00000 262ND RD,Circleville,KS,66416
7750 262ND RD,Circleville,KS,66416
00000 T RD,Whiting,KS,66552
00000 T2 RD,Whiting,KS,66552
30269 U RD,Whiting,KS,66552
00000 U RD,Whiting,KS,66552
00000 V RD,Whiting,KS,66552
17200 K-9 HWY,Whiting,KS,66552
00000 V4 RD,Whiting,KS,66552
00000 302ND RD,Whiting,KS,66552
00000 302ND RD,Whiting,KS,66552
00000 302ND RD,Whiting,KS,66552
00000 Y RD,Whiting,KS,66552
00000 Y4 RD,Whiting,KS,66552
00000 Y4 RD,Muscotah,KS,66058
00000 W4 RD,Whiting,KS,66552
00000 T RD,Whiting,KS,66552
00000 T2 RD,Whiting,KS,66552
00000 U RD,Whiting,KS,66552
00000 U RD,Whiting,KS,66552
1919 Fisher ST,Valley Falls,KS,66088
1919 Willow ST,Valley Falls,KS,66088
1918 Willow ST,Valley Falls,KS,66088
1917 Willow ST,Valley Falls,KS,66088
1916 Willow ST,Valley Falls,KS,66088
1915 Willow ST,Valley Falls,KS,66088
1913 Willow ST,Valley Falls,KS,66088
1910 Willow ST,Valley Falls,KS,66088
1904 Fisher ST,Valley Falls,KS,66088
1900 Fisher ST,Valley Falls,KS,66088
1903 Fisher ST,Valley Falls,KS,66088
1915 Fisher ST,Valley Falls,KS,66088
1913 Fisher ST,Valley Falls,KS,66088
1914 Fisher ST,Valley Falls,KS,66088
1912 Fisher ST,Valley Falls,KS,66088
1908 Fisher ST,Valley Falls,KS,66088
1920 Fisher ST,Valley Falls,KS,66088
1909 Fisher ST,Valley Falls,KS,66088
1907 Fisher ST,Valley Falls,KS,66088
1911 Fisher ST,Valley Falls,KS,66088
