street,city,state,zip
6620 DIXIE HWY,FLORENCE,KY,41042
3 LEXINGTON AVE,FLORENCE,KY,41042
7512 US 42 HWY,FLORENCE,KY,41042
8050 US 42 HWY,FLORENCE,KY,41042
6603 DIXIE HWY,FLORENCE,KY,41042
17 FRANK DR,,KY,
17 FRANK DR,,KY,
17 FRANK DR,,KY,
17 FRANK DR,,KY,
17 FRANK DR,,KY,
6245 HIGHWAY 1389,OWENSBORO,KY,
6309 HIGHWAY 1389,OWENSBORO,KY,
6009 HIGHWAY 1389,OWENSBORO,KY,
6451 HIGHWAY 1389,OWENSBORO,KY,
6539 HIGHWAY 1389,OWENSBORO,KY,
604 CRUSE AVE,,KY,
3636 SPRINGDALE CIR,,KY,
313 ASHBROOK AVE,,KY,
3950 PINES RD,,KY,
3930 PINES RD,,KY,
101 WESTWOOD DR,,KY,40391
102 WESTWOOD DR,,KY,40391
103 WESTWOOD DR,,KY,40391
104 WESTWOOD DR,,KY,40391
105 WESTWOOD DR,,KY,40391
57 FOREST HILL DR,,KY,40601
59 FOREST HILL DR,,KY,40601
61 FOREST HILL DR,,KY,40601
63 FOREST HILL DR,,KY,40601
65 FOREST HILL DR,,KY,40601
216 EAGLE WAY,ELIZABETHTOWN,KY,42701
317 CARDIN ST,ELIZABETHTOWN,KY,42701
214 EAGLE WAY,ELIZABETHTOWN,KY,42701
315 CARDIN ST,ELIZABETHTOWN,KY,42701
212 EAGLE WAY,ELIZABETHTOWN,KY,42701
4003 DENISE  DR,,KY,42420
2301 N ELM  ST,,KY,42420
1315 YOUNG  ST,,KY,42420
2274 S GREEN  ST,,KY,42420
1417 O'BYRNE  ST,,KY,42420
2110 W GAULBERT AVE,LOUISVILLE,KY,40210
2113 W GAULBERT AVE,LOUISVILLE,KY,40210
945 FRANKLIN ST,LOUISVILLE,KY,40206
740 ZORN AVE,LOUISVILLE,KY,40206
1221 RIVER RD,LOUISVILLE,KY,40206
1005 STEAMBOAT WAY,,KY,
1009 STEAMBOAT WAY,,KY,
1017 STEAMBOAT WAY,,KY,
1021 STEAMBOAT WAY,,KY,
2193 DOMINION DR,,KY,
2196 MARY FAY PL,,KY,
2160 MARY FAY PL,,KY,
1937 VENDOR WAY,,KY,
756 WOODLAND AVE,,KY,
756 WOODLAND AVE,,KY,
8240 CONWAY RD,,KY,
8345 CONWAY RD,,KY,
8280 CONWAY RD,,KY,
8100 SHELTON RD,,KY,
8450 GIBBS RD,,KY,
25 BURBA LN,,KY,40108
33 BURBA LN,,KY,40108
99 BURBA LN,,KY,40108
126 MEADE SPRINGS RD,,KY,40108
155 MEADE SPRINGS RD,,KY,40108
300 W JEFFERSON ST,,KY,40031
302 W JEFFERSON ST,,KY,40031
304 W JEFFERSON ST,,KY,40031
306 W JEFFERSON ST,,KY,40031
308 W JEFFERSON ST,,KY,40031
6760 MONROE TWP RD 216,CORNING,KY,43730
7047 MONROE TWP RD 216,CORNING,KY,43730
7138 MONROE TWP RD 216,CORNING,KY,43730
7266 MONROE TWP RD 216,CORNING,KY,43730
7296 MONROE TWP RD 216,CORNING,KY,43730
244 RANSOM TRCE,GEORGETOWN,KY,40324
242 RANSOM TRCE,GEORGETOWN,KY,40324
240 RANSOM TRCE,GEORGETOWN,KY,40324
238 RANSOM TRCE,GEORGETOWN,KY,40324
236 RANSOM TRCE,GEORGETOWN,KY,40324
128 SHELLY'S PL,,KY,40065
124 SHELLY'S PL,,KY,40065
132 SHELLY'S PL,,KY,40065
120 SHELLY'S PL,,KY,40065
116 SHELLY'S PL,,KY,40065
1116 BROCKLEY WAY,BOWLING GREEN,KY,42103
525 EASTWOOD ST,BOWLING GREEN,KY,42103
350 WILLOUGHBY LN,BOWLING GREEN,KY,42101
2501 CROSSINGS BLVD,BOWLING GREEN,KY,42104
531 11TH AVE W,BOWLING GREEN,KY,42101
