street,city,state,zip
30448 HWY 124,JONESVILLE,LA,71343
30456 HWY 124,JONESVILLE,LA,71343
105 HWY 3102,JONESVILLE,LA,71343
107 HWY 3102,JONESVILLE,LA,71343
149 HWY 3102,JONESVILLE,LA,71343
161 HWY 3102,JONESVILLE,LA,71343
183 HWY 3102,JONESVILLE,LA,71343
29918 HWY 124,JONESVILLE,LA,71343
29904 HWY 124,JONESVILLE,LA,71343
1295 MOODY RD,JONESVILLE,LA,71343
7470 HWY 3102,JONESVILLE,LA,71343
7090 HWY 3102,JONESVILLE,LA,71343
6964 HWY 3102,JONESVILLE,LA,71343
6578 HWY 3102,JONESVILLE,LA,71343
6308 HWY 3102,JONESVILLE,LA,71343
244 LARTO BAYOU RD,JONESVILLE,LA,71343
576 BOOK RD,JONESVILLE,LA,71343
536 BOOK RD,JONESVILLE,LA,71343
440 BOOK RD,JONESVILLE,LA,71343
316 BOOK RD,JONESVILLE,LA,71343
338 BOOK RD,JONESVILLE,LA,71343
1335 LARTO BAYOU RD,JONESVILLE,LA,71343
2736 MOODY RD,JONESVILLE,LA,71343
3914 VICK RD,VICK,LA,71331
3924 VICK RD,VICK,LA,71331
4848 VICK RD,VICK,LA,71331
5034 VICK RD,VICK,LA,71331
4866 VICK RD,VICK,LA,71331
3543 VICK RD,VICK,LA,71331
185 SOUTH FARMS LOOP RD,VICK,LA,71331
282 INNER LOOP,VICK,LA,71331
269 SOUTH FARMS LOOP RD,VICK,LA,71331
247 SOUTH FARMS LOOP RD,VICK,LA,71331
5741 HWY 783,COUSHATTA,LA,71019
5767 HWY 783,COUSHATTA,LA,71019
5777 HWY 783,COUSHATTA,LA,71019
5781 HWY 783,COUSHATTA,LA,71019
5725 HWY 783,COUSHATTA,LA,71019
5219 HWY 783,COUSHATTA,LA,71019
5237 HWY 783,COUSHATTA,LA,71019
4546 HWY 783,RINGGOLD,LA,71068
4429 HWY 783,RINGGOLD,LA,71068
5008 CUTOFF RD,COUSHATTA,LA,71019
5025 CUTOFF RD,COUSHATTA,LA,71019
5035 CUTOFF RD,COUSHATTA,LA,71019
5039 CUTOFF RD,COUSHATTA,LA,71019
5041 CUTOFF RD,COUSHATTA,LA,71019
5022 CUTOFF RD,COUSHATTA,LA,71019
5020 CUTOFF RD,COUSHATTA,LA,71019
5024 CUTOFF RD,COUSHATTA,LA,71019
5036 CUTOFF RD,COUSHATTA,LA,71019
5040 CUTOFF RD,COUSHATTA,LA,71019
5044 CUTOFF RD,COUSHATTA,LA,71019
5048 CUTOFF RD,COUSHATTA,LA,71019
5075 CUTOFF RD,COUSHATTA,LA,71019
5076 CUTOFF RD,COUSHATTA,LA,71019
5082 CUTOFF RD,COUSHATTA,LA,71019
5115 CUTOFF RD,COUSHATTA,LA,71019
5113 CUTOFF RD,COUSHATTA,LA,71019
1316 RINGGOLD AVE,COUSHATTA,LA,71019
1414 RINGGOLD AVE,COUSHATTA,LA,71019
1500 RINGGOLD AVE,COUSHATTA,LA,71019
1516 RINGGOLD AVE,COUSHATTA,LA,71019
1512 RINGGOLD AVE,COUSHATTA,LA,71019
1508 RINGGOLD AVE,COUSHATTA,LA,71019
5020N RINGGOLD AVE,COUSHATTA,LA,71019
245 WOODLAND DR,LAPLACE,LA,70068
256 WOODLAND DR,LAPLACE,LA,70068
241 WOODLAND DR,LAPLACE,LA,70068
77 SAWGRASS DR,LAPLACE,LA,70068
124 DOTTIE LN,FRENIER,LA,70068
111 JEAN ST,LAPLACE,LA,70068
133 LAKE VIEW DR,FRENIER,LA,70068
127 LAKE VIEW DR,FRENIER,LA,70068
153 LAKE VIEW DR,FRENIER,LA,70068
125 DOTTIE LN,FRENIER,LA,70068
113 DOTTIE LN,FRENIER,LA,70068
117 PONTCHARTRAIN RD,FRENIER,LA,70068
110 FRENIER RD,LAPLACE,LA,70068
107 ESTRACA LN,FRENIER,LA,70068
110 ESTRACA LN,FRENIER,LA,70068
117 DOTTIE LN,FRENIER,LA,70068
326 FRENIER RD,FRENIER,LA,70068
175 LAKE VIEW DR,FRENIER,LA,70068
109 ESTRACA LN,FRENIER,LA,70068
119 PEACOCK RD,FRENIER,LA,70068
153 GARY RD,FRENIER,LA,70068
198 GARY RD,FRENIER,LA,70068
125 GARY RD,FRENIER,LA,70068
145 GARY RD,FRENIER,LA,70068
135 GARY RD,FRENIER,LA,70068
147 LAKE VIEW DR,FRENIER,LA,70068
141 LAKE VIEW DR,FRENIER,LA,70068
117 GARY RD,FRENIER,LA,70068
150 GARY RD,FRENIER,LA,70068
157 GARY RD,FRENIER,LA,70068
138 PEACOCK RD,FRENIER,LA,70068
137 LAKE VIEW DR,FRENIER,LA,70068
118 GARY RD,FRENIER,LA,70068
