street,city,state,zip
17 ROBERTS STREET,BROOKLINE,MA,02445
22 SHEAFE STREET,BROOKLINE,MA,02467
28 BROWNE STREET,BROOKLINE,MA,02446
1531 BEACON STREET,BROOKLINE,MA,02446
116 LAWTON STREET,BROOKLINE,MA,02446
10 KENT SQUARE,BROOKLINE,MA,02446
26 SHEAFE STREET,BROOKLINE,MA,02467
34 SHEAFE STREET,BROOKLINE,MA,02467
8 SHEAFE STREET,BROOKLINE,MA,02467
35 SHEAFE STREET,BROOKLINE,MA,02467
39 SHEAFE STREET,BROOKLINE,MA,02467
25 SHEAFE STREET,BROOKLINE,MA,02467
21 SHEAFE STREET,BROOKLINE,MA,02467
26 VERNON STREET,BROOKLINE,MA,02446
85 VERNDALE STREET,BROOKLINE,MA,02446
184 WINCHESTER STREET,BROOKLINE,MA,02446
1531 BEACON STREET,BROOKLINE,MA,02446
372 BOYLSTON STREET,BROOKLINE,MA,02445
112 BEALS STREET,BROOKLINE,MA,02446
91 HARVARD AVENUE,BROOKLINE,MA,02446
9 COLUMBIA STREET,BROOKLINE,MA,02446
28 BROWNE STREET,BROOKLINE,MA,02446
102 HARVARD STREET,BROOKLINE,MA,02446
34 NAPLES ROAD,BROOKLINE,MA,02446
21 OSBORNE ROAD,BROOKLINE,MA,02446
17 ROBERTS STREET,BROOKLINE,MA,02445
18 SHEAFE STREET,BROOKLINE,MA,02467
8 SHEAFE STREET,BROOKLINE,MA,02467
21 SHEAFE STREET,BROOKLINE,MA,02467
91 HARVARD AVENUE,BROOKLINE,MA,02446
22 SHEAFE STREET,BROOKLINE,MA,02467
30 SHEAFE STREET,BROOKLINE,MA,02467
34 SHEAFE STREET,BROOKLINE,MA,02467
18 SHEAFE STREET,BROOKLINE,MA,02467
25 SHEAFE STREET,BROOKLINE,MA,02467
131 WINCHESTER STREET,BROOKLINE,MA,02446
21 OSBORNE ROAD,BROOKLINE,MA,02446
91 HARVARD AVENUE,BROOKLINE,MA,02446
150 NAPLES ROAD,BROOKLINE,MA,02446
26 SHEAFE STREET,BROOKLINE,MA,02467
30 SHEAFE STREET,BROOKLINE,MA,02467
39 SHEAFE STREET,BROOKLINE,MA,02467
21 SHEAFE STREET,BROOKLINE,MA,02467
39 SHEAFE STREET,BROOKLINE,MA,02467
8 SHEAFE STREET,BROOKLINE,MA,02467
91 HARVARD AVENUE,BROOKLINE,MA,02446
35 SHEAFE STREET,BROOKLINE,MA,02467
91 HARVARD AVENUE,BROOKLINE,MA,02446
91 HARVARD AVENUE,BROOKLINE,MA,02446
50 BABCOCK STREET,BROOKLINE,MA,02446
35 SHEAFE STREET,BROOKLINE,MA,02467
50 BABCOCK STREET,BROOKLINE,MA,02446
219 HARVARD STREET,BROOKLINE,MA,02446
147 BABCOCK STREET,BROOKLINE,MA,02446
50 BABCOCK STREET,BROOKLINE,MA,02446
289 KENT STREET,BROOKLINE,MA,02446
17 ROBERTS STREET,BROOKLINE,MA,02445
34 NAPLES ROAD,BROOKLINE,MA,02446
83 IVY STREET,BROOKLINE,MA,02446
83 IVY STREET,BROOKLINE,MA,02446
219 HARVARD STREET,BROOKLINE,MA,02446
219 HARVARD STREET,BROOKLINE,MA,02446
83 IVY STREET,BROOKLINE,MA,02446
219 HARVARD STREET,BROOKLINE,MA,02446
219 HARVARD STREET,BROOKLINE,MA,02446
219 HARVARD STREET,BROOKLINE,MA,02446
219 HARVARD STREET,BROOKLINE,MA,02446
219 HARVARD STREET,BROOKLINE,MA,02446
219 HARVARD STREET,BROOKLINE,MA,02446
219 HARVARD STREET,BROOKLINE,MA,02446
219 HARVARD STREET,BROOKLINE,MA,02446
219 HARVARD STREET,BROOKLINE,MA,02446
219 HARVARD STREET,BROOKLINE,MA,02446
83 IVY STREET,BROOKLINE,MA,02446
83 IVY STREET,BROOKLINE,MA,02446
83 IVY STREET,BROOKLINE,MA,02446
219 HARVARD STREET,BROOKLINE,MA,02446
83 IVY STREET,BROOKLINE,MA,02446
83 IVY STREET,BROOKLINE,MA,02446
83 IVY STREET,BROOKLINE,MA,02446
83 IVY STREET,BROOKLINE,MA,02446
83 IVY STREET,BROOKLINE,MA,02446
83 IVY STREET,BROOKLINE,MA,02446
83 IVY STREET,BROOKLINE,MA,02446
83 IVY STREET,BROOKLINE,MA,02446
83 IVY STREET,BROOKLINE,MA,02446
56 GARRISON STREET,BROOKLINE,MA,02445
1397 BEACON STREET,BROOKLINE,MA,02446
1397 BEACON STREET,BROOKLINE,MA,02446
1397 BEACON STREET,BROOKLINE,MA,02446
54 GARRISON STREET,BROOKLINE,MA,02445
83 IVY STREET,BROOKLINE,MA,02446
1397 BEACON STREET,BROOKLINE,MA,02446
1397 BEACON STREET,BROOKLINE,MA,02446
1397 BEACON STREET,BROOKLINE,MA,02446
1397 BEACON STREET,BROOKLINE,MA,02446
1397 BEACON STREET,BROOKLINE,MA,02446
1397 BEACON STREET,BROOKLINE,MA,02446
219 HARVARD STREET,BROOKLINE,MA,02446
1397 BEACON STREET,BROOKLINE,MA,02446
