street,city,state,zip
2106 HARMONY WOODS RD,OWINGS MILLS,MD,21117
8610 VALLEYFIELD RD,LUTHERVILLE TIMONIUM,MD,21093
3605 JACKSON CABIN RD,PHOENIX,MD,21131
1700 N  ROLLING RD,WINDSOR MILL,MD,21244
8623 OAK RD,PARKVILLE,MD,21234
1704 PARSONAGE RD,PARKTON,MD,21120
54 TRAILWOOD RD,NOTTINGHAM,MD,21236
3312 SHELBURNE RD,PIKESVILLE,MD,21208
912 TIMBER RUN RD,REISTERSTOWN,MD,21136
1939 LINCOLN AVE,HALETHORPE,MD,21227
1321 GLENDALE RD,BALTIMORE,MD,21239
8122 LONGPOINT RD,DUNDALK,MD,21222
1914 EASTFIELD RD,DUNDALK,MD,21222
3670 CLIFMAR RD,WINDSOR MILL,MD,21244
3204 RICHWOOD AVE,WINDSOR MILL,MD,21244
6814 CHIPPEWA DR,BALTIMORE,MD,21209
13918 OLD HANOVER RD,REISTERSTOWN,MD,21136
2107 SOUTHLAND RD,GWYNN OAK,MD,21207
5 E  TIMONIUM RD,LUTHERVILLE TIMONIUM,MD,21093
8215 BRATTLE RD,PIKESVILLE,MD,21208
449 A W SOUTH  ST,FREDERICK,MD,21701
1417 C KEY  PKWY,FREDERICK,MD,21702
509 A WILSON  PL,FREDERICK,MD,21702
245 E SIXTH  ST,FREDERICK,MD,21701
501 1D PROSPECT  BLVD,FREDERICK,MD,21701
2100 B WHITTIER  DR,FREDERICK,MD,21702
342 B HIGHVIEW  TER,FREDERICK,MD,21701
1155 B ORCHARD  TER,FREDERICK,MD,21703
1499 N EAST  ST,FREDERICK,MD,21701
1418 B TANEY  AVE,FREDERICK,MD,21702
1369 HAMPSHIRE  DR,FREDERICK,MD,21702
1411 C KEY  PKWY,FREDERICK,MD,21702
514 N MARKET  ST,FREDERICK,MD,21701
209 MAIN  ST,MYERSVILLE,MD,21773
795 C WEMBLY  DR,FREDERICK,MD,21701
2080 YELLOW SPRINGS  RD,FREDERICK,MD,21702
1415 TANEY  AVE,FREDERICK,MD,21702
14 W FIFTH  ST,FREDERICK,MD,21701
160 F WILLOWDALE  DR,FREDERICK,MD,21702
7351 1 WILLOW  RD,FREDERICK,MD,21702
949 OLD RIVER RD,FRIENDSVILLE,MD,21531
83 ALLEN MARPLE DR,OAKLAND,MD,21550
3540 BEAR CREEK RD,FRIENDSVILLE,MD,21531
324 PINE HILL RD,SWANTON,MD,21561
1040 JOHN DR,OAKLAND,MD,21550
29 WINDING WAY,MCHENRY,MD,21541
315 SUNNYSIDE RD,OAKLAND,MD,21550
10 LAKEVIEW CT,MCHENRY,MD,21541
203 SHENANDOAH AVE,OAKLAND,MD,21550
249 BRAY SCHOOL RD,OAKLAND,MD,21550
591 YOUGH VIEW DR,OAKLAND,MD,21550
1684 FRIENDSVILLE RD,FRIENDSVILLE,MD,21531
1151 FRIENDSVILLE RD,FRIENDSVILLE,MD,21531
5475 WHITE ROCK RD,FRIENDSVILLE,MD,21531
11467 FRIENDSVILLE RD,FRIENDSVILLE,MD,21531
373 FISH HATCHERY RD,ACCIDENT,MD,21520
1021 E HIGH ST,OAKLAND,MD,21550
702 VALLEY RIDGE RD,ACCIDENT,MD,21520
50 WEBER RD,OAKLAND,MD,21550
403 D ST,OAKLAND,MD,21550
16905 MELBOURNE DRIVE,LAUREL,MD,20707
16904 SUPPLEE LANE,LAUREL,MD,20707
16215 JULIE LANE,LAUREL,MD,20707
16910 MELBOURNE DRIVE,LAUREL,MD,20707
16216 JULIE LANE,LAUREL,MD,20707
16211 JULIE LANE,LAUREL,MD,20707
16908 MELBOURNE DRIVE,LAUREL,MD,20707
16824 CLARK TERRACE,LAUREL,MD,20707
16212 JULIE LANE,LAUREL,MD,20707
16818 CLARK TERRACE,LAUREL,MD,20707
16828 MELBOURNE DRIVE,LAUREL,MD,20707
16720 DOUGHERTY AVENUE,LAUREL,MD,20707
16204 JULIE LANE,LAUREL,MD,20707
16813 CLARK TERRACE,LAUREL,MD,20707
16825 MELBOURNE DRIVE,LAUREL,MD,20707
16111 JULIE LANE,LAUREL,MD,20707
16824 MELBOURNE DRIVE,LAUREL,MD,20707
16812 CLARK TERRACE,LAUREL,MD,20707
16200 JULIE LANE,LAUREL,MD,20707
16809 CLARK TERRACE,LAUREL,MD,20707
114 SPOTTED FAWN CT,CENTREVILLE,MD,21617
1100 BUTTERWORTH CT,STEVENSVILLE,MD,21666
100 LONGFELLOW DR,CHESTERTOWN,MD,21620
1204 LITTLE CREEK RD,CHESTER,MD,21619
125 ENCORE CT,CENTREVILLE,MD,21617
308 CHESAPEAKE AVE,STEVENSVILLE,MD,21666
317 SECOND ST,CRUMPTON,MD,21628
304 COCKEY LN,STEVENSVILLE,MD,21666
515 LITTLE KIDWELL AVE,CENTREVILLE,MD,21617
303 THIRD ST,CRUMPTON,MD,21628
139 HARMONY WAY,CENTREVILLE,MD,21617
116 WOOD DUCK LN,CHESTERTOWN,MD,21620
1527 BRADLEY DR,CENTREVILLE,MD,21617
603 VICTORIA DR,STEVENSVILLE,MD,21666
349 LOBLOLLY WAY,GRASONVILLE,MD,21638
69 LONG CREEK DR,STEVENSVILLE,MD,21666
207 SHREWSBURY FARM LN,CENTREVILLE,MD,21617
304 ELLICOTT DR,CHESTER,MD,21619
716 DEEP LANDING RD,CHESTERTOWN,MD,21620
500 PRIMROSE POINT FARM LN,CHESTERTOWN,MD,21620
