street,city,state,zip
1026 E Pond Rd,,ME,04978
1031 E Pond Rd,,ME,04978
1033 E Pond Rd,,ME,04978
1043 E Pond Rd,,ME,04978
1075 E Pond Rd,,ME,04978
1091 E Pond Rd,,ME,04978
1125 E Pond Rd,,ME,04978
1131 E Pond Rd,,ME,04978
1140 E Pond Rd,,ME,04978
1143 E Pond Rd,,ME,04978
1152 E Pond Rd,,ME,04978
1155 E Pond Rd,,ME,04978
1161 E Pond Rd,,ME,04978
1180 E Pond Rd,,ME,04978
1185 E Pond Rd,,ME,04978
1191 E Pond Rd,,ME,04978
1200 E Pond Rd,,ME,04978
1203 E Pond Rd,,ME,04978
1223 E Pond Rd,,ME,04978
1230 E Pond Rd,,ME,04978
1239 E Pond Rd,,ME,04978
6 Quaker Ln,,ME,04978
12 Quaker Ln,,ME,04978
15 Quaker Ln,,ME,04978
23 Quaker Ln,,ME,04978
24 Quaker Ln,,ME,04978
37 Quaker Ln,,ME,04978
59 Quaker Ln,,ME,04978
63 Quaker Ln,,ME,04978
71 Quaker Ln,,ME,04978
79 Quaker Ln,,ME,04978
114 Quaker Ln,,ME,04978
136 Quaker Ln,,ME,04978
146 Quaker Ln,,ME,04978
160 Quaker Ln,,ME,04978
172 Quaker Ln,,ME,04978
196 Quaker Ln,,ME,04978
197 Quaker Ln,,ME,04978
211 Quaker Ln,,ME,04978
240 Quaker Ln,,ME,04978
244 Quaker Ln,,ME,04978
259 Quaker Ln,,ME,04978
262 Quaker Ln,,ME,04978
269 Quaker Ln,,ME,04978
272 Quaker Ln,,ME,04978
23 Templinville Ln,,ME,04978
26 Templinville Ln,,ME,04978
187 Redmond Ln,,ME,04978
2 Rockwood Ln,,ME,04978
24 Rockwood Ln,,ME,04978
9 Rocky Ridge Ln,,ME,04978
38 Rocky Ridge Ln,,ME,04978
1156 Rome Rd,,ME,04963
35 Rose Ln,,ME,04978
83 Rosenthal Ln,,ME,04978
292 Ross Hill Rd,,ME,04957
301 Ross Hill Rd,,ME,04957
304 Ross Hill Rd,,ME,04957
5 Sand Hill Rd,,ME,04957
31 Sand Hill Rd,,ME,04957
64 Sand Hill Rd,,ME,04978
110 Sand Hill Rd,,ME,04978
149 Sand Hill Rd,,ME,04957
170 Sand Hill Rd,,ME,04978
208 Sand Hill Rd,,ME,04978
224 Sand Hill Rd,,ME,04978
356 Sand Hill Rd,,ME,04978
363 Sand Hill Rd,,ME,04957
374 Sand Hill Rd,,ME,04978
410 Sand Hill Rd,,ME,04978
897 Smithfield Rd,,ME,04978
912 Smithfield Rd,,ME,04963
918 Smithfield Rd,,ME,04963
919 Smithfield Rd,,ME,04963
938 Smithfield Rd,,ME,04963
957 Smithfield Rd,,ME,04963
962 Smithfield Rd,,ME,04963
964 Smithfield Rd,,ME,04963
999 Smithfield Rd,,ME,04978
13 Stevens Rd,,ME,04978
24 Stevens Rd,,ME,04978
30 Stevens Rd,,ME,04978
35 Stevens Rd,,ME,04978
42 Stevens Rd,,ME,04978
73 Stevens Rd,,ME,04978
91 Stevens Rd,,ME,04978
100 Stevens Rd,,ME,04978
5 Sunset Meadow Ln,,ME,04978
43 Thomas Ln,,ME,04978
69 Thomas Ln,,ME,04978
38 Tranquility Place Ln,,ME,04978
9 Valley Ln,,ME,04978
17 Valley Ln,,ME,04978
18 Valley Ln,,ME,04978
120 Village Rd,,ME,04963
148 Village Rd,,ME,04963
164 Village Rd,,ME,04963
174 Village Rd,,ME,04963
189 Village Rd,,ME,04978
236 Village Rd,,ME,04963
