street,city,state,zip
16959 48TH AVE,COOPERSVILLE,MI,49404
390 CREEKSIDE DR,COOPERSVILLE,MI,49404
94 ROBERTS CT,COOPERSVILLE,MI,49404
76 ROBERTS CT,COOPERSVILLE,MI,49404
60 ROBERTS CT,COOPERSVILLE,MI,49404
165 ROBERTS CT,COOPERSVILLE,MI,49404
149 ROBERTS CT,COOPERSVILLE,MI,49404
157 ROBERTS CT,COOPERSVILLE,MI,49404
135 ANN ST,COOPERSVILLE,MI,49404
123 ANN ST,COOPERSVILLE,MI,49404
553 HARRISON ST,COOPERSVILLE,MI,49404
565 HARRISON ST,COOPERSVILLE,MI,49404
113 E THACKERY AVE,FLINT,MI,48505
0 E SECOND AVE,FLINT,MI,48502
0 W BOULEVARD DR,FLINT,MI,48505
0 W BOULEVARD DR,FLINT,MI,48505
0 W BOULEVARD DR,FLINT,MI,48505
0 ROBERT T LONGWAY,FLINT,MI,48503
0 CONCORD ST,FLINT,MI,48503
0 MASSACHUSETTS AV,FLINT,MI,48505
0 CADILLAC ST,FLINT,MI,48504
0 LAPEER ST,FLINT,MI,48503
0 DUPONT ST,FLINT,MI,48504
0 DURAND ST,FLINT,MI,48503
1479 N MACOMB ST,MONROE,MI,48162
920 KENTUCKY AVE,MONROE,MI,48161
636 LAPLAISANCE ST,MONROE,MI,48161
633 SCOTT ST,MONROE,MI,48161
640 LAPLAISANCE ST,MONROE,MI,48161
639 SCOTT ST,MONROE,MI,48161
642 LAPLAISANCE ST,MONROE,MI,48161
608 LAPLAISANCE ST,MONROE,MI,48161
614 LAPLAISANCE ST,MONROE,MI,48161
629 SCOTT ST,MONROE,MI,48161
522 SCOTT ST,MONROE,MI,48161
512 SCOTT ST,MONROE,MI,48161
3496 JOSEPHINE LANE,MASON,MI,48854
2945 EVERY,MASON,MI,48854
2515 SANDHILL,MASON,MI,48854
3506 JOSEPHINE LANE,MASON,MI,48854
556 HAGADORN,MASON,MI,48854
2769 SANDHILL,MASON,MI,48854
2920 CHERITHBROOK,MASON,MI,48854
3516 JOSEPHINE LANE,MASON,MI,48854
2950 HAGADORN,MASON,MI,48854
3611 JOSEPHINE LANE,MASON,MI,48854
2949 SANDHILL,MASON,MI,48854
3611 JOSEPHINE LANE,MASON,MI,48854
1876 Catherine Avenue,MUSKEGON,MI,49442
611 Center Street,MUSKEGON,MI,49442
S Dengler Road,MUSKEGON,MI,49442
1640 Moulton Avenue,MUSKEGON,MI,49445
1105 Mclaughlin Avenue,MUSKEGON,MI,49442
169 Iona Avenue,MUSKEGON,MI,49442
1725 Division Street,MUSKEGON,MI,49441
1128 West Dale Avenue,MUSKEGON,MI,49441
1732 Davis Street,MUSKEGON,MI,49441
1021 West Dale Avenue,MUSKEGON,MI,49441
1109 West Larch Avenue,MUSKEGON,MI,49441
2230 Sherin Street,MUSKEGON,MI,49441
1332 Davis Ave,Birmingham,MI,48009
1344 Davis Ave,Birmingham,MI,48009
1356 Davis Ave,Birmingham,MI,48009
1159 Smith Ave,Birmingham,MI,48009
1171 Smith Ave,Birmingham,MI,48009
1187 Smith Ave,Birmingham,MI,48009
1207 Smith Ave,Birmingham,MI,48009
1223 Smith Ave,Birmingham,MI,48009
1241 Smith Ave,Birmingham,MI,48009
1251 Smith Ave,Birmingham,MI,48009
1265 Smith Ave,Birmingham,MI,48009
1305 Smith Ave,Birmingham,MI,48009
4781 DORSHIRE,TROY,MI,48085-4755
4806 LIVERNOIS,TROY,MI,48098
1631 LIVERNOIS,TROY,MI,48083-1700
110 W MAPLE,TROY,MI,48084-5434
2895 CLAYTON,TROY,MI,48083-6408
2882 DOWNEY,TROY,MI,48083-2485
920 E LONG LAKE,TROY,MI,48085-4876
2137 HARNED,TROY,MI,48085-1001
6810 NORTON,TROY,MI,48085-1659
6898 VERNMOOR,TROY,MI,48098-1760
6990 LIMERICK,TROY,MI,48098-2176
6853 KILLARNEY,TROY,MI,48098-2121
25351 FORD RD,DEARBORN,MI,48128
2222 N GULLEY,DEARBORN,MI,48128
2212 N GULLEY,DEARBORN,MI,48128
2200 N GULLEY,DEARBORN,MI,48128
2034 N GULLEY,DEARBORN,MI,48128
2016 N GULLEY,DEARBORN,MI,48128
2006 N GULLEY,DEARBORN,MI,48128
1874 N GULLEY,DEARBORN,MI,48128
1862 N GULLEY,DEARBORN,MI,48128
1854 N GULLEY,DEARBORN,MI,48128
1846 N GULLEY,DEARBORN,MI,48128
1830 N GULLEY,DEARBORN,MI,48128
