street,city,state,zip
43083 DAISY ST,AITKIN,MN,56431
43062 DAISY ST,AITKIN,MN,56431
43037 DAISY ST,AITKIN,MN,56431
43006 DAISY ST,AITKIN,MN,56431
42987 DAISY ST,AITKIN,MN,56431
23946 QUICKSILVER ST NW,SAINT FRANCIS,MN,55070
5993 AMBASSADOR BLVD NW,SAINT FRANCIS,MN,55070
7758 HILL N DALE DR,ELK RIVER,MN,55330
23640 NACRE ST NW,ELK RIVER,MN,55330
23473 VARIOLITE ST NW,ELK RIVER,MN,55330
14583 US HWY 10,LAKE PARK,MN,56554
12787 BRASETH BAY RD,LAKE PARK,MN,56554
12620 BRASETH BAY RD,LAKE PARK,MN,56554
12700 BRASETH BAY RD,LAKE PARK,MN,56554
12740 BRASETH BAY RD,LAKE PARK,MN,56554
71998 STATE HWY 28,GRACEVILLE,MN,56240
23450 720TH AVE,GRACEVILLE,MN,56240
23903 US HWY 75,GRACEVILLE,MN,56240
24464 US HWY 75,GRACEVILLE,MN,56240
72339 250TH ST,GRACEVILLE,MN,56240
1474 Jay West Road,Carlton,MN,55718
109 Broadway,Wrenshall,MN,55797
1601 Circle Drive,Carlton,MN,55718
1822 W   Chub Lake Road,Carlton,MN,55718
11 Vermillion Street,Carlton,MN,55718
8734 288th Street,Chisago City,MN,55013
8596 288th Street,Chisago City,MN,55013
8502 288th Street,Chisago City,MN,55013
8462 288th Street,Chisago City,MN,55013
8410 288th Street,Chisago City,MN,55013
3360 HWY 75  N,MOORHEAD,MN,56560
3358 HWY 75  N,MOORHEAD,MN,56560
3362 HWY 75  N,MOORHEAD,MN,56560
3472 HWY 75  N,MOORHEAD,MN,56560
3808 HWY 75  N,MOORHEAD,MN,56560
0 HWY 75,GEORGETOWN,MN,56546
0 HWY 75,GEORGETOWN,MN,56546
2073 98TH AVE N,Moorhead,MN,56560
9801 21ST ST N,Moorhead,MN,56560
2072 98TH AVE N,Moorhead,MN,56560
4904 Ashley Rd,Baxter,MN,56425
4758 Ashley Rd,Baxter,MN,56425
4718 Ashley Rd,Baxter,MN,56425
4670 Ashley Rd,Baxter,MN,56425
4568 Ashley Rd,Baxter,MN,56425
24967 625 St,KASSON,MN,55944
25120 625 St,KASSON,MN,55944
25153 625 St,KASSON,MN,55944
25195 625 St,KASSON,MN,55944
25334 625 St,KASSON,MN,55944
1427 CO RD 38 NE,Alexandria,MN,56308
315 FAIRGROUNDS RD,Alexandria,MN,56308
315 FAIRGROUNDS RD,Alexandria,MN,56308
1419 KARNIS DR NW,Alexandria,MN,56308
104 ANDERSON ST,Brandon,MN,56315
12500 CO RD 4,ASHBY,MN,56309
12523 CO RD 4,ASHBY,MN,56309
12531 CO RD 4,ASHBY,MN,56309
12557 CO RD 4,ASHBY,MN,56309
32093 127TH AVE,ASHBY,MN,56309
503 GERANIUM ST SE,ROCHESTER,MN,55904
504 GERANIUM ST SE,ROCHESTER,MN,55904
602 GERANIUM ST SE,ROCHESTER,MN,55904
4307 DAFFODIL AVE SE,ROCHESTER,MN,55904
602 11 AVE NW,ROCHESTER,MN,55901
28018 S SHORE DR,STARBUCK,MN,56381
28022 S SHORE DR,STARBUCK,MN,56381
28032 S SHORE DR,STARBUCK,MN,56381
28048 S SHORE DR,STARBUCK,MN,56381
28076 S SHORE DR,STARBUCK,MN,56381
36786 760th Avenue,Bird Island,MN,55310
75212 370th Street,Bird Island,MN,55310
37588 County State Aid Highway 4,Bird Island,MN,55310
37559 County State Aid Highway 4,Bird Island,MN,55310
37554 County State Aid Highway 4,Bird Island,MN,55310
9619 US HIGHWAY 10          NW,ELK RIVER,MN,55330
16208 JARVIS            ST   NW,ELK RIVER,MN,55330
644 RED OAK           DR,BIG LAKE,MN,55309
20355 MEADOWVALE        RD   NW,ELK RIVER,MN,55330
721 SHADY             LN,BIG LAKE,MN,55309
1260 70TH ST SE,Murdock,MN,56271
695 150TH AVE SE,Kerkhoven,MN,56252
1340 70TH ST SE,Murdock,MN,56271
1265 60TH ST SE,Murdock,MN,56271
1485 60TH ST SE,Kerkhoven,MN,56252
7052 COUNTY ROAD 6,DUMONT,MN,56236
5793 680TH AVE,DUMONT,MN,56236
6748 560TH ST,DUMONT,MN,56236
6708 580TH ST,DUMONT,MN,56236
5883 COUNTY ROAD 9,DUMONT,MN,56236
10993 Oak Grove Circle,Woodbury,MN,55129
12929 Jody Avenue North,Hugo,MN,55038
8759 Ironwood Avenue South,Cottage Grove,MN,55016
10993 Oak Grove Circle,Woodbury,MN,55129
10993 Oak Grove Circle,Woodbury,MN,55129
1864 337TH ST,BRECKENRIDGE,MN,56520
2180 360TH ST,BRECKENRIDGE,MN,56520
2034 280TH AVE,ROTHSAY,MN,56579
1355 235TH ST,KENT,MN,56553
1786 280TH AVE,ROTHSAY,MN,56579
