street,city,state,zip
5908 COUNTY ROAD 203,Cape Girardeau,MO,63701
200 FRANKS LN,Cape Girardeau,MO,63701
204 FRANKS LN,Cape Girardeau,MO,63701
210 FRANKS LN,Cape Girardeau,MO,63701
1319 BLOOMFIELD ST,Cape Girardeau,MO,63703
1623 GOOD HOPE ST,Cape Girardeau,MO,63703
1826 BLOOMFIELD ST,Cape Girardeau,MO,63703
1820 BLOOMFIELD ST,Cape Girardeau,MO,63703
1821 GOOD HOPE ST,Cape Girardeau,MO,63703
315 SHERIDAN DR,Cape Girardeau,MO,63703
320 S SPRING AVE,Cape Girardeau,MO,63703
2208 BLOOMFIELD ST,Cape Girardeau,MO,63703
569 Parkgate Dr,Lake Saint Louis,MO,63367
564 Parkgate Dr,Lake Saint Louis,MO,63367
562 Parkgate Dr,Lake Saint Louis,MO,63367
549 Parkgate Dr,Lake Saint Louis,MO,63367
553 Parkgate Dr,Lake Saint Louis,MO,63367
566 Parkgate Dr,Lake Saint Louis,MO,63367
560 Parkgate Dr,Lake Saint Louis,MO,63367
558 Parkgate Dr,Lake Saint Louis,MO,63367
556 Parkgate Dr,Lake Saint Louis,MO,63367
554 Parkgate Dr,Lake Saint Louis,MO,63367
90 Castlewynd Ct,Lake Saint Louis,MO,63367
541 Parkgate Dr,Lake Saint Louis,MO,63367
2001 ST MARYS BLVD,JEFFERSON CITY,MO,65109
2009 ST MARYS BLVD,JEFFERSON CITY,MO,65109
2110 ST MARYS BLVD,JEFFERSON CITY,MO,65109
2119 ST MARYS BLVD,JEFFERSON CITY,MO,65109
2022 MISSOURI BLVD,JEFFERSON CITY,MO,65109
2012 MISSOURI BLVD,JEFFERSON CITY,MO,65109
520 DIX RD,JEFFERSON CITY,MO,65109
2018 WILLIAM ST,JEFFERSON CITY,MO,65109
2300 MISSOURI BLVD,JEFFERSON CITY,MO,65109
2300 ST MARYS BLVD,JEFFERSON CITY,MO,65109
2207 MISSOURI BLVD,JEFFERSON CITY,MO,65109
728 HEISINGER RD,JEFFERSON CITY,MO,65109
11045 N TWIN BROOKS LN,WALNUT GROVE,MO,65770
11230 W STATE HIGHWAY BB,WALNUT GROVE,MO,65770
11068 N TWIN BROOKS LN,WALNUT GROVE,MO,65770
11373 W FARM ROAD 18,WALNUT GROVE,MO,65770
10392 W STATE HIGHWAY BB,WALNUT GROVE,MO,65770
10125 W FARM ROAD 22,WALNUT GROVE,MO,65770
10811 N FRANKLIN LN,WALNUT GROVE,MO,65770
10121 W FARM ROAD 22,WALNUT GROVE,MO,65770
11094 N FARM ROAD 65,WALNUT GROVE,MO,65770
9955 W FARM ROAD 22,WALNUT GROVE,MO,65770
8903 W FARM ROAD 10,WALNUT GROVE,MO,65770
11417 N FARM ROAD 93,WALNUT GROVE,MO,65770
5675 W COTTONWOOD LN,JOPLIN,MO,64801
932 S SPRING VALLEY LN,JOPLIN,MO,64801
1095 COUNTY LANE 44,SARCOXIE,MO,64862
3460 W BELLE CENTER RD,JOPLIN,MO,64801
25471 BRUSSELS DR,JOPLIN,MO,64801
24971 BASE LINE BLVD,ORONOGO,MO,64855
9855 LAWRENCE COUNTY AVE,SARCOXIE,MO,64862
3981 COUNTY ROAD 5,SARCOXIE,MO,64862
3973 COUNTY ROAD 5,SARCOXIE,MO,64862
716 S SUMMIT LN,JOPLIN,MO,64801
721 S SUMMIT LN,JOPLIN,MO,64801
730 S SUMMIT LN,JOPLIN,MO,64801
147 POMODORA CIR,WENTZVILLE,MO,63385
201 BOSCHETTO DR,WENTZVILLE,MO,63385
145 POMODORA CIR,WENTZVILLE,MO,63385
139 POMODORA CIR,WENTZVILLE,MO,63385
137 POMODORA CIR,WENTZVILLE,MO,63385
135 POMODORA CIR,WENTZVILLE,MO,63385
200 BOSCHETTO DR,WENTZVILLE,MO,63385
101 POMODORA CIR,WENTZVILLE,MO,63385
103 POMODORA CIR,WENTZVILLE,MO,63385
105 POMODORA CIR,WENTZVILLE,MO,63385
107 POMODORA CIR,WENTZVILLE,MO,63385
109 POMODORA CIR,WENTZVILLE,MO,63385
6241 LEMAY FERRY RD,SAINT LOUIS,MO,63129
9500 BELLEFONTAINE RD,SAINT LOUIS,MO,63137
681 ST CYR RD,SAINT LOUIS,MO,63137
736 W SPICEWOOD DR,CHESTERFIELD,MO,63005
760 W SPICEWOOD DR,CHESTERFIELD,MO,63005
5682 BANEZ DR,SAINT LOUIS,MO,63128
6247 LEMAY FERRY RD,SAINT LOUIS,MO,63129
6245 LEMAY FERRY RD,SAINT LOUIS,MO,63129
18012 MANCHESTER RD,GLENCOE,MO,63038
1475 DUNN RD,SAINT LOUIS,MO,63138
2804 HATHAWAY AVE,MARYLAND HEIGHTS,MO,63043
2731 EDGEWORTH AVE,MARYLAND HEIGHTS,MO,63043
104 6TH AVE,RIDGEDALE,MO,65739
297 6TH AVE,RIDGEDALE,MO,65739
342 6TH AVE,RIDGEDALE,MO,65739
1314 TATE RD,RIDGEDALE,MO,65739
140 CRESCENT LN,RIDGEDALE,MO,65739
145 CRESCENT LN,RIDGEDALE,MO,65739
107 ROCKY RD,RIDGEDALE,MO,65739
968 RED BLUFF RD,BLUE EYE,MO,65611
882 BRUSHY RD,BLUE EYE,MO,65611
2757 JONES RD,RIDGEDALE,MO,65739
295 6TH AVE,RIDGEDALE,MO,65739
385 NATURE LN,RIDGEDALE,MO,65739
