street,city,state,zip
2330 ATKINSON RD,BILOXI,MS,39531
13464 SCRUGGS LN,BILOXI,MS,39532
13524 SCRUGGS LN,BILOXI,MS,39532
13579 LAMEY BRIDGE RD,BILOXI,MS,39532
15039 LORRAINE RD,BILOXI,MS,39532
13325 JIM BYRD RD,BILOXI,MS,39532
0 PASS RD,BILOXI,MS,39531
13171 PARADISE LN,BILOXI,MS,39532
5081 EDEN PL,BILOXI,MS,39532
5169 EDEN PL,BILOXI,MS,39532
5180 EDEN PL,BILOXI,MS,39532
3487 WELLS FERRY CV,BILOXI,MS,39532
13181 HWY 15,BILOXI,MS,39532
13284 PARADISE LN,BILOXI,MS,39532
5125 EDEN PL,BILOXI,MS,39532
13240 PARADISE LN,BILOXI,MS,39532
12895 PARADISE LN,BILOXI,MS,39532
12895 PARADISE LN,BILOXI,MS,39532
13328 PARADISE LN,BILOXI,MS,39532
13170 PARADISE LN,BILOXI,MS,39532
13145 REECE BERGERON RD,BILOXI,MS,39532
5129 EDEN PL,BILOXI,MS,39532
5139 EDEN PL,BILOXI,MS,39532
3495 WELLS FERRY CV,BILOXI,MS,39532
3505 WELLS FERRY CV,BILOXI,MS,39532
13420 CHANDLER CT,Gulfport,MS,39503
13416 CHANDLER CT,Gulfport,MS,39503
13412 CHANDLER CT,Gulfport,MS,39503
13404 CHANDLER CT,Gulfport,MS,39503
13400 CHANDLER CT,Gulfport,MS,39503
13446 ADDISON AVE,Gulfport,MS,39503
13472 ADDISON AVE,Gulfport,MS,39503
13447 ADDISON AVE,Gulfport,MS,39503
13451 ADDISON AVE,Gulfport,MS,39503
13459 ADDISON AVE,Gulfport,MS,39503
13450 ADDISON AVE,Gulfport,MS,39503
13454 ADDISON AVE,Gulfport,MS,39503
13458 ADDISON AVE,Gulfport,MS,39503
1274 CENTURY OAKS DR,Gulfport,MS,39507
1274 CENTURY OAKS DR,Gulfport,MS,39507
1276 CENTURY OAKS DR,Gulfport,MS,39507
1276 CENTURY OAKS DR,Gulfport,MS,39507
1283 CENTURY OAKS DR,Gulfport,MS,39507
1283 CENTURY OAKS DR,Gulfport,MS,39507
1283 CENTURY OAKS DR,Gulfport,MS,39507
1283 CENTURY OAKS DR,Gulfport,MS,39507
1285 CENTURY OAKS DR,Gulfport,MS,39507
1285 CENTURY OAKS DR,Gulfport,MS,39507
1287 CENTURY OAKS DR,Gulfport,MS,39507
1287 CENTURY OAKS DR,Gulfport,MS,39507
5625 REILLY RD,OCEAN SPRINGS,MS,39564
8604 OLD CCC CAMP RD,OCEAN SPRINGS,MS,39564
8612 OLD CCC CAMP RD,OCEAN SPRINGS,MS,39564
8616 OLD CCC CAMP RD,OCEAN SPRINGS,MS,39564
8700 OLD CCC CAMP RD,OCEAN SPRINGS,MS,39564
8708 OLD CCC CAMP RD,OCEAN SPRINGS,MS,39564
0 OLD CCC CAMP RD,OCEAN SPRINGS,MS,39564
8808 OLD CCC CAMP RD,OCEAN SPRINGS,MS,39564
8812 OLD CCC CAMP RD,OCEAN SPRINGS,MS,39564
8900 OLD CCC CAMP RD,OCEAN SPRINGS,MS,39564
8904 OLD CCC CAMP RD,OCEAN SPRINGS,MS,39564
8913 OLD CCC CAMP RD,OCEAN SPRINGS,MS,39564
8916 OLD CCC CAMP RD,OCEAN SPRINGS,MS,39564
9013 OCEAN SPRINGS RD,OCEAN SPRINGS,MS,39564
5320 DEANA RD,OCEAN SPRINGS,MS,39564
0 DEANA RD,OCEAN SPRINGS,MS,39564
5400 DEANA RD,OCEAN SPRINGS,MS,39564
9200 OCEAN SPRINGS RD,OCEAN SPRINGS,MS,39566
9208 OCEAN SPRINGS RD,OCEAN SPRINGS,MS,39564
5412 DEANA RD,OCEAN SPRINGS,MS,39564
9117 OCEAN SPRINGS RD,OCEAN SPRINGS,MS,39564
0 OCEAN SPRINGS RD,OCEAN SPRINGS,MS,39564
9400 OCEAN SPRINGS RD,OCEAN SPRINGS,MS,39564
9312 OCEAN SPRINGS RD,OCEAN SPRINGS,MS,39564
5417 DEANA RD,OCEAN SPRINGS,MS,39564
437 MULLICAN RD,FLORENCE,MS,39073
1534 OLD PEARL RD,FLORENCE,MS,39073
1725 OLD PEARL RD.,FLORENCE,MS,39073
1649 OLD PEARL RD,FLORENCE,MS,39073
118 DEAR FIELD DR,FLORENCE,MS,39073
1640 OLD PEARL RD.,FLORENCE,MS,39073
338 HANCOCK RD.,FLORENCE,MS,39073
1669 OLD PEARL RD.,FLORENCE,MS,39073
1640 OLD PEARL RD.,FLORENCE,MS,39073
1534 OLD PEARL RD,FLORENCE,MS,39073
402 ROSES BLUFF DR,MADISON,MS,39110
1640 OLD PEARL RD,FLORENCE,MS,39073
1652 OLD PEARL RD.,FLORENCE,MS,39073
1668 OLD PEARL RD,FLORENCE,MS,39073
1737 OLD PEARL RD,FLORENCE,MS,39073
300 W COUNTYLINE RD,FLORENCE,MS,39073
338 HANCOCK RD.,FLORENCE,MS,39073
203 HICKORY CIRCLE,PEARL,MS,39208
300 W COUNTYLINE RD,FLORENCE,MS,39073
338 HANCOCK RD.,FLORENCE,MS,39073
1534 OLD PEARL RD,FLORENCE,MS,39073
1894 OLD PEARL RD,FLORENCE,MS,39073
1534 OLD PEARL RD,FLORENCE,MS,39073
338 HANCOCK RD.,FLORENCE,MS,39073
122 EVERGREEN DR,BRANDON,MS,39042
