street,city,state,zip
63 OVERLAND TRL,,MT,
101 GRAVELY LN,,MT,
154 JIMMY GREEN RD,,MT,
159 JIMMY GREEN RD,,MT,
160 JIMMY GREEN RD,,MT,
45 OVERLAND TRL,,MT,
5659 US 287 HWY,,MT,
41 OXBOW TRL,,MT,
104 OVERLAND TRL,,MT,
300 OXBOW BEND RD,,MT,
21 AMBER LN,,MT,
26 OXBOW BEND RD,,MT,
2164 HIGHWAY 78,,MT,
441 CLEAR CREEK RD,,MT,
20 TIPTON LN,,MT,
7543 US HIGHWAY 212,,MT,
7947 US HIGHWAY 212,,MT,
30 PRICE RD,,MT,
457 CARBONADO RD,,MT,
1529 HIGHWAY 421,,MT,
15 RAINBOW DR,,MT,
7524 US HIGHWAY 212,,MT,
6 HENRYS PL,,MT,
19 KRUG LN,,MT,
420 BLACKTAIL RD,,MT,
226 SKOOKUM RD,,MT,
220 TROUTBECK RD,,MT,
236 TROUTBECK RD,,MT,
106 TROUTBECK RD,,MT,
555 LANG CREEK RD,,MT,
4170 HUBBART DAM RD,,MT,
730 BATTLE BUTTE RD,,MT,
191 SKOOKUM RD,,MT,
151 WULFF LN,,MT,
850 BLACKTAIL RD,,MT,
132 TROUTBECK RD,,MT,
2034 HAUSER BLVD,,MT,59601
2026 HAUSER BLVD,,MT,59601
2020 HAUSER BLVD,,MT,59601
2014 HAUSER BLVD,,MT,59601
2000 HAUSER BLVD,,MT,59601
1810 CHOTEAU ST,,MT,59601
600 GLENDALE ST,,MT,59601
1144 HUNTER RD,,MT,59602
1130 HUNTER RD,,MT,59602
1116 HUNTER RD,,MT,59602
1108 HUNTER RD,,MT,59602
1156 HUNTER RD,,MT,59602
3779 US HIGHWAY 89   N,Wilsall,MT,59086
2192 SHIELDS RIVER RD,Wilsall,MT,59086
301 ANDERSON RD,Wilsall,MT,59086
33 HILL RD,Wilsall,MT,59086
54 HAMILTON RD,Wilsall,MT,59086
1607 SHIELDS RIVER RD,Wilsall,MT,59086
1855 SHIELDS RIVER RD,Wilsall,MT,59086
2057 SHIELDS RIVER RD,Wilsall,MT,59086
1697 SHIELDS RIVER RD,Wilsall,MT,59086
1723 SHIELDS RIVER RD,Wilsall,MT,59086
1840 SHIELDS RIVER RD,Wilsall,MT,59086
1838 SHIELDS RIVER RD,Wilsall,MT,59086
2619 MERIDIAN RD,,MT,
139 SWEATHOUSE CREEK RD,,MT,
147 SWEATHOUSE CREEK RD,,MT,
155 SWEATHOUSE CREEK RD,,MT,
151 SWEATHOUSE CREEK RD,,MT,
2367 US HIGHWAY 93 N,,MT,
2359 US HIGHWAY 93 N,,MT,
2476 CHIEF VICTORS CAMP RD,,MT,
501 WARP DR,,MT,
499 WARP DR,,MT,
500 WARP DR,,MT,
2354 147TH DR,,MT,
510 1ST ST SE,,MT,
3 BRIDAL PATH DR,,MT,
508 DALLMAN ST,,MT,
1180 FLAT RD,,MT,
60 WILD HORSE RUN,,MT,
4 VOSS LN,,MT,
112 PINE ST S,,MT,
11 WOMAN CHIEF CIR,,MT,
94 S FIDDLER CREEK RD,,MT,
104 S FIDDLER CREEK RD,,MT,
19 HENRY ST,,MT,
642 HIGHWAY 10,,MT,
341 GRIFFITH AVE,,MT,
221 GRIFFITH AVE,,MT,
417 RAILROAD ST,,MT,
310 CHURCH ST,,MT,
618 WOLF AVE,,MT,
21 LARIAT LN,,MT,
45 COLEMAN RD,,MT,
2476 MARIAS VALLEY RD,,MT,
728 MARIAS AVE,,MT,
725 MARIAS AVE,,MT,
901 PRAIRIE ST,,MT,
1289 NINE MILE RD,,MT,
