street,city,state,zip
4548 HASSELL CORBETT RD,BURLINGTON,NC,27217
6157 N NC 119 HWY,BURLINGTON,NC,27217
2428 FOXFIRE LN,BURLINGTON,NC,27217
651 MCCRAY RD,BURLINGTON,NC,27217
438 MCCRAY RD,BURLINGTON,NC,27217
417 MCCRAY RD,BURLINGTON,NC,27217
467 MCCRAY RD,BURLINGTON,NC,27217
1237 CHURCH ST NW,Valdese,NC,28690
211 TOWNSEND ST SE,Valdese,NC,28690
1400 FALLS RD NW,Valdese,NC,28690
370 LOVELADY RD,Connelly Springs,NC,28612
1831 US 70  E,Morganton,NC,28655
1000 PERKINS RD SE,Valdese,NC,28690
101 US 70,Valdese,NC,28690
1 BUFFALO AVE NW,CONCORD,NC,28025
1 CARPENTER CT NW,CONCORD,NC,28027
1 CONCORD COMMONS PL SW,CONCORD,NC,28027
1 HICKORY ST SW,CONCORD,NC,28027
1 KEPLEY PL NW,CONCORD,NC,28027
1 TARRYMORE LN SW,CONCORD,NC,28027
1 TOWER CIR NW,CONCORD,NC,28027
2306 FORT MACON,ATLANTIC BEACH,NC,28512
2291 FORT MACON,ATLANTIC BEACH,NC,28512
100 SHORELINE,ATLANTIC BEACH,NC,28512
102 SHORELINE,ATLANTIC BEACH,NC,28512
104 SHORELINE,ATLANTIC BEACH,NC,28512
200 SHORELINE,ATLANTIC BEACH,NC,28512
202 SHORELINE,ATLANTIC BEACH,NC,28512
1607 SWORDFISH LN,CB,NC,28428
302 CANAL DR,CB,NC,28428
319 N CAROLINA BEACH AVE,CB,NC,28428
415 CANAL DR,CB,NC,28428
413 CANAL DR,CB,NC,28428
715 CANAL DR,CB,NC,28428
801 CANAL DR,CB,NC,28428
225 HARREL ST,SALISBURY,NC,28144
2715 STATESVILLE BLVD,SALISBURY,NC,28147
2715 STATESVILLE BLVD,SALISBURY,NC,28147
2715 STATESVILLE BLVD,SALISBURY,NC,28147
103 LANCELOT RD,SALISBURY,NC,28147
104 PEARL ST,SALISBURY,NC,28146
1002 FRANKS DR,SALISBURY,NC,28147
4699 UZZLE RD,ROUGEMONT,NC,27572
1159 SMITH CREEK WAY,WAKE FOREST,NC,27587
1174 SMITH CREEK WAY,WAKE FOREST,NC,27587
1175 SMITH CREEK WAY,WAKE FOREST,NC,27587
1173 SMITH CREEK WAY,WAKE FOREST,NC,27587
1171 SMITH CREEK WAY,WAKE FOREST,NC,27587
1167 SMITH CREEK WAY,WAKE FOREST,NC,27587
4677 CHAPEL RIDGE DR,PCTYGR,NC,27405
1737 MIRABEAU CT,PCTYHP,NC,27265
1987 WHEELER BRIDGE RD,PCTYBU,NC,27215
3066 RENAISSANCE PKWY,PCTYJA,NC,27282
3055 RENAISSANCE PKWY,PCTYJA,NC,27282
803 JARMAN DR,PCTYJA,NC,27282
3066 RENAISSANCE PKWY,PCTYJA,NC,27282
9753 NC 27 E,BENSON,NC,27504
9840 NC 27 E,BENSON,NC,27504
9829 NC 27 E,BENSON,NC,27504
9868 NC 27 E,BENSON,NC,27504
280 AUGER HOLE RD,HOLLY SPRINGS,NC,27540
117 REX LN,HOLLY SPRINGS,NC,27540
55 REX LN,HOLLY SPRINGS,NC,27540
127 CINNAMON WAY,FLAT ROCK,NC,28731
117 CINNAMON WAY,FLAT ROCK,NC,28731
115 CINNAMON WAY,FLAT ROCK,NC,28731
204 MINT WAY,FLAT ROCK,NC,28731
206 MINT WAY,FLAT ROCK,NC,28731
209 MINT WAY,FLAT ROCK,NC,28731
105 CINNAMON WAY,FLAT ROCK,NC,28731
717 EDGEWOOD DR,MURFREESBORO,NC,27855
715 EDGEWOOD DR,MURFREESBORO,NC,27855
716 EDGEWOOD DR,MURFREESBORO,NC,27855
713 EDGEWOOD DR,MURFREESBORO,NC,27855
714 EDGEWOOD DR,MURFREESBORO,NC,27855
710 EDGEWOOD DR,MURFREESBORO,NC,27855
711 EDGEWOOD DR,MURFREESBORO,NC,27855
4813 SUGAR MAPLE RD,SANFORD,NC,27332
364 MCCORMICK RD,SANFORD,NC,27332
6345 SHERIFF WATSON RD,SANFORD,NC,27332
320 LULA LN,SANFORD,NC,27332
279 LULA LN,SANFORD,NC,27332
300 LULA LN,SANFORD,NC,27332
7016 CEDAR RD,SANFORD,NC,27332
105 HILLARD DRIVE,PLYMOUTH,NC,27962
107 HILLARD DRIVE,PLYMOUTH,NC,27962
108 HILLARD DRIVE,PLYMOUTH,NC,27962
104 HILLARD DRIVE,PLYMOUTH,NC,27962
103 HILLY CIRCLE,PLYMOUTH,NC,27962
111 HILLARD DRIVE,PLYMOUTH,NC,27962
117 HILLARD DRIVE,PLYMOUTH,NC,27962
260 KING RD,GOLDSBORO,NC,27530
1702 N US 117 BYP,GOLDSBORO,NC,27530
1669 NOR-AM RD,PIKEVILLE,NC,27863
315 RANDALL LN,GOLDSBORO,NC,27534
315 RANDALL LN,GOLDSBORO,NC,27534
305 RANDALL LN,GOLDSBORO,NC,27534
305 RANDALL LN,GOLDSBORO,NC,27534
