street,city,state,zip
215 1ST AVE N,GRAND FORKS,ND,58201
10 N 3RD ST,GRAND FORKS,ND,58201
8 N 3RD ST,GRAND FORKS,ND,58201
6 N 3RD ST,GRAND FORKS,ND,58201
2 N 3RD ST,GRAND FORKS,ND,58201
220 DEMERS AVE,GRAND FORKS,ND,58201
214 DEMERS AVE,GRAND FORKS,ND,58201
212 DEMERS AVE,GRAND FORKS,ND,58201
216 DEMERS AVE,GRAND FORKS,ND,58201
202 DEMERS AVE,GRAND FORKS,ND,58201
202 DEMERS AVE,GRAND FORKS,ND,58201
2 S 3RD ST,GRAND FORKS,ND,58201
305 DEMERS AVE,GRAND FORKS,ND,58201
307 DEMERS AVE,GRAND FORKS,ND,58201
309 DEMERS AVE,GRAND FORKS,ND,58201
4 S 3RD ST,GRAND FORKS,ND,58201
4 S 3RD ST,GRAND FORKS,ND,58201
6 S 3RD ST,GRAND FORKS,ND,58201
8 S 3RD ST,GRAND FORKS,ND,58201
8 S 3RD ST,GRAND FORKS,ND,58201
12 S 3RD ST,GRAND FORKS,ND,58201
10 S 3RD ST,GRAND FORKS,ND,58201
12 S 3RD ST,GRAND FORKS,ND,58201
16 S 3RD ST,GRAND FORKS,ND,58201
16 S 3RD ST,GRAND FORKS,ND,58201
18 S 3RD ST,GRAND FORKS,ND,58201
22 S 3RD ST,GRAND FORKS,ND,58201
24 S 3RD ST,GRAND FORKS,ND,58201
28 S 3RD ST,GRAND FORKS,ND,58201
312 KITTSON AVE,GRAND FORKS,ND,58201
323 DEMERS AVE,GRAND FORKS,ND,58201
321 DEMERS AVE,GRAND FORKS,ND,58201
323 DEMERS AVE,GRAND FORKS,ND,58201
319 DEMERS AVE,GRAND FORKS,ND,58201
311 DEMERS AVE,GRAND FORKS,ND,58201
317 DEMERS AVE,GRAND FORKS,ND,58201
13 S 4TH ST,GRAND FORKS,ND,58201
11 S 4TH ST,GRAND FORKS,ND,58201
15 S 4TH ST,GRAND FORKS,ND,58201
21 S 4TH ST,GRAND FORKS,ND,58201
21 S 4TH ST,GRAND FORKS,ND,58201
316 KITTSON AVE,GRAND FORKS,ND,58201
23 S 4TH ST,GRAND FORKS,ND,58201
25 S 4TH ST,GRAND FORKS,ND,58201
324 KITTSON AVE,GRAND FORKS,ND,58201
324 KITTSON AVE,GRAND FORKS,ND,58201
314 KITTSON AVE,GRAND FORKS,ND,58201
314 KITTSON AVE,GRAND FORKS,ND,58201
401 DEMERS AVE,GRAND FORKS,ND,58201
55 S 5TH ST,GRAND FORKS,ND,58201
16395 63RD ST SE,Walcott,ND,58077
5897 175TH AVE SE,Walcott,ND,58077
6780 167TH AVE SE,Colfax,ND,58018
15943 81ST ST SE,Wyndmere,ND,58081
149 SOO AVE,Wyndmere,ND,58081
1287 16TH AVE N,Wahpeton,ND,58075
74 4TH AVE N,Wahpeton,ND,58075
994 4TH AVE S,Wahpeton,ND,58075
1004 4TH AVE S,Wahpeton,ND,58075
922 11TH AVE S,Wahpeton,ND,58075
309 11TH ST N,Wahpeton,ND,58075
992 11TH ST N,Wahpeton,ND,58075
2103 WATTS WAY,Wahpeton,ND,58075
300 LORRAINE ST,Mantador,ND,58058
117 4TH ST SE,Lidgerwood,ND,58053
609 1ST ST SE,Hankinson,ND,58041
16820 11,Hankinson,ND,58041
8725 181 1/2 AVE SE,Wahpeton,ND,58075
5470 150TH AVE SE,Leonard,ND,58052
15233 55TH ST SE,Leonard,ND,58052
15270 46,Leonard,ND,58052
15330 46,Leonard,ND,58052
5415 154TH AVE SE,Leonard,ND,58052
5472 154TH AVE SE,Leonard,ND,58052
5495 156TH AVE SE,Kindred,ND,58051
15690 46,Kindred,ND,58051
5425 18,Kindred,ND,58051
5475 18,Kindred,ND,58051
15720 46,Kindred,ND,58051
15760 46,Kindred,ND,58051
15840 46,Kindred,ND,58051
5445 159TH AVE SE,Kindred,ND,58051
5447 159TH AVE SE,Kindred,ND,58051
5493 159TH AVE SE,Kindred,ND,58051
5465 159TH AVE SE,Kindred,ND,58051
15865 55TH ST SE,Kindred,ND,58051
5445 160TH AVE SE,Kindred,ND,58051
5498 160TH AVE SE,Kindred,ND,58051
16216 46,Kindred,ND,58051
16310 55TH ST SE,Kindred,ND,58051
16295 55TH ST SE,Kindred,ND,58051
16289 55TH ST SE,Kindred,ND,58051
5480 26,Kindred,ND,58051
16610 46,Kindred,ND,58051
16670 46,Kindred,ND,58051
5485 168TH AVE SE,Kindred,ND,58051
16830 46,Kindred,ND,58051
5477 1,Kindred,ND,58051
5470 1,Kindred,ND,58051
16950 46,Kindred,ND,58051
