street,city,state,zip
6303 W OLD CHENEY RD,DENTON,NE,68339
6455 W OLD CHENEY RD,DENTON,NE,68339
5810 PINE KNOT DR,DENTON,NE,68339
5910 PINE KNOT DR,DENTON,NE,68339
6000 PINE KNOT DR,DENTON,NE,68339
6100 PINE KNOT DR,DENTON,NE,68339
5600 PINE CREEK CIR,DENTON,NE,68339
6601 CARDINAL COVE CT,DENTON,NE,68339
6600 CARDINAL COVE CT,DENTON,NE,68339
5700 PINE CREEK CIR,DENTON,NE,68339
5605 PINE CREEK CIR,DENTON,NE,68339
5901 PINE KNOT DR,DENTON,NE,68339
6620 RAVEN RIDGE CT,DENTON,NE,68339
13301 W SPRING RD,DENTON,NE,68339
13501 W SPRING RD,DENTON,NE,68339
7400 SW 61ST ST,DENTON,NE,68339
6101 W YANKEE LAKE RD,DENTON,NE,68339
5770 W YANKEE LAKE RD,DENTON,NE,68339
5701 W YANKEE LAKE RD,DENTON,NE,68339
5901 W YANKEE LAKE RD,DENTON,NE,68339
6100 W YANKEE LAKE RD,DENTON,NE,68339
8300 W MOUNTAIN ASH DR,DENTON,NE,68339
8301 W MOUNTAIN ASH DR,DENTON,NE,68339
8101 W MOUNTAIN ASH DR,DENTON,NE,68339
8100 W GINKGO LN,DENTON,NE,68339
8200 W GINKGO LN,DENTON,NE,68339
8250 W GINKGO LN,DENTON,NE,68339
8301 W GINKGO LN,DENTON,NE,68339
9500 SW 84TH ST,DENTON,NE,68339
8800 SW 81ST STREET CT,DENTON,NE,68339
8700 SW 81ST STREET CT,DENTON,NE,68339
8701 SW 81ST STREET CT,DENTON,NE,68339
8350 W GINKGO LN,DENTON,NE,68339
8201 W GINKGO LN,DENTON,NE,68339
8001 W YANKEE HILL RD,DENTON,NE,68339
8600 SW 84TH ST,DENTON,NE,68339
8501 W TREVISA CT,MALCOLM,NE,68402
8400 W TREVISA CT,MALCOLM,NE,68402
8401 W TREVISA CT,MALCOLM,NE,68402
8300 NW 70TH ST,MALCOLM,NE,68402
8100 NW 70TH ST,MALCOLM,NE,68402
7800 NW 70TH ST,MALCOLM,NE,68402
12100 W FLETCHER AVE,LINCOLN,NE,68524
14401 COUNTRY LN,LINCOLN,NE,68517
14900 COUNTRY LN,LINCOLN,NE,68517
14800 COUNTRY LN,LINCOLN,NE,68517
13701 W SPRING RD,DENTON,NE,68339
25660 S 12TH ST,MARTELL,NE,68404
12300 SW 14TH ST,ROCA,NE,68430
1400 STELLA MARIA AVE,ROCA,NE,68430
1555 DEER TRL,ROCA,NE,68430
1501 DEER TRL,ROCA,NE,68430
1401 DEER TRL,ROCA,NE,68430
1410 DEER TRL,ROCA,NE,68430
1530 DEER TRL,ROCA,NE,68430
3000 RUHLMAN CIR,MARTELL,NE,68404
3200 RUHLMAN CIR,MARTELL,NE,68404
3300 RUHLMAN CIR,MARTELL,NE,68404
3330 RUHLMAN CIR,MARTELL,NE,68404
3303 RUHLMAN CIR,MARTELL,NE,68404
3201 RUHLMAN CIR,MARTELL,NE,68404
3131 RUHLMAN CIR,MARTELL,NE,68404
3001 RUHLMAN CIR,MARTELL,NE,68404
2901 RUHLMAN CIR,MARTELL,NE,68404
18101 SW 42ND ST,MARTELL,NE,68404
4300 W BLUESTEM RD,MARTELL,NE,68404
17701 SW 44TH ST,MARTELL,NE,68404
4251 SUNFLOWER RD,MARTELL,NE,68404
4400 BASSWOOD RD,MARTELL,NE,68404
17550 SW 44TH ST,MARTELL,NE,68404
3949 WAVERLY RD,DAVEY,NE,68336
12550 N 84TH ST,LINCOLN,NE,68517
12600 N 84TH ST,LINCOLN,NE,68517
8500 PEARLE RD,LINCOLN,NE,68517
9000 PEARLE RD,LINCOLN,NE,68517
8930 PEARLE RD,LINCOLN,NE,68517
8900 PEARLE RD,LINCOLN,NE,68517
8400 WAVERLY RD,LINCOLN,NE,68517
9000 WAVERLY RD,LINCOLN,NE,68517
8833 EDWIN LN,LINCOLN,NE,68517
8921 EDWIN LN,LINCOLN,NE,68517
8939 EDWIN LN,LINCOLN,NE,68517
8901 EDWIN LN,LINCOLN,NE,68517
12401 FINIGAN RD,LINCOLN,NE,68517
8700 PEARLE RD,LINCOLN,NE,68517
12200 FINIGAN RD,LINCOLN,NE,68517
12301 FINIGAN RD,LINCOLN,NE,68517
12201 FINIGAN RD,LINCOLN,NE,68517
12500 N 84TH ST,LINCOLN,NE,68517
12440 N 84TH ST,LINCOLN,NE,68517
12400 N 84TH ST,LINCOLN,NE,68517
8955 EDWIN LN,LINCOLN,NE,68517
12700 N 84TH ST,LINCOLN,NE,68517
8501 PEARLE RD,LINCOLN,NE,68517
11901 N 79TH ST,LINCOLN,NE,68517
11855 N 79TH ST,LINCOLN,NE,68517
11801 N 79TH ST,LINCOLN,NE,68517
11777 N 79TH ST,LINCOLN,NE,68517
11701 N 79TH ST,LINCOLN,NE,68517
11601 N 79TH ST,LINCOLN,NE,68517
