street,city,state,zip
24 GREY POINT AVENUE,AUBURN,NH,
8 GREY POINT AVENUE,AUBURN,NH,
360 RATTLESNAKE HILL RD,AUBURN,NH,
350 RATTLESNAKE HILL RD,AUBURN,NH,
11 SONYA DRIVE,AUBURN,NH,
298 RATTLESNAKE HILL RD,AUBURN,NH,
9 MATTHEW DRIVE,AUBURN,NH,
8 MATTHEW DRIVE,AUBURN,NH,
248 RATTLESNAKE HILL RD,AUBURN,NH,
236 RATTLESNAKE HILL RD,AUBURN,NH,
48 MATTHEW DRIVE,AUBURN,NH,
10 SONYA DRIVE,AUBURN,NH,
26 SONYA DRIVE,AUBURN,NH,
36 SONYA DRIVE,AUBURN,NH,
50 SONYA DRIVE,AUBURN,NH,
58 SONYA DRIVE,AUBURN,NH,
25 SONYA DRIVE,AUBURN,NH,
44 MATTHEW DRIVE,AUBURN,NH,
40 MATTHEW DRIVE,AUBURN,NH,
34 MATTHEW DRIVE,AUBURN,NH,
25 VALLEY RD,HAMPSTEAD,NH,
21 VALLEY RD,HAMPSTEAD,NH,
17 VALLEY RD,HAMPSTEAD,NH,
15 VALLEY RD,HAMPSTEAD,NH,
9 VALLEY RD,HAMPSTEAD,NH,
724 MAIN ST,HAMPSTEAD,NH,
724 MAIN ST,HAMPSTEAD,NH,
707 MAIN ST,HAMPSTEAD,NH,
36 APPLETON LN,HAMPSTEAD,NH,
2 ASHFORD RD,HAMPSTEAD,NH,
39 APPLETON LN,HAMPSTEAD,NH,
712 MAIN ST,HAMPSTEAD,NH,
4 ASHFORD RD,HAMPSTEAD,NH,
6 VALLEY RD,HAMPSTEAD,NH,
220 DEPOT RD,HAMPSTEAD,NH,
230 DEPOT RD,HAMPSTEAD,NH,
37 APPLETON LN,HAMPSTEAD,NH,
5 ASHFORD RD,HAMPSTEAD,NH,
700 MAIN ST,HAMPSTEAD,NH,
35 APPLETON LN,HAMPSTEAD,NH,
615 AMHERST ST,NASHUA,NH,
17 BANGOR ST,NASHUA,NH,
17 CRIMSON CT,NASHUA,NH,
8 BURNHAM AVE,NASHUA,NH,
16 DINSMORE ST,NASHUA,NH,
12 BROOKLINE ST,NASHUA,NH,
18 WHEATON DR,NASHUA,NH,
58 MANCHESTER ST,NASHUA,NH,
14 BURNHAM AVE,NASHUA,NH,
12 COURTLAND ST,NASHUA,NH,
6 CUSHING AVE,NASHUA,NH,
167 CYPRESS LN,NASHUA,NH,
11 WEBSTER ST,NASHUA,NH,
120 CYPRESS LN,NASHUA,NH,
16 CUSHING AVE,NASHUA,NH,
38 WOODLAND DR,NASHUA,NH,
13 COBURN WOODS,NASHUA,NH,
177 COBURN WOODS,NASHUA,NH,
203 COBURN WOODS,NASHUA,NH,
46 COBURN WOODS,NASHUA,NH,
14 HADLEY RD,Jaffrey,NH,
406 SQUANTUM RD,Jaffrey,NH,
35 MARIA DR,Jaffrey,NH,
571 NORTH ST,Jaffrey,NH,
552 DUBLIN RD,Jaffrey,NH,
584 DUBLIN RD,Jaffrey,NH,
141 OLD SHARON RD,Jaffrey,NH,
2 DUVAL COOP M H PARK,Jaffrey,NH,
585 DUBLIN RD,Jaffrey,NH,
418 TOWN FARM RD,Jaffrey,NH,
20 WEBSTER ST,Jaffrey,NH,
365 TURNPIKE RD,Jaffrey,NH,
58 MARIA DR,Jaffrey,NH,
16 PRESCOTT RD,Jaffrey,NH,
27 FITCH RD,Jaffrey,NH,
43 FITCH RD,Jaffrey,NH,
103 FITCH RD,Jaffrey,NH,
43 MILLIKEN RD,Jaffrey,NH,
53 MILLIKEN RD,Jaffrey,NH,
67 MILLIKEN RD,Jaffrey,NH,
439 MONT VERNON RD,,NH,
495 MONT VERNON RD,,NH,
157 JENNISON RD,,NH,
0 MONT VERNON ST,,NH,
484 MONT VERNON RD,,NH,
269 JENNISON RD,,NH,
270 JENNISON RD,,NH,
21 CHRISTMAS TREE LN,,NH,
15 CHRISTMAS TREE LN,,NH,
263 JENNISON RD,,NH,
33 CHRISTMAS TREE LN,,NH,
39 CHRISTMAS TREE LN,,NH,
5 CHRISTMAS TREE LN,,NH,
41 CHRISTMAS TREE LN,,NH,
47 CHRISTMAS TREE LN,,NH,
253 JENNISON RD,,NH,
88 HARTSHORN MILL RD,,NH,
51 CHRISTMAS TREE LN,,NH,
55 CHRISTMAS TREE LN,,NH,
256 JENNISON RD,,NH,
