street,city,state,zip
5 TROLL LN,ROCKAWAY,NJ,07866
15 LAFAYETTE PL,DENVILLE,NJ,07834
78 WOODLAND RD,CHATHAM,NJ,07928
55 MOUNTAINSIDE DR,RANDOLPH,NJ,07869
7 GREEN HILLS RD,MENDHAM,NJ,07945
36 MARGARET RD,OAK RIDGE,NJ,07438
23 COBBLESTONE TER,MONTVILLE,NJ,07045
10 SMITH RD,DENVILLE,NJ,07834
15 STARLING RD,RANDOLPH,NJ,07869
11 LUDLOW ST,WHARTON,NJ,07885
1 GARWOOD TRL,DENVILLE,NJ,07834
68 TAYLORTOWN RD,MONTVILLE,NJ,07045
17 WOOD CHASE LN,BUTLER,NJ,07405
44 BERLIN RD,PARSIPPANY,NJ,07054
14 STRUBLE AVE,BUTLER,NJ,07405
20 PINE ST,MORRISTOWN,NJ,07960
31 DARTMOOR RD,EAST HANOVER,NJ,07936
6 RIVERSIDE DR,PEQUANNOCK,NJ,07440
1 EAGLE ROCK VLG,BUDD LAKE,NJ,07828
11 ALEXANDER AVE,MADISON,NJ,07940
42 ROSWELL ST,DOVER,NJ,07801
79 RIVER RD,FLANDERS,NJ,07836
30 LIVINGSTON AVE,DOVER,NJ,07801
16 FLORENCE DR,FLORHAM PARK,NJ,07932
0 APPLE TRL,OAK RIDGE,NJ,07438
83 SWACKHAMMER WAY,MOUNT OLIVE,NJ,07828
1 RESERVOIR PL,ROCKAWAY,NJ,07866
6 FEN CT,MADISON,NJ,07940
9 BROOK CT,PARSIPPANY,NJ,07054
15 W SPRINGBROOK RD,MONTVILLE,NJ,07045
56 SAND SHORE RD,BUDD LAKE,NJ,07828
6 WEST END AVE,MADISON,NJ,07940
58 ALBERT CT,RANDOLPH,NJ,07869
91 LAUREL WOOD CT,ROCKAWAY,NJ,07866
33 DRAKEDALE RD,FLANDERS,NJ,07836
7 PARK RD,MORRIS PLAINS,NJ,07950
7 PEMBROKE DR,MENDHAM,NJ,07945
31 COLONIAL OAKS DR,OAK RIDGE,NJ,07438
27 LINCOLN GDNS,LAKE HIAWATHA,NJ,07034
8 MEADOW BROOK RD,CHESTER,NJ,07930
54 BROOKSIDE AVE,POMPTON PLAINS,NJ,07444
6 SPRUCE LN,MORRISTOWN,NJ,07960
59 FAIRCHILD AVE,MORRIS PLAINS,NJ,07950
11 MOUNTAIN VIEW CT,RIVERDALE,NJ,07457
9 NEW ST,MENDHAM,NJ,07945
49 RIDGEDALE AVE,EAST HANOVER,NJ,07936
53 NEWARK POMPTON TPKE,RIVERDALE,NJ,07457
25 ARMSTRONG RD,MORRISTOWN,NJ,07960
4 LEVA DR,MORRISTOWN,NJ,07960
44 ARROWGATE DR,RANDOLPH,NJ,07869
18 BAKER AVE,WHARTON,NJ,07885
19 BRAEMAR CT,PARSIPPANY,NJ,07054
18 BARNET ST,ROCKAWAY,NJ,07866
10 REVER DR,FLORHAM PARK,NJ,07932
30 MITCHELL RD,PARSIPPANY,NJ,07054
26 HIGHLAND AVE,WHIPPANY,NJ,07981
26 AUTUMN DR,MINE HILL,NJ,07803
49 DAVENPORT PL,MORRISTOWN,NJ,07960
39 COLUMBIA RD,MORRISTOWN,NJ,07960
5 MOUNTAIN RIDGE RD,POMPTON PLAINS,NJ,07444
11 FLANDERS DR,PINE BROOK,NJ,07058
78 LAKE SHORE DR,LAKE HIAWATHA,NJ,07034
14 CRESTWOOD RD,MORRISTOWN,NJ,07960
26 LAURA LN,MORRISTOWN,NJ,07960
21 BRANDON CT,BUTLER,NJ,07405
1 RALSTON HILL RD,MENDHAM,NJ,07945
25 RADCLIFFE DR,SUCCASUNNA,NJ,07876
9 WOODSEDGE AVE,BUDD LAKE,NJ,07828
29 MOUNTAIN AVE,MONTVILLE,NJ,07045
49 VAN WYCK RD,LAKE HIAWATHA,NJ,07034
2 MCCAFFREY LN,BOONTON,NJ,07005
12 SYCAMORE LN,LONG VALLEY,NJ,07853
25 MACKENZIE LN N,DENVILLE,NJ,07834
61 PARK AVE,RANDOLPH,NJ,07869
56 VILLAGE GRN,BUDD LAKE,NJ,07828
1 CEDAR CREST VILLAGE DR,POMPTON PLAINS,NJ,07444
35 TILLEY AVE,POMPTON PLAINS,NJ,07444
76 PRINCETON AVE,DOVER,NJ,07801
26 POLHEMUS TER,WHIPPANY,NJ,07981
18 COLLES AVE,MORRISTOWN,NJ,07960
2 KNAPP AVE,FLORHAM PARK,NJ,07932
16 CHESTER BROOK RD,CHESTER,NJ,07930
22 RUSTIC RIDGE RD,RANDOLPH,NJ,07869
44 FRANKLIN AVE,POMPTON PLAINS,NJ,07444
24 2ND LT JT WROBLEWSKI LN,OAK RIDGE,NJ,07438
1 GREGORY TER,MORRISTOWN,NJ,07960
11 JOHNSON DR,CHATHAM,NJ,07928
1 CEDAR CREST VILLAGE DR,POMPTON PLAINS,NJ,07444
1 MACKENZIE LN,OAK RIDGE,NJ,07438
70 NOKOMIS AVE,LAKE HIAWATHA,NJ,07034
20 CROSS ST,MADISON,NJ,07940
58 ATLANTIC DR,PARSIPPANY,NJ,07054
7 N OAK CT,MADISON,NJ,07940
68 IRONIA RD,MENDHAM,NJ,07945
71 INTERNATIONAL DR S,BUDD LAKE,NJ,07828
37 ATNO AVE,MORRISTOWN,NJ,07960
35 IRONIA RD,FLANDERS,NJ,07836
44 SCHOOL HOUSE RD,RANDOLPH,NJ,07869
42 SCHOOL HOUSE RD,RANDOLPH,NJ,07869
25 MAC LEAY RD,MONTVILLE,NJ,07045
