street,city,state,zip
2585 ROCK LAKE RD,FORT SUMNER,NM,88119
1186 E SUMNER AVE,FORT SUMNER,NM,88119
1718 DEER VIEW DR,FORT SUMNER,NM,88119
198 LANDING RD,FORT SUMNER,NM,88119
1114 N LANTRY ST,FORT SUMNER,NM,88119
347 E CANAL AVE,FORT SUMNER,NM,88119
291 E LAKE AVE,FORT SUMNER,NM,88119
721 N 3RD ST,FORT SUMNER,NM,88119
642 N 9TH ST,FORT SUMNER,NM,88119
646 N 9TH ST,FORT SUMNER,NM,88119
1093 EVANOLA RD,FORT SUMNER,NM,88119
30647 US HIGHWAY 60,FORT SUMNER,NM,88119
25203 US HIGHWAY 84,FORT SUMNER,NM,88119
25230 US HIGHWAY 84,FORT SUMNER,NM,88119
25184 US HIGHWAY 84,FORT SUMNER,NM,88119
25213 US HIGHWAY 84,FORT SUMNER,NM,88119
25248 US HIGHWAY 84,FORT SUMNER,NM,88119
25262 US HIGHWAY 84,FORT SUMNER,NM,88119
25841 US HIGHWAY 60,FORT SUMNER,NM,88119
25851 US HIGHWAY 60,FORT SUMNER,NM,88119
26171 US HIGHWAY 60,FORT SUMNER,NM,88119
26191 US HIGHWAY 60,FORT SUMNER,NM,88119
26325 US HIGHWAY 60,FORT SUMNER,NM,88119
26331 US HIGHWAY 60,FORT SUMNER,NM,88119
26407 US HIGHWAY 60,FORT SUMNER,NM,88119
83 GRANADA DR,LOS ALAMOS,NM,87547
839 SCOTT WAY,LOS ALAMOS,NM,87544
835 SCOTT WAY,LOS ALAMOS,NM,87544
831 SCOTT WAY,LOS ALAMOS,NM,87544
375 CHERYL AVE,LOS ALAMOS,NM,87547
377 CHERYL AVE,LOS ALAMOS,NM,87547
371 CHERYL AVE,LOS ALAMOS,NM,87547
211 ANDANADA,LOS ALAMOS,NM,87544
1230 BIG ROCK LOOP,LOS ALAMOS,NM,87544
1317 BIG ROCK LOOP,LOS ALAMOS,NM,87544
1390 BIG ROCK LOOP,LOS ALAMOS,NM,87544
1330 SIOUX,LOS ALAMOS,NM,87544
1340 SIOUX,LOS ALAMOS,NM,87544
1560 YUMA,LOS ALAMOS,NM,87544
1300 SIOUX,LOS ALAMOS,NM,87544
1290 SIOUX,LOS ALAMOS,NM,87544
1695 TRINITY DR,LOS ALAMOS,NM,87544
72 LOMA DEL ESCOLAR,LOS ALAMOS,NM,87544
291 CASCABEL,LOS ALAMOS,NM,87544
482 BRIGHTON DR,LOS ALAMOS,NM,87547
945 CAPULIN RD,LOS ALAMOS,NM,87544
284 EL CONEJO,LOS ALAMOS,NM,87544
1081 SIOUX,LOS ALAMOS,NM,87544
1066 SEMINOLE,LOS ALAMOS,NM,87544
50 BARRANCA RD,LOS ALAMOS,NM,87544
2109 CAMINO RIO,FARMINGTON,NM,87401
102 HIDDEN ACRES,FARMINGTON,NM,87401
100 HIDDEN ACRES,FARMINGTON,NM,87401
305 W BROADWAY,FARMINGTON,NM,87401
308 W BROADWAY,FARMINGTON,NM,87401
725 W BROADWAY,FARMINGTON,NM,87401
203 W BROADWAY,FARMINGTON,NM,87401
1215 WINTER PARK,FARMINGTON,NM,87401
1301 CAMINO SOL,FARMINGTON,NM,87401
1421 CAMINO MONTE,FARMINGTON,NM,87401
1217 CAMINO LARGO,FARMINGTON,NM,87401
2104 CAMINO RIO,FARMINGTON,NM,87401
2000 CAMINA PLACER,FARMINGTON,NM,87401
1428 CAMINA CONTENTA,FARMINGTON,NM,87401
2201 HIDDEN GLENN,FARMINGTON,NM,87401
5150 MESA DEL OSO,FARMINGTON,NM,87402
801 E BROADWAY,FARMINGTON,NM,87401
1001 W BROADWAY,FARMINGTON,NM,87401
506 E BROADWAY,FARMINGTON,NM,87401
817 W BROADWAY,FARMINGTON,NM,87401
605 MERINO KRAAL,FARMINGTON,NM,87401
607 MERINO KRAAL,FARMINGTON,NM,87401
608 MERINO KRAAL,FARMINGTON,NM,87401
601 MERINO KRAAL,FARMINGTON,NM,87401
1221 WINTER PARK,FARMINGTON,NM,87401
12 DILLARD DR,BELEN,NM,87002
4 DILLARD DR,BELEN,NM,87002
30 GONZALES RD,BELEN,NM,87002
51 ORCHARD RD,BELEN,NM,87002
23 GONZALES RD,BELEN,NM,87002
31 GONZALES RD,BELEN,NM,87002
32 GONZALES RD,BELEN,NM,87002
34 GONZALES RD,BELEN,NM,87002
38 GONZALES RD,BELEN,NM,87002
37 GONZALES RD,BELEN,NM,87002
39 GONZALES RD,BELEN,NM,87002
40 GONZALES RD,BELEN,NM,87002
42 GONZALES RD,BELEN,NM,87002
41 GONZALES RD,BELEN,NM,87002
45 GONZALES RD,BELEN,NM,87002
1837 CAMINO DEL LLANO,BELEN,NM,87002
721 CHRISTOPHER RD,BELEN,NM,87002
711 CHRISTOPHER RD,BELEN,NM,87002
703 CHRISTOPHER RD,BELEN,NM,87002
704 CHRISTOPHER RD,BELEN,NM,87002
609 CHRISTOPHER RD,BELEN,NM,87002
1831 CAMINO DEL LLANO,BELEN,NM,87002
1831 CAMINO DEL LLANO,BELEN,NM,87002
1831 CAMINO DEL LLANO,BELEN,NM,87002
1831 CAMINO DEL LLANO,BELEN,NM,87002
