street,city,state,zip
122 10TH ST,CARLIN,NV,89822
123 S 10TH ST,ELKO,NV,89801
131 10TH ST,CARLIN,NV,89822
150 10TH ST,ELKO,NV,89801
151 10TH ST,CARLIN,NV,89822
171 10TH ST,CARLIN,NV,89822
172 10TH ST,CARLIN,NV,89822
185 10TH ST,ELKO,NV,89801
203 S 10TH ST,ELKO,NV,89801
232 S 10TH ST,ELKO,NV,89801
245 10TH ST,ELKO,NV,89801
411 10TH ST,ELKO,NV,89801
444 10TH ST,WELLS,NV,89835
462 10TH ST,ELKO,NV,89801
472 10TH ST,WELLS,NV,89835
486 10TH ST,WELLS,NV,89835
6499 AMARGOSA ST,WEST BULLION,NV,89801
655 S 10TH ST,ELKO,NV,89801
675 S 10TH ST,ELKO,NV,89801
695 S 10TH ST,ELKO,NV,89801
932 CHESTNUT ST,CARLIN,NV,89822
791 10TH ST,CARLIN,NV,89822
832 10TH ST,WELLS,NV,89835
858 10TH ST,WELLS,NV,89835
101 11TH ST,CARLIN,NV,89822
112 S 11TH ST,ELKO,NV,89801
145 11TH ST,ELKO,NV,89801
162 S 11TH ST,ELKO,NV,89801
175 S 11TH ST,ELKO,NV,89801
182 11TH ST,CARLIN,NV,89822
215 S 11TH ST,ELKO,NV,89801
215 1/2 S 11TH ST,ELKO,NV,89801
251 11TH ST,CARLIN,NV,89822
255 11TH ST,ELKO,NV,89801
255 11TH ST,ELKO,NV,89801
276 11TH ST,ELKO,NV,89801
282 11TH ST,ELKO,NV,89801
311 11TH ST,CARLIN,NV,89822
330 11TH ST,ELKO,NV,89801
331 11TH ST,ELKO,NV,89801
362 11TH ST,CARLIN,NV,89822
371 11TH ST,CARLIN,NV,89822
376 11TH ST,ELKO,NV,89801
549 11TH ST,ELKO,NV,89801
552 11TH ST,ELKO,NV,89801
570 11TH ST,ELKO,NV,89801
575 11TH ST,ELKO,NV,89801
576 11TH ST,ELKO,NV,89801
581 11TH ST,ELKO,NV,89801
581 11TH ST,ELKO,NV,89801
9565 GREENLEAF CT,RENO,NV,89506
9509 LONG RIVER DR,RENO,NV,89506
8077 ANCHOR POINT DR,RENO,NV,89506
8225 SHIFTING SANDS DR,RENO,NV,89506
8038 ANCHOR POINT DR,RENO,NV,89506
3400 BECARD LN,RENO,NV,89508
2405 MAMMATUS DR,SPARKS,NV,89441
1640 BILLOW DR,SPARKS,NV,89441
1042 FUGGLES DR,SPARKS,NV,89441
2395 LENTICULAR DR,SPARKS,NV,89441
355 MOONBEAM DR,SPARKS,NV,89441
293 OMNI DR,SPARKS,NV,89441
289 OMNI DR,SPARKS,NV,89441
1095 SPOONBILL CT,SPARKS,NV,89441
3410 BECARD LN,RENO,NV,89508
10180 SHENANDOAH DR,RENO,NV,89508
1630 BILLOW DR,SPARKS,NV,89441
2385 CONTRAIL ST,SPARKS,NV,89441
10125 BODIE DR,RENO,NV,89508
7630 ROLLING CLOUDS DR,RENO,NV,89506
8235 SHIFTING SANDS DR,RENO,NV,89506
7961 BIG RIVER DR,RENO,NV,89506
10010 PURPLE SAGE DR,RENO,NV,89506
11270 WHITE SAGE DR,RENO,NV,89506
9660 BRIGHTRIDGE DR,RENO,NV,89506
9708 AUTUMN LEAF WAY,RENO,NV,89506
1037 TURTLEDOVE CT,SPARKS,NV,89441
1033 TURTLEDOVE CT,SPARKS,NV,89441
983 YELLOWHAMMER CT,SPARKS,NV,89441
2346 RUDDY WAY,SPARKS,NV,89441
3942 BOUNDARY PEAK CT,RENO,NV,89508
1255 CALLE DE LA PLATA,SPARKS,NV,89441
4018 WHITE ROCK CT,RENO,NV,89508
1094 SPOONBILL CT,SPARKS,NV,89441
20997 NINE MILE CT,RENO,NV,89508
17235 WHIPPOORWILL LN,RENO,NV,89508
5 DE ANZA DR,RENO,NV,89511
10643 FIRE POPPY CIR,RENO,NV,89521
10627 FIRE POPPY CIR,RENO,NV,89521
13415 SOUTH HILLS DR,RENO,NV,89511
110 DREW DR,RENO,NV,89511
2515 BATON DR,RENO,NV,89521
2520 BATON DR,RENO,NV,89521
2505 BATON DR,RENO,NV,89521
795 CACTUS CREEK CT,RENO,NV,89511
2535 PERRYVILLE DR,RENO,NV,89521
2510 BATON DR,RENO,NV,89521
11215 BOULDER HEIGHTS CT,RENO,NV,89511
12305 WESTRIDGE DR,RENO,NV,89511
3446 NAMBE DR,RENO,NV,89511
