street,city,state,zip
1681 Beaverkill Rd,Livingston Manor,NY,12758
1715 Beaverkill Rd,Livingston Manor,NY,12758
1655 Beaverkill Rd,Livingston Manor,NY,12758
127 Davis Rd,Livingston Manor,NY,12758
157 Davis Rd,Livingston Manor,NY,12758
138 Davis Rd,Livingston Manor,NY,12758
279 Shin Creek Rd,Livingston Manor,NY,12758
280 Shin Creek Rd,Livingston Manor,NY,12758
313 Shin Creek Rd,Livingston Manor,NY,12758
321 Shin Creek Rd,Livingston Manor,NY,12758
291 Shin Creek Rd,Livingston Manor,NY,12758
222 Davis Rd,Livingston Manor,NY,12758
219 Davis Rd,Livingston Manor,NY,12758
224 Davis Rd,Livingston Manor,NY,12758
514 Shin Creek Rd,Livingston Manor,NY,12758
361 Shin Creek Rd,Livingston Manor,NY,12758
331 Shin Creek Rd,Livingston Manor,NY,12758
384 Shin Creek Rd,Livingston Manor,NY,12758
231 Mongaup Pond Rd,Livingston Manor,NY,12758
235 Mongaup Pond Rd,Livingston Manor,NY,12758
250 Mongaup Pond Rd,Livingston Manor,NY,12758
35 Terwilliger Spur Rd,Livingston Manor,NY,12758
39 Terwilliger Spur Rd,Livingston Manor,NY,12758
45 Terwilliger Spur Rd,Livingston Manor,NY,12758
256 Terwilliger Rd,Livingston Manor,NY,12758
257 Terwilliger Rd,Livingston Manor,NY,12758
279 Terwilliger Rd,Livingston Manor,NY,12758
280 Terwilliger Rd,Livingston Manor,NY,12758
138 Decker Rd,Livingston Manor,NY,12758
72 Decker Rd,Livingston Manor,NY,12758
82 Decker Rd,Livingston Manor,NY,12758
38 Decker Rd,Livingston Manor,NY,12758
25 Decker Rd,Livingston Manor,NY,12758
161 Church Rd,Livingston Manor,NY,12758
151 Church Rd,Livingston Manor,NY,12758
156 Church Rd,Livingston Manor,NY,12758
173 Church Rd,Livingston Manor,NY,12758
185 Church Rd,Livingston Manor,NY,12758
184 Church Rd,Livingston Manor,NY,12758
15 Decker Rd,Livingston Manor,NY,12758
20 Decker Rd,Livingston Manor,NY,12758
223 Church Rd,Livingston Manor,NY,12758
205 Church Rd,Livingston Manor,NY,12758
234 Church Rd,Livingston Manor,NY,12758
259 Church Rd,Livingston Manor,NY,12758
273 Church Rd,Livingston Manor,NY,12758
271 Church Rd,Livingston Manor,NY,12758
677 Pole Rd,Livingston Manor,NY,12758
497 Pole Rd,Livingston Manor,NY,12758
570 Pole Rd,Livingston Manor,NY,12758
10 SALO DR,TRUMANSBURG VILLAGE,NY,14886
106 LINDERMAN AVE,GROTON VILLAGE,NY,13073
100 W MAIN ST,TRUMANSBURG VILLAGE,NY,14886
106 LINN ST,ITHACA CITY,NY,14850
11 SALO DR,TRUMANSBURG VILLAGE,NY,14886
106 LISA PL,CAYUGA HEIGHTS,NY,14850
117 CRESTVIEW LN,NEWFIELD,NY,14867
106 MACK ST,GROTON VILLAGE,NY,13073
118 CRESTVIEW LN,NEWFIELD,NY,14867
106 MIDWAY RD,CAYUGA HEIGHTS,NY,14850
12 SALO DR,TRUMANSBURG VILLAGE,NY,14886
13 SALO DR,TRUMANSBURG VILLAGE,NY,14886
16 SALO DR,TRUMANSBURG VILLAGE,NY,14886
18 SALO DR,TRUMANSBURG VILLAGE,NY,14886
22 SALO DR,TRUMANSBURG VILLAGE,NY,14886
2283 TRUMANSBURG RD,ULYSSES,NY,14886
2285 TRUMANSBURG RD,ULYSSES,NY,14886
23 BRADLEY ST,TRUMANSBURG VILLAGE,NY,14886
23 STROWBRIDGE ST,TRUMANSBURG VILLAGE,NY,14886
28 STROWBRIDGE ST,TRUMANSBURG VILLAGE,NY,14886
29 STROWBRIDGE ST,TRUMANSBURG VILLAGE,NY,14886
32 STROWBRIDGE ST,TRUMANSBURG VILLAGE,NY,14886
33 STROWBRIDGE ST,TRUMANSBURG VILLAGE,NY,14886
35 STROWBRIDGE ST,TRUMANSBURG VILLAGE,NY,14886
36 BRADLEY ST,TRUMANSBURG VILLAGE,NY,14886
36 SALO DR,ULYSSES,NY,14886
38 STROWBRIDGE ST,TRUMANSBURG VILLAGE,NY,14886
40 OLD MAIN ST,TRUMANSBURG VILLAGE,NY,14886
44 OLD MAIN ST,TRUMANSBURG VILLAGE,NY,14886
6 SALO DR,TRUMANSBURG VILLAGE,NY,14886
7 SALO DR,TRUMANSBURG VILLAGE,NY,14886
71 OLD MAIN ST,TRUMANSBURG VILLAGE,NY,14886
71 W MAIN ST,TRUMANSBURG VILLAGE,NY,14886
75 W MAIN ST,TRUMANSBURG VILLAGE,NY,14886
8 SALO DR,TRUMANSBURG VILLAGE,NY,14886
86 W MAIN ST,TRUMANSBURG VILLAGE,NY,14886
88 W MAIN ST,TRUMANSBURG VILLAGE,NY,14886
89 W MAIN ST,TRUMANSBURG VILLAGE,NY,14886
9 SALO DR,TRUMANSBURG VILLAGE,NY,14886
9 WASHINGTON ST,TRUMANSBURG VILLAGE,NY,14886
90 W MAIN ST,TRUMANSBURG VILLAGE,NY,14886
92 W MAIN ST,TRUMANSBURG VILLAGE,NY,14886
93 W MAIN ST,TRUMANSBURG VILLAGE,NY,14886
94 W MAIN ST,TRUMANSBURG VILLAGE,NY,14886
95 W MAIN ST,TRUMANSBURG VILLAGE,NY,14886
96 W MAIN ST,TRUMANSBURG VILLAGE,NY,14886
97 W MAIN ST,TRUMANSBURG VILLAGE,NY,14886
98 W MAIN ST,TRUMANSBURG VILLAGE,NY,14886
1 SALO DR,TRUMANSBURG VILLAGE,NY,14886
14 SALO DR,TRUMANSBURG VILLAGE,NY,14886
