street,city,state,zip
600 BROAD ST,ASHLAND,OH,44805
824 MAIN ST,BAILEY LAKES,OH,44805
1308 SHAMROCK LN,BAILEY LAKES,OH,44805
1623 W 6TH ST,ASHTABULA,OH,44004
1627 W 6TH ST,ASHTABULA,OH,44004
1632 W 6TH ST,ASHTABULA,OH,44004
5128 LYNN RD NE,MINERVA,OH,44657
5152 LYNN RD NE,MINERVA,OH,44657
5200 LYNN RD NE,MINERVA,OH,44657
4448 SCHUSTER WAY,COLUMBUS,OH,43207
3106 SOMERFORD RD,COLUMBUS,OH,43221
99 1 ST SW,PATASKALA,OH,43062
134 E THIRD ST,PERRYSBURG,OH,43551
134 E THIRD ST,PERRYSBURG,OH,43551
136 E THIRD ST,PERRYSBURG,OH,43551
3125 HENDERSON CT,SPRINGFIELD,OH,45503
3126 HENDERSON CT,SPRINGFIELD,OH,45503
3115 HENDERSON CT,SPRINGFIELD,OH,45503
24 SOUTHWIND BLVD,WILMINGTON,OH,45177
21 SOUTHWIND BLVD,WILMINGTON,OH,45177
40 SOUTHWIND BLVD,WILMINGTON,OH,45177
900 WEDGEWOOD CIR,GALION,OH,44833
1200 MAPLE ST,BUCYRUS,OH,44820
453 DUDLEY ST,BUCYRUS,OH,44820
3313 SOMIA DR,PARMA,OH,44134
3319 SOMIA DR,PARMA,OH,44134
3331 SOMIA DR,PARMA,OH,44134
1910 E   POWELL RD,LEWIS CENTER,OH,43035
3754 NICOYA CT,LEWIS CENTER,OH,43035
8780 SUNART CT S,DUBLIN,OH,43017
1024 MONAGHAN RD,KELLEYS ISLAND,OH,43438
920 MONAGHAN RD,KELLEYS ISLAND,OH,43438
828 MONAGHAN RD,KELLEYS ISLAND,OH,43438
4448 SCHUSTER WAY,OBETZ,OH,43207
3106 SOMERFORD RD,UPPER ARLINGTON,OH,43221
99 1 ST SW,PATASKALA,OH,43062
6612 CORBLY ST,CINCINNATI HAM OH,OH,45230
2061 OXFORD AV,CINCINNATI HAM OH,OH,45230
2055 OXFORD AV,CINCINNATI HAM OH,OH,45230
1701 E MAIN CROSS ST,FINDLAY,OH,45840
1601 E MAIN CROSS ST,FINDLAY,OH,45840
1539 E MAIN CROSS ST,FINDLAY,OH,45840
85600 KEYSER RD,CADIZ,OH,43907
86220 KEYSER RD,CADIZ,OH,43907
86500 KEYSER RD,CADIZ,OH,43907
3661 ST RT 65,MCCLURE,OH,43534
1256 TWP RD 19,NEW BAVARIA,OH,43548
1260 TWP RD 19,NEW BAVARIA,OH,43548
13 RUSTIC DR,MILLERSBURG,OH,44654
5110 EAGLE DR,MILLERSBURG,OH,44654
5116 EAGLE DR,MILLERSBURG,OH,44654
307 FARM LN,TILTONSVILLE,OH,43963
-9 FARM LN,TILTONSVILLE,OH,43963
305 FARM LN,TILTONSVILLE,OH,43963
8080 HARBOR CREEK DR,MENTOR ON THE LAKE,OH,44060
8080 HARBOR CREEK DR,MENTOR ON THE LAKE,OH,44060
8080 HARBOR CREEK DR,MENTOR ON THE LAKE,OH,44060
235 SOUTH ST,HOPEWELL TWP,OH,43740
8335 REYNOLDSWOOD DR,ETNA TWP,OH,43068
125 GREENBRIAR LN W,HEBRON,OH,43025
611 SAXON DR,BELLEFONTAINE,OH,43311
610 SAXON DR,BELLEFONTAINE,OH,43311
610 SAXON DR,BELLEFONTAINE,OH,43311
9370 FELGER RD,SPRINGFIELD,OH,44442
9494 FELGER RD,SPRINGFIELD,OH,44442
9315 FELGER RD,SPRINGFIELD,OH,44442
5240 LITTLE WOODS LN,DAYTON,OH,45429
7680 WOLF CREEK PIKE,TROTWOOD,OH,45426
1 OAK ST,TROTWOOD,OH,45426
330 W MARION ST,MT GILEAD,OH,43338
356 HPM ST,MT GILEAD,OH,43338
156 E WILLIAMS ST,CARDINGTON,OH,43315
357 N 5TH ST,ZANESVILLE,OH,43701
304 W MONROE ST,ZANESVILLE,OH,43701
1038 LINDEN AVE,ZANESVILLE,OH,43701
490 BURDINE DR,OAK HARBOR,OH,43449
208 E POINT BLVD,PUT IN BAY,OH,43456
480 BURDINE DR,OAK HARBOR,OH,43449
159 BREMEN DR,GLANDORF,OH,45875
4487 PRO TEC PKWY,LEIPSIC,OH,45856
285 W FIRST ST,FORT JENNINGS,OH,45844
1432 MAPLE AVE NE,CANTON,OH,44705
1734 16TH ST NE,CANTON,OH,44705
1732 16TH ST NE,CANTON,OH,44705
1803 S STATE ST,GIRARD,OH,44420
1727 S STATE ST,GIRARD,OH,44420
0 S STATE ST,GIRARD,OH,44420
2097 JOHNSTOWN RD NE,DOVER,OH,44622
6450 MCKEE RD NE,MINERAL CITY,OH,44656
6497 MCKEE RD NE,MINERAL CITY,OH,44656
10522 S   JEFFERSON AVE,PLAIN CITY,OH,43064
210 COACHMAN DR,PLAIN CITY,OH,43064
200 COACHMAN DR,PLAIN CITY,OH,43064
121 S PORTLAND ST,BRYAN,OH,43506
150 S PORTLAND ST,BRYAN,OH,43506
123 S PORTLAND ST,BRYAN,OH,43506
655 S POE RD,NORTH BALTIMORE,OH,45872
655 S POE RD,NORTH BALTIMORE,OH,45872
655 S POE RD,NORTH BALTIMORE,OH,45872
