street,city,state,zip
98171 TUTTLE LN,BROOKINGS,OR,97415
97979 COURT ST,BROOKINGS,OR,97415
32051 WATSON LN,GOLD BEACH,OR,97444
31084 CRABAPPLE WAY,GOLD BEACH,OR,97444
15785 S HWY 101,BROOKINGS,OR,97415
95623 JERRYS FLAT RD,GOLD BEACH,OR,97444
16391 HWY 101,BROOKINGS,OR,97415
16391 HWY 101,BROOKINGS,OR,97415
94120 STRAHAN ST,GOLD BEACH,OR,97444
15505 OCEANVIEW DR,BROOKINGS,OR,97415
17029 FERRY CREEK HTS,BROOKINGS,OR,97415
19091 BARNACLE ROCK RD,BROOKINGS,OR,97415
98090 W BENHAM LN,BROOKINGS,OR,97415
97091 N BANK ROGUE,GOLD BEACH,OR,97444
17886 RAINBOW ROCK RD,BROOKINGS,OR,97415
98090 W BENHAM LN,BROOKINGS,OR,97415
15505 OCEANVIEW DR,BROOKINGS,OR,97415
15694 S HWY 101,BROOKINGS,OR,97415
94120 STRAHAN ST,GOLD BEACH,OR,97444
16391 HWY 101,BROOKINGS,OR,97415
47474 FLORAS LAKE LOOP,LANGLOIS,OR,97450
98825 PLEASANT HILL DR,BROOKINGS,OR,97415
97049 APPLE BLOSSOM CT,BROOKINGS,OR,97415
99243 WINCHUCK RIVER RD,BROOKINGS,OR,97415
17643 GARDNER RIDGE RD,BROOKINGS,OR,97415
13750 SE LINCOLN ST,PORTLAND,OR,97233
13733 SE KELLY CT,PORTLAND,OR,97236
6005 N BOSTON AVE,PORTLAND,OR,97217
11285 SW CAPITOL HWY,PORTLAND,OR,97219
8630 NE HASSALO ST,PORTLAND,OR,97220
5145 SE 85TH AVE,PORTLAND,OR,97266
5526 NE SIMPSON ST,PORTLAND,OR,97218
0 N INTERSTATE AVE,PORTLAND,OR,97217
0 NE ALBERTA ST,PORTLAND,OR,97211
0 NE WEIDLER ST,PORTLAND,OR,97232
01 SW RICHARDSON ST,PORTLAND,OR,97239
010 SW PORTER ST,PORTLAND,OR,97201
010 SW PORTER ST,PORTLAND,OR,97201
010 SW PORTER ST,PORTLAND,OR,97201
010 SW PORTER ST,PORTLAND,OR,97201
010 SW PORTER ST,PORTLAND,OR,97201
010 SW PORTER ST,PORTLAND,OR,97201
010 SW PORTER ST,PORTLAND,OR,97201
010 SW PORTER ST,PORTLAND,OR,97201
010 SW PORTER ST,PORTLAND,OR,97201
010 SW PORTER ST,PORTLAND,OR,97201
010 SW PORTER ST,PORTLAND,OR,97201
010 SW PORTER ST,PORTLAND,OR,97201
010 SW PORTER ST,PORTLAND,OR,97201
010 SW PORTER ST,PORTLAND,OR,97201
44880 TIDE AVE,FALCON COVE,OR,97102
44850 3RD AVE,FALCON COVE,OR,97102
44855 2ND AVE,FALCON COVE,OR,97102
44850 TIDE AVE,FALCON COVE,OR,97102
44805 TIDE AVE,FALCON COVE,OR,97102
44775 TIDE AVE,FALCON COVE,OR,97102
44790 TIDE AVE,FALCON COVE,OR,97102
12740 A ST,NEHALEM,OR,97131
36095 9TH ST,NEHALEM,OR,97131
8805 PUFFIN LN,MANZANITA,OR,97130
34065 WOOD DUCK AVE,BAYSIDE GARDENS,OR,97131
36090 8TH ST,NEHALEM,OR,97131
9155 WINDWARD LN,NECARNEY CITY,OR,97131
34815 LODGEPOLE DR,BAYSIDE GARDENS,OR,97131
10900 PACIFIC HEIGHTS CT,BAYSIDE GARDENS,OR,97131
41100 HIGHWAY 53,NEHALEM,OR,97131
5955 ELK FLAT RD,FALCON COVE,OR,97102
44100 HIGHWAY 53,NEHALEM,OR,97131
44500 TIDE AVE,FALCON COVE,OR,97102
44890 KATHERINE LN,NEHALEM,OR,97131
36090 9TH ST,NEHALEM,OR,97131
15785 MCKIMENS RD,NEHALEM,OR,97131
10 HALLIE LN,MANZANITA,OR,97130
44705 TIDE AVE,FALCON COVE,OR,97102
44710 TIDE AVE,FALCON COVE,OR,97102
73691 SNOW RD,ECHO,OR,97826.0
34370 BUTTER CRK RD,ECHO,OR,97826.0
73367 MUD SPRINGS RD,PILOT ROCK,OR,97868.0
70467 MUD SPRINGS RD,PILOT ROCK,OR,97868.0
41711 COOMBS CANYON RD,PENDLETON,OR,97801.0
39381 COOMBS CANY RD,PENDLETON,OR,97801.0
39381 COOMBS CANY RD,PENDLETON,OR,97801.0
72654 REINHART RD,PENDLETON,OR,97801.0
71247 BLANCHET LN,PENDLETON,OR,97801.0
71247 BLANCHET LN,PENDLETON,OR,97801.0
71530 REDWINE RD,PENDLETON,OR,97801.0
70597 BLANCHET LN,PENDLETON,OR,97801.0
71028 STRAUGHAN RD,PENDLETON,OR,97801.0
43242 COOMBS CANY RD,PENDLETON,OR,97801.0
70541 SPARKS STA RD,PENDLETON,OR,97801.0
70453 SPARKS STA RD,PENDLETON,OR,97801.0
69754 GEORGE CANYON RD,PENDLETON,OR,97801.0
42629 BEILKE RD,PENDLETON,OR,97801.0
42307 BEILKE RD,PENDLETON,OR,97801.0
68732 MILL RD,PENDLETON,OR,97801.0
69213 GEORGE CANYON RD,PENDLETON,OR,97801.0
43299 HOEFT RD,PENDLETON,OR,97801.0
43014 HOEFT RD,PENDLETON,OR,97801.0
68389 MILL RD,PILOT ROCK,OR,97868.0
68413 MILL RD,PENDLETON,OR,97801.0
