street,city,state,zip
1 Di Mario Dr,,RI,02904
71 Linwood Ave,,RI,02907
75R Pilsudski St,,RI,02909
104 Princeton Ave,,RI,02907
250 Reservoir Ave,,RI,02905
37 Mercy St,,RI,
46 West Friendship,,RI,02907
141 Ocean St,,RI,02905
253 Sayles St,,RI,
245 Allens Ave,,RI,02905
71 Bridgham St,,RI,02901
29 Gray St,,RI,02909
57 Federal St,,RI,02909
57 Wisdom Ave,,RI,02909
520 Smith St,,RI,02908
50 Allston St,,RI,02909
120 Hilary Dr,,RI,02908
864 Admiral St,,RI,02904
15 Iona St,,RI,02908
810 Admiral St,,RI,02904
188 Plainfield St,,RI,02909
73 Laban St,,RI,02909
10 Tuxedo Ave,,RI,02909
757 Elmgrove Ave,,RI,02906
120 Atwells Ave,,RI,02909
46 Alaska St,,RI,02904
89 Veazie St,,RI,02904
145 Chester Ave,,RI,02907
215 Longfellow St,,RI,02907
71 Silver Lake Ave,,RI,02909
8 Lisi Ln,,RI,02904
468 Public St,,RI,02905
2 Yale St,,RI,02909
150 Waterman St,,RI,02906
95 Althea St,,RI,02907
241 Webster Ave,,RI,02909
50 Harrison St,,RI,02907
113 Stansbury St,,RI,02904
23 Bowdoin St,,RI,02909
435 Atwells Ave,,RI,02909
269 Valley St,,RI,02909
12 Bridgham St,,RI,02907
90 Narragansett Ave,,RI,02907
151 Upton Ave,,RI,02906
965 Westminster St,,RI,02907
3R Milo St,,RI,02909
55 Wisdom Ave,,RI,02908
32 Custom House St,,RI,02903
2 Harris Ave,,RI,
44 Prescott St,,RI,02909
26 Blundell St,,RI,
285 Promenade St,,RI,02908
74 Beaufort St,,RI,02909
160 Francis St,,RI,02903
274 Veazie St,,RI,02904
477R Smith St,,RI,02908
40 College Rd,,RI,02908
176 Gentian Ave,,RI,02908
9 Cheshire St,,RI,02901
29 Redwood Dr,,RI,02908
442 Manton Ave,,RI,02909
141 Hawkins St,,RI,02904
131 Freeman Pkwy,,RI,02906
17 Ida St,,RI,02909
10 Bailey Ct,,RI,02909
50 Knight St,,RI,02909
15 Point St,,RI,02901
25 Fields Point Dr,,RI,02905
211 Montgomery Ave,,RI,02905
195 Montgomery Ave,,RI,02905
999 Elmwood Ave,,RI,02905
0 Terminal Rd,,RI,02903
122 Fosdyke St,,RI,02906
83 Loring Ave,,RI,02906
225 Carolina Ave,,RI,02905
283 Wayland Ave,,RI,02906
129 Hazard Ave,,RI,02906
195 India St,,RI,02903
220 India St,,RI,02906
66 Branch Ave,,RI,02906
257 Elmgrove Ave,,RI,02906
137 Laurel Ave,,RI,02906
51 Sibyl St,,RI,02909
185 Lorimer Ave,,RI,02906
58 Hall St,,RI,02904
62 Everett Ave,,RI,02906
450 Wayland Ave,,RI,02906
90 Hazard Ave,,RI,02906
41 Sibyl St,,RI,02909
334 Plain St,,RI,02905
169 Oxford St,,RI,02905
90 Potters Ave,,RI,02905
350 Prairie Ave,,RI,02905
318 Plain St,,RI,
186 Allens Ave,,RI,02901
291 Promenade St,,RI,02908
52 Whittier Ave,,RI,02909
75 Judith St,,RI,02909
14 Pleasant Valley Pkwy,,RI,
27 Grover St,,RI,02909
