street,city,state,zip
5793 COLUMBIA HWY N,MONETTA,SC,29105
108 HOLSTON ST,MONETTA,SC,29105
35 HOLSTON ST,MONETTA,SC,29105
5676 COLUMBIA HWY N,MONETTA,SC,29105
20 CATO RD,MONETTA,SC,29105
32 CATO RD,MONETTA,SC,29105
52 MAIN ST,MONETTA,SC,29105
28 MAIN ST,MONETTA,SC,29105
20 WALDEN ST,MONETTA,SC,29105
40 WALDEN ST,MONETTA,SC,29105
1417 SAINT HUBERT WAY,CHARLESTON,SC,29414
3325 FICKLING HILL RD,JOHNS ISLAND,SC,29455
696 BUNKHOUSE DR,CHARLESTON,SC,29414
7327 COMMODORE RD,HOLLYWOOD,SC,29449
1455 SAINT HUBERT WAY,CHARLESTON,SC,29414
6279 MAXVILLE RD,AWENDAW,SC,29429
2893 EDENBOROUGH RD,JOHNS ISLAND,SC,29455
1456 SAINT HUBERT WAY,CHARLESTON,SC,29414
6219 OLD JACKSONBORO RD,RAVENEL,SC,29470
3317 RIVER RD,JOHNS ISLAND,SC,29455
71 AARDVARK LN,WALTERBORO,SC,29488
61 AARDVARK LN,WALTERBORO,SC,29488
16 AARDVARK LN,WALTERBORO,SC,29488
40 AARDVARK LN,WALTERBORO,SC,29488
113 AARDVARK LN,WALTERBORO,SC,29488
29 AARDVARK LN,WALTERBORO,SC,29488
51 AARDVARK LN,WALTERBORO,SC,29488
15 AARDVARK LN,WALTERBORO,SC,29488
60 AARDVARK LN,WALTERBORO,SC,29488
70 AARDVARK LN,WALTERBORO,SC,29488
3936 HWY 472,Conway,SC,29526
3165 HERMITAGE DR,Little River,SC,29566
1105 LAMPWICK LN,Murrells Inlet,SC,29576
5865 LEONARD RD,Myrtle Beach,SC,29588
533 SAND RIDGE RD,Conway,SC,29526
1436 SEAHOUSE CT,Surfside Beach,SC,29575
1303 VILLAGE ST,Conway,SC,29526
4668 RIVER RD,Little River,SC,29566
1801 BRAEWOOD CT,Surfside Beach,SC,29575
970 SHIPMASTER AVE,Myrtle Beach,SC,29579
112 112 HORTON ST,HARDEEVILLE,SC,29927
114 114 HORTON ST,HARDEEVILLE,SC,29927
291 291 RILEY RD,HARDEEVILLE,SC,29927
1244 1244 FREEDOM PKWY,HARDEEVILLE,SC,29927
1234 1234 FREEDOM PKWY,HARDEEVILLE,SC,29927
1230 1230 FREEDOM PKWY,HARDEEVILLE,SC,29927
314 314 RILEY RD,HARDEEVILLE,SC,29927
577 577 NELSONS CT,HARDEEVILLE,SC,29927
677 677 NELSONS CT,HARDEEVILLE,SC,29927
420 420 NELSONS CT,HARDEEVILLE,SC,29927
1411 ALEX ST,CAYCE,SC,29033
1412 ALEX ST,CAYCE,SC,29033
1413 ALEX ST,CAYCE,SC,29033
1427 ALEX ST,CAYCE,SC,29033
800 ALEXANDER RD,CAYCE,SC,29033
800 ALEXANDER RD,CAYCE,SC,29033
800 ALEXANDER RD,CAYCE,SC,29033
800 ALEXANDER RD,CAYCE,SC,29033
800 ALEXANDER RD,CAYCE,SC,29033
800 ALEXANDER RD,CAYCE,SC,29033
135 VERNER MILL RD,MOUNTAIN REST,SC,29664
120 VERNER MILL RD,MOUNTAIN REST,SC,29664
100 SUNSHINE CIR,WESTMINSTER,SC,29693
100 SUNSHINE CIR,WESTMINSTER,SC,29693
486 BOUNTYLAND RD,WESTMINSTER,SC,29693
490 BOUNTYLAND RD,WESTMINSTER,SC,29693
135 E MAIN ST,WESTMINSTER,SC,29693
323 HILLCREST DR,WESTMINSTER,SC,29693
340 MATCH PLAY LN,WESTMINSTER,SC,29693
859 POPLAR SPRINGS RD,WESTMINSTER,SC,29693
7220 CAMDEN HWY,REMBERT,SC,29128
5718 TB WRIGHT RD,REMBERT,SC,29128
22 BOUNDARY ST,MAYESVILLE,SC,29104
601 BULTMAN DR,SUMTER,SC,29150
999 HEATHER LN,SUMTER,SC,29154
19 BEARD DR,DALZELL,SC,29040
20 BEARD DR,DALZELL,SC,29040
545 BULTMAN DR,SUMTER,SC,29150
569 BULTMAN DR,SUMTER,SC,29150
648 BULTMAN DR,SUMTER,SC,29150
102 RAYMOND RD,UNION,SC,29379
238 JONESVILLE LOCKHART HWY,JONESVILLE,SC,29353
134 A ST,JONESVILLE,SC,29353
102 ACADEMY ST,JONESVILLE,SC,29353
106 ACADEMY ST,JONESVILLE,SC,29353
112 ACADEMY ST,JONESVILLE,SC,29353
116 ACADEMY ST,JONESVILLE,SC,29353
119 ACADEMY ST,JONESVILLE,SC,29353
124 ACADEMY ST,JONESVILLE,SC,29353
129 ACADEMY ST,JONESVILLE,SC,29353
1205 HALL SPENCER RD,CATAWBA,SC,29704
1386 BROOKMEAD DR,FORT MILL,SC,29715
1392 BROOKMEAD DR,FORT MILL,SC,29715
240 TAIL RACE LN,FORT MILL,SC,29715
250 CINDA ST,FORT MILL,SC,29715
236 TAIL RACE LN,FORT MILL,SC,29715
100 LESTINA CT,FORT MILL,SC,29715
105 LESTINA CT,FORT MILL,SC,29715
100 101 STARNES POINT CT,FORT MILL,SC,29715
100 105 STARNES POINT CT,FORT MILL,SC,29715
