street,city,state,zip
37831 US HWY 16,WHITE LAKE,SD,57383
26415 US HWY 281,STICKNEY,SD,57375
38790 259TH ST,STICKNEY,SD,57375
26396 384TH AVE,STICKNEY,SD,57375
26205 US HWY 281,STICKNEY,SD,57375
26215 US HWY 281,STICKNEY,SD,57375
26410 391ST AVE,STICKNEY,SD,57375
39017 262ND ST,STICKNEY,SD,57375
26663 383RD AVE,STICKNEY,SD,57375
26265 385TH AVE,STICKNEY,SD,57375
26420 385TH AVE,STICKNEY,SD,57375
26415 384TH AVE,STICKNEY,SD,57375
38664 267TH ST,STICKNEY,SD,57375
38536 263RD ST,STICKNEY,SD,57375
26365 386TH AVE,STICKNEY,SD,57375
38623 262ND ST,STICKNEY,SD,57375
37719 263RD ST,STICKNEY,SD,57375
26305 380TH AVE,STICKNEY,SD,57375
26435 381ST AVE,STICKNEY,SD,57375
38036 265TH ST,STICKNEY,SD,57375
37931 267TH ST,STICKNEY,SD,57375
26715 379TH AVE,STICKNEY,SD,57375
39196 262ND ST,STICKNEY,SD,57375
26115 393RD AVE,STICKNEY,SD,57375
37180 263RD ST,WHITE LAKE,SD,57383
37256 263RD ST,WHITE LAKE,SD,57383
37046 267TH ST,WHITE LAKE,SD,57383
37821 263RD ST,STICKNEY,SD,57375
26360 379TH AVE,STICKNEY,SD,57375
37081 263RD ST,WHITE LAKE,SD,57383
25865 383RD AVE,PLANKINTON,SD,57368
38769 256TH ST,PLANKINTON,SD,57368
26011 385TH AVE,PLANKINTON,SD,57368
38780 261ST ST,STICKNEY,SD,57375
39149 255TH ST,PLANKINTON,SD,57368
39186 260TH ST,STICKNEY,SD,57375
37031 257TH ST,WHITE LAKE,SD,57383
39391 252ND ST,PLANKINTON,SD,57368
25520 376TH AVE,WHITE LAKE,SD,57383
38087 252ND ST,PLANKINTON,SD,57368
25301 381ST AVE,PLANKINTON,SD,57368
25474 US HWY 281,PLANKINTON,SD,57368
25033 371ST AVE,WHITE LAKE,SD,57383
37030 254TH ST,WHITE LAKE,SD,57383
25353 NATIONAL AVE,PLANKINTON,SD,57368
38686 256TH ST,PLANKINTON,SD,57368
25195 386TH AVE,PLANKINTON,SD,57368
704 E STATE ST,PLANKINTON,SD,57368
23842 386TH AVE,WESSINGTON SPRINGS,SD,57382
23841 386TH AVE,WESSINGTON SPRINGS,SD,57382
45408 268TH ST,HUMBOLDT,SD,57035
45858 268TH ST,PARKER,SD,57035
45872 268TH ST,PARKER,SD,57035
45978 268TH ST,HARTFORD,SD,57033
45976 268TH ST,HARTFORD,SD,57033
45874 268TH ST,PARKER,SD,57035
45956 268TH ST,HARTFORD,SD,57033
46192 268TH ST,CHANCELLOR,SD,57033
46036 268TH ST,CHANCELLOR,SD,57033
46122 268TH ST,CHANCELLOR,SD,57033
26778 455TH AVE,HUMBOLDT,SD,57035
46212 268TH ST,CHANCELLOR,SD,57033
26781 456TH AVE,HUMBOLDT,SD,57035
46270 268TH ST,CHANCELLOR,SD,57033
46124 268TH ST,CHANCELLOR,SD,57033
46284 268TH ST,CHANCELLOR,SD,57033
46274 268TH ST,CHANCELLOR,SD,57033
46578 268TH ST,SIOUX FALLS,SD,57106
46574 268TH ST,SIOUX FALLS,SD,57106
26778 459TH AVE,HARTFORD,SD,57033
46608 268TH ST,SIOUX FALLS,SD,57106
46602 268TH ST,SIOUX FALLS,SD,57106
26798 COUNTRY ACRE DR,SIOUX FALLS,SD,57106
46510 268TH ST,SIOUX FALLS,SD,57106
26799 COUNTRY ACRE DR,SIOUX FALLS,SD,57106
46627 PRAIRIE DR,SIOUX FALLS,SD,57106
26798 MEADOW LN,SIOUX FALLS,SD,57106
46625 PRAIRIE DR,SIOUX FALLS,SD,57106
46631 PRAIRIE DR,SIOUX FALLS,SD,57106
46645 PRAIRIE DR,SIOUX FALLS,SD,57106
46648 PRAIRIE DR,SIOUX FALLS,SD,57106
46692 268TH ST,SIOUX FALLS,SD,57106
46684 268TH ST,SIOUX FALLS,SD,57106
46680 268TH ST,SIOUX FALLS,SD,57106
46682 268TH ST,SIOUX FALLS,SD,57106
46688 268TH ST,SIOUX FALLS,SD,57106
46698 268TH ST,SIOUX FALLS,SD,57106
26785 463RD AVE,CHANCELLOR,SD,57033
46624 PRAIRIE DR,SIOUX FALLS,SD,57106
46632 PRAIRIE DR,SIOUX FALLS,SD,57106
46638 PRAIRIE DR,SIOUX FALLS,SD,57106
26797 COUNTRY ACRE DR,SIOUX FALLS,SD,57106
46642 PRAIRIE DR,SIOUX FALLS,SD,57106
46628 PRAIRIE DR,SIOUX FALLS,SD,57106
26796 COUNTRY ACRE DR,SIOUX FALLS,SD,57106
26795 467TH AVE,SIOUX FALLS,SD,57106
26787 466TH AVE,SIOUX FALLS,SD,57106
26795 COUNTRY ACRE DR,SIOUX FALLS,SD,57106
46844 268TH ST,SIOUX FALLS,SD,57106
26794 MEADOW LN,SIOUX FALLS,SD,57106
