street,city,state,zip
2407 WEBSTER CT,BLOUNT COUNTY,TN,37804
2437 CECELIA AVE,BLOUNT COUNTY,TN,37804
2439 CECELIA AVE,BLOUNT COUNTY,TN,37804
2441 CECELIA AVE,BLOUNT COUNTY,TN,37804
2443 CECELIA AVE,BLOUNT COUNTY,TN,37804
2513 CECELIA AVE,BLOUNT COUNTY,TN,37804
2515 CECELIA AVE,BLOUNT COUNTY,TN,37804
2519 CECELIA AVE,BLOUNT COUNTY,TN,37804
2521 CECELIA AVE,BLOUNT COUNTY,TN,37804
2523 CECELIA AVE,BLOUNT COUNTY,TN,37804
5024 THOROUGHBRED LN,BRENTWOOD,TN,37027
5022 THOROUGHBRED LN,BRENTWOOD,TN,37027
9125 CROCKETT RD,BRENTWOOD,TN,37027
1040 BRENTWOOD PT,BRENTWOOD,TN,37027
802 BRENTWOOD PT,BRENTWOOD,TN,37027
819 BRENTWOOD PT,BRENTWOOD,TN,37027
924 BRENTWOOD PT,BRENTWOOD,TN,37027
1125 BRENTWOOD PT,BRENTWOOD,TN,37027
908 BRENTWOOD PT,BRENTWOOD,TN,37027
1115 BRENTWOOD PT,BRENTWOOD,TN,37027
104 HIDDEN OAKS DR,Carter County,TN,37601
102 HIDDEN OAKS DR,Carter County,TN,37601
505 SOUTH HILLS CIR,Johnson City,TN,37601
233 BISHOP RD,Carter County,TN,37601
176 RIDGELAND DR,Carter County,TN,37601
172 RIDGELAND DR,Carter County,TN,37601
179 RIDGELAND DR,Carter County,TN,37601
101 KIMBERLY LN,Carter County,TN,37604
137 WOODCREST LN,Carter County,TN,37601
112 KIMBERLY LN,Carter County,TN,37604
210 HILLWOOD BLVD,MURFREESBORO,TN,37129
210 HILLWOOD BLVD,MURFREESBORO,TN,37129
210 HILLWOOD BLVD,MURFREESBORO,TN,37129
120 WEAKLEY LN,SMYRNA,TN,37167
505 E GRESHAM DR,SMYRNA,TN,37167
6131 STEVE SCARLETT PL,LAVERGNE,TN,37086
217 W HUTCHINSON DR,SMYRNA,TN,37167
800 POWDER HORN DR,SMYRNA,TN,37167
108 NOEL LN,SMYRNA,TN,37167
210 HILLWOOD BLVD,MURFREESBORO,TN,37129
2779 IROQUOIS DR,THOMPSONS STATION,TN,37179
3312 MILTON CT,THOMPSONS STATION,TN,37179
3314 MILTON CT,THOMPSONS STATION,TN,37179
2780 IROQUOIS DR,THOMPSONS STATION,TN,37179
3310 MILTON CT,THOMPSONS STATION,TN,37179
2777 IROQUOIS DR,THOMPSONS STATION,TN,37179
3308 MILTON CT,THOMPSONS STATION,TN,37179
3309 MILTON CT,THOMPSONS STATION,TN,37179
3306 MILTON CT,THOMPSONS STATION,TN,37179
2782 IROQUOIS DR,THOMPSONS STATION,TN,37179
1633 LEWISBURG PIKE,FRANKLIN,TN,37064
1623 LEWISBURG PIKE,FRANKLIN,TN,37064
4392 COLUMBIA PIKE,FRANKLIN,TN,37064
1619 LEWISBURG PIKE,FRANKLIN,TN,37064
1620 LEWISBURG PIKE,FRANKLIN,TN,37064
1615 LEWISBURG PIKE,FRANKLIN,TN,37064
1611 LEWISBURG PIKE,FRANKLIN,TN,37064
2763 MCLEMORE RD,FRANKLIN,TN,37064
1605 LEWISBURG PIKE,FRANKLIN,TN,37064
2760 MCLEMORE RD,FRANKLIN,TN,37064
759 McGUIRE RD,NEW MARKET,TN,37820
1502 HOLLOW SPRINGS WAY,WHITE PINE,TN,37890
1509 HOLLOW SPRINGS WAY,WHITE PINE,TN,37890
1517 HOLLOW SPRINGS WAY,WHITE PINE,TN,37890
1513 HOLLOW SPRINGS WAY,WHITE PINE,TN,37890
1544 HOLLOW SPRINGS WAY,WHITE PINE,TN,37890
1564 HOLLOW SPRINGS WAY,WHITE PINE,TN,37890
108 BEDFORD WAY,WHITE PINE,TN,37890
2019 LANDOVER WAY,WHITE PINE,TN,37890
112 BEDFORD WAY,WHITE PINE,TN,37890
2905 EDGE PARK CT,COLUMBIA,TN,38401
2421 HIDDEN LAKE CIR,COLUMBIA,TN,38401
102 EIGER CT,COLUMBIA,TN,38401
2404 HIDDEN LAKE CIR,COLUMBIA,TN,38401
220 E   16TH ST,COLUMBIA,TN,38401
406 MOORESVILLE PIKE,COLUMBIA,TN,38401
2321 CAMPBELL PARK DR,COLUMBIA,TN,38401
110 GARDENDALE DR,COLUMBIA,TN,38401
1221 1/2 GRAHAM ST,COLUMBIA,TN,38401
1110 SUNNYSIDE DR,COLUMBIA,TN,38401
210 HILLWOOD BLVD,MURFREESBORO,TN,37129
210 HILLWOOD BLVD,MURFREESBORO,TN,37129
210 HILLWOOD BLVD,MURFREESBORO,TN,37129
120 WEAKLEY LN,SMYRNA,TN,37167
505 E  GRESHAM DR,SMYRNA,TN,37167
6131 STEVE SCARLETT PL,LAVERGNE,TN,37086
217 W  HUTCHINSON DR,SMYRNA,TN,37167
800 POWDER HORN DR,SMYRNA,TN,37167
108 NOEL LN,SMYRNA,TN,37167
210 HILLWOOD BLVD,MURFREESBORO,TN,37129
850 WINGO RD,OLIVE BRANCH,TN,38116
11887 E  HOLMES RD,COLLIERVILLE,TN,38017
11883 E  HOLMES RD,COLLIERVILLE,TN,38017
1810 QUINN RD,COLLIERVILLE,TN,38017
11451 COUNTRY FOREST CV,COLLIERVILLE,TN,38017
11885 E  HOLMES RD,COLLIERVILLE,TN,38017
11489 COUNTRY FOREST DR,COLLIERVILLE,TN,38017
11523 COUNTRY FOREST DR,COLLIERVILLE,TN,38017
11317 COUNTRY FOREST CV,COLLIERVILLE,TN,38017
11357 COUNTRY FOREST CV,COLLIERVILLE,TN,38017
