street,city,state,zip
61 E 1500  S,PERRY,UT,84302
11459 N HIGHWAY 38,DEWEYVILLE,UT,84309
5760 N 4700   W,BEAR RIVER CITY,UT,84301
5870 N 4700   W,BEAR RIVER CITY,UT,84301
5871 N 4700   W,BEAR RIVER CITY,UT,84301
6410 N 4600   W,BEAR RIVER CITY,UT,84314
13209 N 5400   W,GARLAND,UT,84312
13275 N EAST GARLAND RD,GARLAND,UT,84312
13125 N EAST GARLAND RD,GARLAND,UT,84312
3745 W 2425   N,CORINNE,UT,84307
3860 W ARIZONA ST,CORINNE,UT,84307
3860 W NORTH FRONT ST,CORINNE,UT,84307
3820 W NORTH FRONT ST,CORINNE,UT,84307
3840 W NORTH FRONT ST,CORINNE,UT,84307
3870 W NORTH FRONT ST,CORINNE,UT,84307
3835 W COLORADO ST,CORINNE,UT,84307
4135 W COLORADO ST,CORINNE,UT,84307
3865 W COLORADO ST,CORINNE,UT,84307
3875 W COLORADO ST,CORINNE,UT,84307
3870 W COLORADO ST,CORINNE,UT,84307
3795 W MONTANA ST,CORINNE,UT,84307
3785 W MONTANA ST,CORINNE,UT,84307
3780 W MONTANA ST,CORINNE,UT,84307
3802 W MONTANA ST,CORINNE,UT,84307
3890 W MONTANA ST,CORINNE,UT,84307
3885 W MONTANA ST,CORINNE,UT,84307
3865 W MONTANA ST,CORINNE,UT,84307
3845 W MONTANA ST,CORINNE,UT,84307
3839 W MONTANA ST,CORINNE,UT,84307
3815 W MONTANA ST,CORINNE,UT,84307
3925 W MONTANA ST,CORINNE,UT,84307
3935 W MONTANA ST,CORINNE,UT,84307
3945 W MONTANA ST,CORINNE,UT,84307
3955 W MONTANA ST,CORINNE,UT,84307
3975 W MONTANA ST,CORINNE,UT,84307
3995 W MONTANA ST,CORINNE,UT,84307
3960 W COLORADO ST,CORINNE,UT,84307
3970 W COLORADO ST,CORINNE,UT,84307
3990 W COLORADO ST,CORINNE,UT,84307
3995 W COLORADO ST,CORINNE,UT,84307
3975 W COLORADO ST,CORINNE,UT,84307
3910 W MONTANA ST,CORINNE,UT,84307
3930 W MONTANA ST,CORINNE,UT,84307
3996 W MONTANA ST,CORINNE,UT,84307
3976 W MONTANA ST,CORINNE,UT,84307
4048 W SOUTH FRONT ST,CORINNE,UT,84307
4025 W COLORADO ST,CORINNE,UT,84307
2295 N 4000   W,CORINNE,UT,84307
4065 W COLORADO ST,CORINNE,UT,84307
4090 W COLORADO ST,CORINNE,UT,84307
5067 N LONG SKY DR,ST GEORGE,UT,84770
1098 W CRESOLE DR,ST GEORGE,UT,84770
1064 W CRESOLE DR,ST GEORGE,UT,84770
2456 E PORTOFINO CIR,ST GEORGE,UT,84790
2792 S 2220 E ST,ST GEORGE,UT,84790
4313 S WINDSONG WAY,ST GEORGE,UT,84790
1934 W WIDE RIVER DR,ST GEORGE,UT,84790
350 W 100 S ST,ST GEORGE,UT,84770
1687 W WIDE RIVER DR,ST GEORGE,UT,84790
1735 W 540 N ST,ST GEORGE,UT,84770
4297 S WINDSONG WAY,ST GEORGE,UT,84790
1735 W 540 N ST,ST GEORGE,UT,84770
1435 W 490 N ST,ST GEORGE,UT,84770
2036 W ECHO SPRINGS CIR,ST GEORGE,UT,84790
2018 W ECHO SPRINGS CIR,ST GEORGE,UT,84790
1877 W WIDE RIVER DR,ST GEORGE,UT,84790
1910 W WIDE RIVER DR,ST GEORGE,UT,84790
1747 W WIDE RIVER DR,ST GEORGE,UT,84790
4438 S IRONWOOD DR,ST GEORGE,UT,84790
2002 W ECHO SPRINGS CIR,ST GEORGE,UT,84790
280 W 2025 S CIR,ST GEORGE,UT,84770
1853 W WIDE RIVER DR,ST GEORGE,UT,84790
1707 W WARM RIVER DR,ST GEORGE,UT,84790
517 S 400 E ST,ST GEORGE,UT,84770
1598 W 1170 N ST,ST GEORGE,UT,84770
611 S 100 W ST,ST GEORGE,UT,84770
4343 S DIAMOND RIVER DR,ST GEORGE,UT,84790
1419 W 490 N ST,ST GEORGE,UT,84770
4407 S BROADMOOR DR,ST GEORGE,UT,84790
1841 W RED RIVER DR,ST GEORGE,UT,84790
4504 S BIG RIVER DR,ST GEORGE,UT,84790
1735 W 540 N ST,ST GEORGE,UT,84770
4539 S PEACEFUL RIVER DR,ST GEORGE,UT,84790
1709 W DESERT ROSE DR,ST GEORGE,UT,84790
533 S MAIN ST,ST GEORGE,UT,84770
1956 W WIDE RIVER DR,ST GEORGE,UT,84790
1773 W WIDE RIVER DR,ST GEORGE,UT,84790
1735 W 540 N ST,ST GEORGE,UT,84770
4317 S WINDSONG WAY,ST GEORGE,UT,84790
1716 W DIAMOND RIVER DR,ST GEORGE,UT,84790
1762 W DIAMOND RIVER DR,ST GEORGE,UT,84790
4552 S COLD RIVER DR,ST GEORGE,UT,84790
1770 W DIAMOND RIVER DR,ST GEORGE,UT,84790
1778 W DIAMOND RIVER DR,ST GEORGE,UT,84790
1708 W DIAMOND RIVER DR,ST GEORGE,UT,84790
280 W 2025 S CIR,ST GEORGE,UT,84770
4443 S HOLLY GRAPE LN,ST GEORGE,UT,84790
1735 W 540 N ST,ST GEORGE,UT,84770
4376 S IRONWOOD DR,ST GEORGE,UT,84790
1673 W WARM RIVER DR,ST GEORGE,UT,84790
