street,city,state,zip
2812 GUM RD,CHESAPEAKE,VA,23321
1208 LAKE THRASHER PKWY,CHESAPEAKE,VA,23320
4108 RIVER BREEZE CIR,CHESAPEAKE,VA,23321
4106 RIVER BREEZE CIR,CHESAPEAKE,VA,23321
3713 BREEZE PORT ARCH,CHESAPEAKE,VA,23321
4013 RIVER BREEZE CIR,CHESAPEAKE,VA,23321
1002 ANABRANCH TRCE,CHESAPEAKE,VA,23323
4024 RIVER BREEZE CIR,CHESAPEAKE,VA,23321
4026 RIVER BREEZE CIR,CHESAPEAKE,VA,23321
4028 RIVER BREEZE CIR,CHESAPEAKE,VA,23321
3624 DOCK POINT ARCH,CHESAPEAKE,VA,23321
1100 STOKES ST,DANVILLE,VA,24541
1100 WASHINGTON ST,DANVILLE,VA,24540
1101 ADAMS ST,DANVILLE,VA,24540
1101 INDUSTRIAL AVE,DANVILLE,VA,24541
1101 LOCKETT DR,DANVILLE,VA,24541
1101 PAXTON ST,DANVILLE,VA,24541
1101 STOKES ST,DANVILLE,VA,24541
1102 CAHILL CT,DANVILLE,VA,24541
1102 FRANKLIN TPKE,DANVILLE,VA,24540
1102 GREENWOOD AVE,DANVILLE,VA,24541
1102 WASHINGTON ST,DANVILLE,VA,24540
350 S WASHINGTON ST,FALLS CHURCH,VA,22046
303 S MAPLE AVE,FALLS CHURCH,VA,22046
360 S WASHINGTON ST,FALLS CHURCH,VA,22046
410 S WASHINGTON ST,FALLS CHURCH,VA,22046
307 S MAPLE AVE,FALLS CHURCH,VA,22046
311 S MAPLE AVE,FALLS CHURCH,VA,22046
436 S WASHINGTON ST,FALLS CHURCH,VA,22046
201 S WASHINGTON ST,FALLS CHURCH,VA,22046
429 S MAPLE AVE,FALLS CHURCH,VA,22046
101 E ANNANDALE RD,FALLS CHURCH,VA,22046
431 S MAPLE AVE,FALLS CHURCH,VA,22046
0 COLONNADE AVE,LEXINGTON,VA,24450
0 MOSES MILL RD,LEXINGTON,VA,24450
826 N MAIN ST,LEXINGTON,VA,24450
0 MOSES MILL RD,LEXINGTON,VA,24450
826 N MAIN ST,LEXINGTON,VA,24450
0 MOSES MILL RD,LEXINGTON,VA,24450
828 N MAIN ST,LEXINGTON,VA,24450
105 MCLAUGHLIN ST,LEXINGTON,VA,24450
107 MCLAUGHLIN ST,LEXINGTON,VA,24450
109 MCLAUGHLIN ST,LEXINGTON,VA,24450
111 MCLAUGHLIN ST,LEXINGTON,VA,24450
502 HAGAN AVE NW,NORTON,VA,24273
508 HAGAN AVE NW,NORTON,VA,24273
403 CRAIG ST NW,NORTON,VA,24273
409 CRAIG ST NW,NORTON,VA,24273
415 CRAIG ST NW,NORTON,VA,24273
419 CRAIG ST NW,NORTON,VA,24273
425 CRAIG ST NW,NORTON,VA,24273
431 CRAIG ST NW,NORTON,VA,24273
435 CRAIG ST NW,NORTON,VA,24273
439 CRAIG ST NW,NORTON,VA,24273
443 CRAIG ST NW,NORTON,VA,24273
179 SHERATON DR,SALEM,VA,24153
140 SHERATON DR,SALEM,VA,24153
122 SHERATON DR,SALEM,VA,24153
114 SHERATON DR,SALEM,VA,24153
119 SHERATON DR,SALEM,VA,24153
117 SHERATON DR,SALEM,VA,24153
115 SHERATON DR,SALEM,VA,24153
1551 EPPERLY LN,SALEM,VA,24153
1531 EPPERLY LN,SALEM,VA,24153
1541 EPPERLY LN,SALEM,VA,24153
1125 POLAR LN,SALEM,VA,24153
216 PARK ST NE,VIENNA,VA,22180
218 LOCUST ST SE,VIENNA,VA,22180
218 LOCUST ST SE,VIENNA,VA,22180
523 MAPLE AVE W,VIENNA,VA,22180
1037 STERLING RD,HERNDON,VA,20170
1145 ARTIC QUILL RD,HERNDON,VA,20170
1151 LISA CT,HERNDON,VA,20170
1155 CYPRESS TREE PL,HERNDON,VA,20170
1364 BEVERLY RD,MCLEAN,VA,22101
1355 BEVERLY RD,MCLEAN,VA,22101
1147 COLONIAL RD,MCLEAN,VA,22101
3008 WATERFORD WAY EAST,HENRICO,VA,232331650
11912 CHURCH RD,HENRICO,VA,232332401
1015 HORSEPEN RD,HENRICO,VA,232296726
606 W WILLOW ST,HENRICO,VA,230751419
9607 WOODMAN RD,HENRICO,VA,232281325
3101 NORTHSIDE AVE,HENRICO,VA,232285409
505 RIDGELEY LN,HENRICO,VA,232297235
5525 PONY FARM DR,HENRICO,VA,232273120
2517 POATES DR,HENRICO,VA,232283041
2111 CEDARFIELD LN,HENRICO,VA,232331937
6004 MULHOLLAND DR,GLEN ALLEN,VA,230597008
732 LONE PINE RD,BURKEVILLE,VA,23922
7942 HUNGARYTOWN RD,CREWE,VA,23930
1337 LITTLE CREEK RD,CREWE,VA,23930
1356 WOODMANS RD,CREWE,VA,23930
236 ROGERS LN,CREWE,VA,23930
1942 GOOD HOPE RD,CREWE,VA,23930
848 ROBERTSONS RD,BLACKSTONE,VA,23824
7781 W PATRICK HENRY HWY,CREWE,VA,23930
8203 E PARTICK HENRY HWY,CREWE,VA,23930
329 SECOND ST,BURKEVILLE,VA,23922
725 HUNGARYTOWN RD,BLACKSTONE,VA,23824
