street,city,state,zip
0 PINE ST,,VT,
350 QUEEN CITY PARK RD,,VT,
378 QUEEN CITY PARK RD,,VT,
364 QUEEN CITY PARK RD,,VT,
396 QUEEN CITY PARK RD,,VT,
388 QUEEN CITY PARK RD,,VT,
382 QUEEN CITY PARK RD,,VT,
1149 PINE ST,,VT,
151 DUNDER RD,,VT,
1143 PINE ST,,VT,
145 DUNDER RD,,VT,
144 DUNDER RD,,VT,
1135 PINE ST,,VT,
203 SOUTH COVE RD,,VT,
0 PINE ST,,VT,
191 SOUTH COVE RD,,VT,
215 SOUTH COVE RD,,VT,
185 SOUTH COVE RD,,VT,
1132 PINE ST,,VT,
139 DUNDER RD,,VT,
135 SOUTH CREST DR,,VT,
136 DUNDER RD,,VT,
1125 PINE ST,,VT,
177 SOUTH COVE RD,,VT,
152 INDUSTRIAL PW,,VT,
227 SOUTH COVE RD,,VT,
1110 PINE ST,,VT,
129 SOUTH CREST DR,,VT,
1124 PINE ST,,VT,
1123 PINE ST,,VT,
129 DUNDER RD,,VT,
228 SOUTH COVE RD,,VT,
9 ARTHUR CT,,VT,
170 SOUTH COVE RD,,VT,
169 SOUTH COVE RD,,VT,
122 DUNDER RD,,VT,
149 INDUSTRIAL PW,,VT,
109 SOUTH CREST DR,,VT,
241 SOUTH COVE RD,,VT,
0 - -,,VT,
1120 PINE ST,,VT,
124 SOUTH CREST DR,,VT,
240 SOUTH COVE RD,,VT,
1119 PINE ST,,VT,
112 SOUTH CREST DR,,VT,
150 SOUTH COVE RD,,VT,
103 SOUTH CREST DR,,VT,
159 SOUTH COVE RD,,VT,
115 DUNDER RD,,VT,
110 DUNDER RD,,VT,
0 SOUTH COVE RD,,VT,
99 SOUTH CREST DR,,VT,
1099 PINE ST,,VT,
147 SOUTH COVE RD,,VT,
254 SOUTH COVE RD,,VT,
140 SOUTH COVE RD,,VT,
98 SOUTH CREST DR,,VT,
1110 PINE ST,,VT,
1092 PINE ST,,VT,
91 SOUTH CREST DR,,VT,
96 DUNDER RD,,VT,
1085 PINE ST,,VT,
135 SOUTH COVE RD,,VT,
84 SOUTH CREST DR,,VT,
97 DUNDER RD,,VT,
264 SOUTH COVE RD,,VT,
85 SOUTH CREST DR,,VT,
101 INDUSTRIAL PW,,VT,
128 SOUTH COVE RD,,VT,
1079 PINE ST,,VT,
267 SOUTH COVE RD,,VT,
80 DUNDER RD,,VT,
78 SOUTH CREST DR,,VT,
1073 PINE ST,,VT,
125 SOUTH COVE RD,,VT,
79 SOUTH CREST DR,,VT,
81 DUNDER RD,,VT,
0 SOUTH COVE RD,,VT,
1069 PINE ST,,VT,
116 SOUTH COVE RD,,VT,
70 SOUTH CREST DR,,VT,
285 SOUTH COVE RD,,VT,
69 SOUTH CREST DR,,VT,
66 DUNDER RD,,VT,
111 SOUTH COVE RD,,VT,
1061 PINE ST,,VT,
60 SOUTH CREST DR,,VT,
59 SOUTH CREST DR,,VT,
65 DUNDER RD,,VT,
161 AUSTIN DR,,VT,
295 SOUTH COVE RD,,VT,
296 SOUTH COVE RD,,VT,
104 SOUTH COVE RD,,VT,
99 SOUTH COVE RD,,VT,
1053 PINE ST,,VT,
54 SOUTH CREST DR,,VT,
0 - -,,VT,
56 DUNDER RD,,VT,
53 SOUTH CREST DR,,VT,
155 AUSTIN DR,,VT,
