street,city,state,zip
599 COSTLY LN,ASOTIN,WA,99402
617 ASOTIN CREEK RD,ASOTIN,WA,99402
619 ASOTIN CREEK RD,ASOTIN,WA,99402
15544 SNAKE RIVER RD,ASOTIN,WA,99402
15962 SNAKE RIVER RD,ASOTIN,WA,99402
15758 SNAKE RIVER RD,ASOTIN,WA,99402
2600 REMINGTON WAY,CLARKSTON,WA,99403
2060 MARILYN WAY,CLARKSTON,WA,99403
2001 EVANS RD,CLARKSTON,WA,99403
2523 LINDA LN,CLARKSTON,WA,99403
2419 LINDA LN,CLARKSTON,WA,99403
2550 REMINGTON WAY,CLARKSTON,WA,99403
807 10TH ST,Bellingham,WA,98225-6226
811 10TH ST,Bellingham,WA,98225-6227
201 MCKENZIE AVE,Bellingham,WA,98225
1140 BRIGHTON CREST DR,Bellingham,WA,98229-6905
1907 38TH ST,Bellingham,WA,98229-4927
1000 W LAKE SAMISH DR,Bellingham,WA,98229
3022 BEAVER PL,Sedro Woolley,WA,98284
2039 LUMMI VIEW DR,Bellingham,WA,98226
7569 OLSEN DR,Glacier,WA,98244
340 CHERRY ST,Blaine,WA,98230
9141 BELTED KINGFISHER RD,Blaine,WA,98230
5519 CANVASBACK RD,Blaine,WA,98230
17807 93RD PL NE,BOTHELL,WA,98011
1630 228TH ST SE,BOTHELL,WA,98021
923 228TH ST SE,BOTHELL,WA,98021
11022 NE 197TH ST,BOTHELL,WA,98011
15300 112TH AVE NE,BOTHELL,WA,98011
18612 BEARDSLEE BLVD,BOTHELL,WA,98011
16477 107TH PL NE,BOTHELL,WA,98011
12942 NE 201ST WAY,WOODINVILLE,WA,98072
15515 JUANITA-WOODINVILLE WAY NE,BOTHELL,WA,98011
16125 JUANITA-WOODINVILLE WAY NE,BOTHELL,WA,98011
8700 88TH AVE NE,BOTHELL,WA,98011
16388 119TH LN NE,BOTHELL,WA,98011
5826 N Driscoll Blvd,Spokane,WA,99205
811 E Gordon Ave,Spokane,WA,99207
1327 W Kiernan Ave,Spokane,WA,99205
3302 W Central Ave,Spokane,WA,99205
2303 W Kiernan Ave,Spokane,WA,99205
5320 N Alameda Blvd,Spokane,WA,99205
5303 N Elgin St,Spokane,WA,99205
3303 E Gordon Ave,Spokane,WA,99217
4712 N Lee St,Spokane,WA,99207
408 E Olympic Ave,Spokane,WA,99207
4007 N Monroe St,Spokane,WA,99205
4123 E Marietta Ave,Spokane,WA,99217
2053 MAPLE ST,LONGVIEW,WA,98632
2005 OLYMPIA WAY,LONGVIEW,WA,98632
1614 21ST AVE,LONGVIEW,WA,98632
1626 21ST AVE,LONGVIEW,WA,98632
2025 OLYMPIA WAY,LONGVIEW,WA,98632
1619 21ST AVE,LONGVIEW,WA,98632
1609 21ST AVE,LONGVIEW,WA,98632
1632 22ND AVE,LONGVIEW,WA,98632
1539 21ST AVE,LONGVIEW,WA,98632
1515 21ST AVE,LONGVIEW,WA,98632
1607 20TH AVE,LONGVIEW,WA,98632
2015 OLYMPIA WAY,LONGVIEW,WA,98632
30356 Hwy 243 S,Mattawa,WA,99349
30286 Hwy 243 S,Mattawa,WA,99349
17379 Main St SW,Beverly,WA,99321
17373 Main St SW,Beverly,WA,99321
19780 Rd 6 SE,Warden,WA,98857
801 S Frontage Rd E,Moses Lake,WA,98837
1402 Rd 2 NW,Moses Lake,WA,98837
1512 Rd 2 NW,Moses Lake,WA,98837
1458 Rd 2 NW,Moses Lake,WA,98837
17491 Rd 5.2 NW,Quincy,WA,98848
10478 Largent St NE,Coulee City,WA,99115
10469 Northern Ave NE,Coulee City,WA,99115
611 3RD ST,Steilacoom,WA,98388
306 GOVE ST,Steilacoom,WA,98388
207 3RD ST,Steilacoom,WA,98388
307 MARTIN ST,Steilacoom,WA,98388
1310 RAINIER ST,Steilacoom,WA,98388
1407 RAINIER ST,Steilacoom,WA,98388
1415 LAFAYETTE ST,Steilacoom,WA,98388
1411 LAFAYETTE ST,Steilacoom,WA,98388
110 UNION AVE,Steilacoom,WA,98388
102 UNION AVE,Steilacoom,WA,98388
1601 SEQUALISH ST,Steilacoom,WA,98388
410 PACIFIC ST,Steilacoom,WA,98388
1404 MARSH RD,YAKIMA,WA,98901
1312 MARSH RD,YAKIMA,WA,98901
2125 MARSH RD,YAKIMA,WA,98901
1114 N  2ND ST,YAKIMA,WA,98901
1112 N  2ND ST,YAKIMA,WA,98901
1110 N  2ND ST,YAKIMA,WA,98901
1108 N  2ND ST,YAKIMA,WA,98901
831 N  15TH ST,YAKIMA,WA,98901
904 BOUCHER LN,YAKIMA,WA,98901
2102 MARSH RD,YAKIMA,WA,98901
810 BOCHER LN,YAKIMA,WA,98901
1809 HARTFORD RD,YAKIMA,WA,98901
