street,city,state,zip
612 W ABBOTT AV,MILWAUKEE,WI,53221-3633
613 W ABBOTT AV,MILWAUKEE,WI,53221-3632
632 W ABBOTT AV,MILWAUKEE,WI,53221-3633
700 W ABBOTT AV,MILWAUKEE,WI,53221-3635
707 W ABBOTT AV,MILWAUKEE,WI,53221-3634
711 W ABBOTT AV,MILWAUKEE,WI,53221-3634
716 W ABBOTT AV,MILWAUKEE,WI,53221-3635
1214 W LAYTON AV,MILWAUKEE,WI,53221-2433
727 W ABBOTT AV,MILWAUKEE,WI,53221-3634
801 W ABBOTT AV,MILWAUKEE,WI,53221-3636
812 W ABBOTT AV,MILWAUKEE,WI,53221-3637
827 W ABBOTT AV,MILWAUKEE,WI,53221-3636
835 W ABBOTT AV,MILWAUKEE,WI,53221-3636
1802 W ABBOTT AV,MILWAUKEE,WI,53221-3508
1810 W ABBOTT AV,MILWAUKEE,WI,53221-3508
1818 W ABBOTT AV,MILWAUKEE,WI,53221-3508
1819 W ABBOTT AV,MILWAUKEE,WI,53221-3507
1827 W ABBOTT AV,MILWAUKEE,WI,53221-3507
1837 W ABBOTT AV,MILWAUKEE,WI,53221-3507
2251 W ABBOTT AV,MILWAUKEE,WI,53221-3566
2301 W ABBOTT AV,MILWAUKEE,WI,53221-3422
2322 W ABBOTT AV,MILWAUKEE,WI,53221-3423
2332 W ABBOTT AV,MILWAUKEE,WI,53221-3423
2420 W ABBOTT AV,MILWAUKEE,WI,53221-3425
2423 W ABBOTT AV,MILWAUKEE,WI,53221-3424
W6285 SUMMIT AVE,BAY CITY,WI,54723
N1830 110TH ST,PLUM CITY,WI,54761
W288 230TH AVE,PLUM CITY,WI,54761
W448 310TH AVE,PLUM CITY,WI,54761
W446 310TH AVE,PLUM CITY,WI,54761
W798 310TH AVE,PLUM CITY,WI,54761
W1479 330TH AVE,PLUM CITY,WI,54761
N3461 50TH ST,ARKANSAW,WI,54721
N3498 150TH ST,PLUM CITY,WI,54761
W1898 370TH AVE,MAIDEN ROCK,WI,54750
N3902 130TH ST,PLUM CITY,WI,54761
N4065 150TH ST,PLUM CITY,WI,54761
N2477 50TH ST,PLUM CITY,WI,54761
N2496 80TH ST,PLUM CITY,WI,54761
N2498 50TH ST,PLUM CITY,WI,54761
N2591 50TH ST,PLUM CITY,WI,54761
W602 270TH AVE,PLUM CITY,WI,54761
W662 170TH AVE,PLUM CITY,WI,54761
W316 170TH AVE,PLUM CITY,WI,54761
N1752 20TH ST,PLUM CITY,WI,54761
N1761 130TH ST,PLUM CITY,WI,54761
N1787 150TH ST,PLUM CITY,WI,54761
N1805 70TH ST,PLUM CITY,WI,54761
N1843 20TH ST,PLUM CITY,WI,54761
N1848 190TH ST,MAIDEN ROCK,WI,54750
N1310 LOCUST LN,Waupaca,WI,54981
N1310 LOCUST LN,Waupaca,WI,54981
N1310 LOCUST LN,Waupaca,WI,54981
N1310 LOCUST LN,Waupaca,WI,54981
N1310 LOCUST LN,Waupaca,WI,54981
N1310 LOCUST LN,Waupaca,WI,54981
N1310 LOCUST LN,Waupaca,WI,54981
N1310 LOCUST LN,Waupaca,WI,54981
N1310 LOCUST LN,Waupaca,WI,54981
N1310 LOCUST LN,Waupaca,WI,54981
N1310 LOCUST LN,Waupaca,WI,54981
N1310 LOCUST LN,Waupaca,WI,54981
N4553 PINE PLAIN RD,Waupaca,WI,54981
E8548 RINDT RD,Clintonville,WI,54929
N335 MARTEN RD,Fremont,WI,54940
E9040 KENDALL LN,New London,WI,54961
N4588 KRISEL LN,Ogdensburg,WI,54962
N3355 FRANCES LN,New London,WI,54961
N3350 FRANCES LN,New London,WI,54961
E9652 PINE TREE LN,New London,WI,54961
E8915 BROKEN BRANCH LN,New London,WI,54961
N2123 FOX RIDGE LN,New London,WI,54961
N9995 HWY 49,Iola,WI,54945
E6547 CTY HWY X,Weyauwega,WI,54983
E7190 HWY 54,New London,WI,54961
1122 Hines Rd,Town of Remington,WI,54413
1545 Necedah Rd,Town of Remington,WI,54413
1044A STH 80,Town of Remington,WI,54413
6130 STH 173,Town of Cranmoor,WI,54495
2818 STH 80,Town of Dexter,WI,54495
1197 Hazelnut Trl,Town of Port Edwards,WI,54413
6136 STH 173,Town of Cranmoor,WI,54495
1644 Oak St,Town of Remington,WI,54413
2260 CTH D,Town of Cranmoor,WI,54495
2570 Cranberry Rd,Town of Hiles,WI,54466
7380 Partridge Ln,Town of Dexter,WI,54495
1527 STH 80,Town of Remington,WI,54495
1576 Pine St,Town of Remington,WI,54413
1582 STH 80,Town of Remington,WI,54413
1579 Oak St,Town of Remington,WI,54413
1576 Oak St,Town of Remington,WI,54413
1578 STH 80,Town of Remington,WI,54413
1572 Oak St,Town of Remington,WI,54413
1574 STH 80,Town of Remington,WI,54413
1571 Oak St,Town of Remington,WI,54413
1566 STH 80,Town of Remington,WI,54413
1157 STH 173,Town of Remington,WI,54413
1147 Hines Rd,Town of Remington,WI,54413
1148 Hines Rd,Town of Remington,WI,54413
1161 STH 80,Town of Remington,WI,54413
