street,city,state,zip
786 BEST RD,HARPERS FERRY,WV,25425
813 CARTER AVE,HARPERS FERRY,WV,25425
841 CARTER AVE,HARPERS FERRY,WV,25425
841 CARTER AVE,HARPERS FERRY,WV,25425
841 CARTER AVE,HARPERS FERRY,WV,25425
841 CARTER AVE,HARPERS FERRY,WV,25425
103 MOUNT JEFFERSON ST,HARPERS FERRY,WV,25425
103 MOUNT JEFFERSON ST,HARPERS FERRY,WV,25425
103 MOUNT JEFFERSON ST,HARPERS FERRY,WV,25425
103 MOUNT JEFFERSON ST,HARPERS FERRY,WV,25425
4030 MIDDLEWAY PIKE,KEARNEYSVILLE,WV,25430
4030 MIDDLEWAY PIKE,KEARNEYSVILLE,WV,25430
4030 MIDDLEWAY PIKE,KEARNEYSVILLE,WV,25430
4030 MIDDLEWAY PIKE,KEARNEYSVILLE,WV,25430
4030 MIDDLEWAY PIKE,KEARNEYSVILLE,WV,25430
4030 MIDDLEWAY PIKE,KEARNEYSVILLE,WV,25430
4030 MIDDLEWAY PIKE,KEARNEYSVILLE,WV,25430
4030 MIDDLEWAY PIKE,KEARNEYSVILLE,WV,25430
4030 MIDDLEWAY PIKE,KEARNEYSVILLE,WV,25430
4030 MIDDLEWAY PIKE,KEARNEYSVILLE,WV,25430
4030 MIDDLEWAY PIKE,KEARNEYSVILLE,WV,25430
90 NO NAME LN,KEARNEYSVILLE,WV,25430
261 MEDIA FARM LN,RANSON,WV,25438
34 WEST VIRGINIA WAY,RANSON,WV,25438
33 WEST VIRGINIA WAY,RANSON,WV,25438
33 WEST VIRGINIA WAY,RANSON,WV,25438
1446 FLOWING SPRINGS RD,CHARLES TOWN,WV,25414
1446 FLOWING SPRINGS RD,CHARLES TOWN,WV,25414
1446 FLOWING SPRINGS RD,CHARLES TOWN,WV,25414
1446 FLOWING SPRINGS RD,CHARLES TOWN,WV,25414
1446 FLOWING SPRINGS RD,CHARLES TOWN,WV,25414
63 OLD TAYLOR LN,HARPERS FERRY,WV,25425
63 OLD TAYLOR LN,HARPERS FERRY,WV,25425
63 OLD TAYLOR LN,HARPERS FERRY,WV,25425
63 OLD TAYLOR LN,HARPERS FERRY,WV,25425
63 OLD TAYLOR LN,HARPERS FERRY,WV,25425
63 OLD TAYLOR LN,HARPERS FERRY,WV,25425
63 OLD TAYLOR LN,HARPERS FERRY,WV,25425
63 OLD TAYLOR LN,HARPERS FERRY,WV,25425
63 OLD TAYLOR LN,HARPERS FERRY,WV,25425
346 SHEPHERDSTOWN PIKE,HARPERS FERRY,WV,25425
346 SHEPHERDSTOWN PIKE,HARPERS FERRY,WV,25425
144 HIGH ST,HARPERS FERRY,WV,25425
148 HIGH ST,HARPERS FERRY,WV,25425
1518 W WASHINGTON ST,HARPERS FERRY,WV,25425
1518 W WASHINGTON ST,HARPERS FERRY,WV,25425
104 CLAY ST,HARPERS FERRY,WV,25425
104 CLAY ST,HARPERS FERRY,WV,25425
110 CLAY ST,HARPERS FERRY,WV,25425
110 CLAY ST,HARPERS FERRY,WV,25425
108 CLAY ST,HARPERS FERRY,WV,25425
108 CLAY ST,HARPERS FERRY,WV,25425
1245 W WASHINGTON ST,HARPERS FERRY,WV,25425
81 CHENEY AVE,HARPERS FERRY,WV,25425
81 CHENEY AVE,HARPERS FERRY,WV,25425
81 CHENEY AVE,HARPERS FERRY,WV,25425
81 CHENEY AVE,HARPERS FERRY,WV,25425
81 CHENEY AVE,HARPERS FERRY,WV,25425
85 CHENEY AVE,HARPERS FERRY,WV,25425
85 CHENEY AVE,HARPERS FERRY,WV,25425
85 CHENEY AVE,HARPERS FERRY,WV,25425
85 CHENEY AVE,HARPERS FERRY,WV,25425
85 CHENEY AVE,HARPERS FERRY,WV,25425
85 CHENEY AVE,HARPERS FERRY,WV,25425
85 CHENEY AVE,HARPERS FERRY,WV,25425
85 CHENEY AVE,HARPERS FERRY,WV,25425
85 CHENEY AVE,HARPERS FERRY,WV,25425
87 CHENEY AVE,HARPERS FERRY,WV,25425
87 CHENEY AVE,HARPERS FERRY,WV,25425
87 CHENEY AVE,HARPERS FERRY,WV,25425
87 CHENEY AVE,HARPERS FERRY,WV,25425
87 CHENEY AVE,HARPERS FERRY,WV,25425
87 CHENEY AVE,HARPERS FERRY,WV,25425
87 CHENEY AVE,HARPERS FERRY,WV,25425
1073 W WASHINGTON ST,HARPERS FERRY,WV,25425
1073 W WASHINGTON ST,HARPERS FERRY,WV,25425
1073 W WASHINGTON ST,HARPERS FERRY,WV,25425
1102 W WASHINGTON ST,HARPERS FERRY,WV,25425
1088 W WASHINGTON ST,HARPERS FERRY,WV,25425
1346 W WASHINGTON ST,HARPERS FERRY,WV,25425
1562 W WASHINGTON ST,HARPERS FERRY,WV,25425
1562 W WASHINGTON ST,HARPERS FERRY,WV,25425
67 BOLIVAR CT,HARPERS FERRY,WV,25425
67 BOLIVAR CT,HARPERS FERRY,WV,25425
67 BOLIVAR CT,HARPERS FERRY,WV,25425
67 BOLIVAR CT,HARPERS FERRY,WV,25425
67 BOLIVAR CT,HARPERS FERRY,WV,25425
67 BOLIVAR CT,HARPERS FERRY,WV,25425
67 BOLIVAR CT,HARPERS FERRY,WV,25425
67 BOLIVAR CT,HARPERS FERRY,WV,25425
67 BOLIVAR CT,HARPERS FERRY,WV,25425
45 BOLIVAR CT,HARPERS FERRY,WV,25425
45 BOLIVAR CT,HARPERS FERRY,WV,25425
45 BOLIVAR CT,HARPERS FERRY,WV,25425
45 BOLIVAR CT,HARPERS FERRY,WV,25425
45 BOLIVAR CT,HARPERS FERRY,WV,25425
45 BOLIVAR CT,HARPERS FERRY,WV,25425
45 BOLIVAR CT,HARPERS FERRY,WV,25425
21 BOLIVAR CT,HARPERS FERRY,WV,25425
21 BOLIVAR CT,HARPERS FERRY,WV,25425
