street,city,state,zip
2519 LINDSEY CT,,WY,
2511 LINDSEY  CT,,WY,
2503 LINDSEY CT,,WY,
1668 BATH AVE,,WY,
2520 LINDSEY  CT,,WY,
2632 NIGHTHAWK DR,,WY,
1663 BATH AVE,,WY,
1 MOUNTAIN RD,,WY,
1 BIG B DR,,WY,
10 W MAIN ST,,WY,
10 N CLOUD PEAK ST,,WY,
10 CIRCLE DR,,WY,
10 N CENTER ST,,WY,
10 1ST ST,,WY,
418 SANDCREEK CIR,Wright,WY,82732
510 SWEETWATER CIR,Wright,WY,82732
278 ROCHELLE CT,Wright,WY,82732
113 PRONGHORN CT,Wright,WY,82732
404 SANDCREEK CIR,Wright,WY,82732
419 SUNDANCE CIR,Wright,WY,82732
301 HIGHRIDGE CIR,Wright,WY,82732
105 ROHAN AVE,GILLETTE,WY,
509 W 2ND ST,GILLETTE,WY,
121 4-J RD,GILLETTE,WY,
501 W 1ST ST,GILLETTE,WY,
811 EDWARDS ST,GILLETTE,WY,
811 EDWARDS ST,GILLETTE,WY,
901 EDWARDS ST,GILLETTE,WY,
503 SEMLEK DR,,WY,
505 SEMLEK DR,,WY,
500 SEMLEK DR,,WY,
512 W CAMPBELL ST,,WY,
408 W CAMPBELL ST,,WY,
511 W CAMPBELL ST,,WY,
500 W CAMPBELL ST,,WY,
503 SANDCREEK CT,,WY,
1266 E ELKHORN DR,,WY,
1206 E ELKHORN DR,,WY,
1216 E ELKHORN DR,,WY,
1231 E ELKHORN DR,,WY,
1229 E ELKHORN DR,,WY,
1213 E ELKHORN DR,,WY,
400 JENNE TRAIL RD,,WY,
53 MAPLE DR,,WY,
2905 BOXELDER RD,,WY,
330 ST HWY 59,,WY,
630 S 3RD ST,,WY,
20 RIDGEWATER LN,,WY,
150 55 RANCH RD,,WY,
1505 BLUE SKY HWY,KINNEAR,WY,82516
26 RED CREEK LN,DUBOIS,WY,82512
12740 HWY 26,RIVERTON,WY,82501
310 WASHINGTON,LANDER,WY,82520
4774 HWY 26,DUBOIS,WY,82513
64 RABBIT LN,RIVERTON,WY,82501
199 RENDEZVOUS RD,RIVERTON,WY,82501
3814 HOUSE AVE,,WY,82001
3304 GREGG WAY,,WY,82009
5100 HILLTOP AVE,,WY,82009
1805 S THIRD AVE,,WY,82007
3800 BLUE FEATHER TRL,,WY,82001
3662 WADLOW RANCH RD,,WY,82009
3393 OIL ROAD 217C,,WY,82009
166 Porcupine Road,,WY,
7856 WY HWY 233,,WY,
265 Oakley Street,,WY,
212 Porcupine Road,,WY,
197 Oakley Street,,WY,
160 Oakley Street,,WY,
119 Wood Tick Court,,WY,
2925 GARDEN CREEK RD,,WY,82601
3623 GARDEN CREEK RD,,WY,82601
3337 GARDEN CREEK RD,,WY,82601
3165 GARDEN CREEK RD,,WY,82601
3155 GARDEN CREEK RD,,WY,82601
3145 GARDEN CREEK RD,,WY,82601
3135 GARDEN CREEK RD,,WY,82601
11 COUNTY ROAD 2ABW,,WY,
68A HIGHWAY 120 N,,WY,
68B HIGHWAY 120 N,,WY,
68C HIGHWAY 120 N,,WY,
68D HIGHWAY 120 N,,WY,
7 COUNTY ROAD 2AB,,WY,
9 COUNTY ROAD 2AB,,WY,
438 EHMAN LANE 23-144,,WY,
13745 U S HWY 189 & 191,,WY,
11 GOLD CIR CIR,,WY,
311 BUDD AVE AVE,,WY,
1581 DANIEL MERNA 23-112,,WY,
18 PIONEER Cir,,WY,
41 PIONEER Cir,,WY,
155 PERIMETER DRIVE,,WY,
175 PERIMETER DRIVE,,WY,
165 PERIMETER DRIVE,,WY,
185 PERIMETER DRIVE,,WY,
160 PERIMETER DRIVE,,WY,
655 E ALTA SKI HILL ROAD,,WY,
855 E ALTA SKI HILL ROAD,,WY,
