,street,city,state,zip,address_id
0,1745 T Street Southeast,Washington,DC,20020,xbwgyFGTUSlj0376
1,6007 Applegate Lane,Louisville,KY,40219,0rbaHuSo5pN7DXTS
2,560 Penstock Drive,Grass Valley,CA,95945,4x5BG5Vi9idBNm75
3,150 Carter Street,Manchester,CT,06040,ExNRBifwQSD2wcKF
4,2721 Lindsay Avenue,Louisville,KY,40206,6VSMahH1xQD2Idsu
5,18 Densmore Drive,Essex,VT,05452,NwLdeTbeHrX3Sg7m
6,637 Britannia Drive,Vallejo,CA,94591,2KcJOPzkhasFY1It
7,5601 West Crocus Drive,Glendale,AZ,85306,UxqyYwSx6GlS4CyN
8,5403 Illinois Avenue,Nashville,TN,37209,f9bG3Qa9VpXxsvrD
9,8821 West Myrtle Avenue,Glendale,AZ,85305,3YrNJHT2B0g82WZL
10,2203 7th Street Road,Louisville,KY,40208,qGOztrvFqigL3ElD
11,6463 Vrain Street,Arvada,CO,80003,d3T3qbE3d82xqTHE
12,87 Horseshoe Drive,West Windsor,VT,05037,nd7NEbmHEQnmKfDN
13,60 Desousa Drive,Manchester,CT,06040,FUZETpxVMgTRwWH7
14,4 Old Colony Way,Yarmouth,MA,02664,muMXwTPZUhzo994x
15,314 South 17th Street,Nashville,TN,37206,QQGrg3rq33ZI4AFj
16,1649 Timberridge Court,Fayetteville,AR,72704,wIKWcXLKPJPuNl1u
17,5461 West Shades Valley Drive,Montgomery,AL,36108,jbV9PBBi4a8pYc2I
18,629 Debbie Drive,Nashville,TN,37076,6rMEUwrVJnk5WuFN
19,22572 Toreador Drive,Salinas,CA,93908,kmz75FHq3FQ7N2P5
20,3034 Mica Street,Fayetteville,AR,72704,6QhAfm1IfpjadJEW
21,3729 East Mission Boulevard,Fayetteville,AR,72703,8OhlAUeJ7fgO3Ndp
22,5114 Greentree Drive,Nashville,TN,37211,nlPalXCjOwY91Oot
23,3466 Southview Avenue,Montgomery,AL,36111,y7z8oCHV9xKbHFR6
24,1513 Cathy Street,Savannah,GA,31415,ENgTi5LairY3N6rg
25,600 West 19th Avenue,Anchorage,AK,99503,urElQL4qFfMjVCjJ
26,1208 Elkader Court North,Nashville,TN,37013,45Rx5uaHrsgonGsY
27,210 Green Road,Manchester,CT,06042,1fA1ERGWny4Yfj2q
28,49548 Road 200,O'Neals,CA,93645,ne7aqac50TnSAAsp
29,81 Seaton Place Northwest,Washington,DC,20001,GDJW8HRElzx0O4mP
30,1267 Martin Street,Nashville,TN,37203,iHMQfynKiReyulFH
31,7431 Candace Way,Louisville,KY,40214,iQkrpsa4IXw8PZtH
32,1407 Walden Court,Crofton,MD,21114,as08UbsiO3z2y8dq
33,5906 Milton Avenue,Deale,MD,20751,hi4ZYPZ23bMrocrD
34,74 Springfield Street,Agawam,MA,01001,3RyU3OSAF1MbOyD1
35,2905 Stonebridge Court,Norman,OK,73071,NX9FNMWXv63uDj2m
36,20930 Todd Valley Road,Foresthill,CA,95631,Wwux73g6euRAuVwg
37,5928 West Mauna Loa Lane,Glendale,AZ,85306,yaH46zHCfvJas1VM
38,802 Madison Street Northwest,Washington,DC,20011,ALo4H3QUAQIAMRz2
39,2811 Battery Place Northwest,Washington,DC,20016,LU1ctfQ56kmXLT0x
40,210 Lacross Lane,Westmore,VT,05860,tNTg5oah9dv6qzd7
41,2010 Rising Hill Drive,Norman,OK,73071,5WiJHlGBoakqCy1q
42,450 Kinhawk Drive,Nashville,TN,37211,CsMx45APXyHsnPIE
43,131 Westerly Street,Manchester,CT,06042,nrI3FO4rRQXWlXhz
44,308 Woodleaf Court,Glen Burnie,MD,21061,nQ6GHWCMZ9f6TxCZ
45,8502 Madrone Avenue,Louisville,KY,40258,cKoGkghvNfc8HOcf
46,23 Sable Run Lane,Methuen,MA,01844,Rx9YpH2Evl3EAzVf
47,716 Waller Road,Brentwood,TN,37027,axH5WFFNC6GkVTNP
48,416 McIver Street,Nashville,TN,37211,QbG5VafwzK437QfX
49,1508 Massachusetts Avenue Southeast,Washington,DC,20003,0vHMneaF8CLHuGDC
50,5615 West Villa Maria Drive,Glendale,AZ,85308,AbdqxkL7pEcmcFEj
51,3162 Martin Luther King Junior Boulevard,Fayetteville,AR,72704,AErN34PMjRk7wZMk
52,5306 Ritchie Highway,Baltimore,MD,21225,Suze2pXR73Gx3cw6
53,109 Summit Street,Burlington,VT,05401,7AcjaIMKPOx9vHh0
54,816 West 19th Avenue,Anchorage,AK,99503,YdTqKKstyEtpgkcg
55,172 Alburg Springs Road,Alburgh,VT,05440,J6hIDYqNqgVQbPxU
56,159 Downey Drive,Manchester,CT,06040,wmnt8NcNBGaDgd8R
57,125 John Street,Santa Cruz,CA,95060,ILruyvSEUKR49jqH
58,1101 Lotus Avenue,Glen Burnie,MD,21061,bEOf67clXfD2NFZM
59,8376 Albacore Drive,Pasadena,MD,21122,unQ5i4iRkzKFw6J3
60,491 Arabian Way,Grand Junction,CO,81504,4blJHiOj5Sj3zIjU
61,12245 West 71st Place,Arvada,CO,80004,hcZYOFBwagQo1fk9
62,80 North East Street,Holyoke,MA,01040,zKWp7qmBiW0Ps4xa
63,4695 East Huntsville Road,Fayetteville,AR,72701,aCJ8CZTFcSzMsCCo
64,310 Timrod Road,Manchester,CT,06040,TAy8j7oSCIgnq6Xy
65,1364 Capri Drive,Panama City,FL,32405,FIj7ULKt2nOPM3jV
66,132 Laurel Green Court,Savannah,GA,31419,niGtwuq9JTk1zcfi
67,6657 West Rose Garden Lane,Glendale,AZ,85308,kDY8iHtFaV7gctGK
68,519 West 75th Avenue,Anchorage,AK,99518,mVqYk5gSvfgkdjzK
69,31353 Santa Elena Way,Union City,CA,94587,ohhaVcfcso9rMElR
70,8398 West Denton Lane,Glendale,AZ,85305,WZGpcLVbg8CfnEV9
71,700 Winston Place,Anchorage,AK,99504,4t5RbmF4eQfuEakG
72,232 Maine Avenue,Panama City,FL,32401,g3wpuglXLMznhNhJ
73,1 Kempf Drive,Easton,MA,02375,FtyGolpqn38b9msR
74,5811 Crossings Boulevard,Nashville,TN,37013,zu6VpqyIpql0VNRr
75,5108 Franklin Street,Savannah,GA,31405,KdOUAFMwgBA5IFv1
76,913 Fallview Trail,Nashville,TN,37211,7EQ4lKKLtr4qtbXv
77,130 Old Route 103,Chester,VT,05143,KksbWe6qbsZo5KAQ
78,10826 Pointe Royal Drive,Bakersfield,CA,93311,jMtnvDORFPvUKkwK
79,74 Ranch Drive,Montgomery,AL,36109,5OjwJ6eDkWe5Yls7
80,6601 West Ocotillo Road,Glendale,AZ,85301,9eDxoAB7GxtXEq8W
81,19416 Barclay Road,Castro Valley,CA,94546,OP9lQTrOxC7ABBnO
82,1347 Blackwalnut Court,Annapolis,MD,21403,JFjXfzeSkX3jStwu
83,1770 Colony Way,Fayetteville,AR,72704,ZqXx97PZatJTWg4o
84,165 Saint John Street,Manchester,CT,06040,z2JIwAt93Fjdltkl
85,2409 Research Boulevard,Fort Collins,CO,80526,WPFUkvhUFEm7d2oa
86,1903 Bashford Manor Lane,Louisville,KY,40218,nshTbXVfzxMQr6eV
87,8315 Surf Drive,Panama City Beach,FL,32408,YpbY7H4k5Yl5MsAA
88,3301 Old Muldoon Road,Anchorage,AK,99504,cyhPArz49x3rtpft
89,8800 Cordell Circle,Anchorage,AK,99502,iyhKEZKcZx2te4xd
90,117 East Cook Avenue,Anchorage,AK,99501,akVn2zyQXtt9ACGd
91,6231 North 67th Avenue,Glendale,AZ,85301,CCVXo5yjKTB1J7Lo
92,8505 Waters Avenue,Savannah,GA,31406,9xwOZmsUvTx1dM1r
93,7 Underwood Place Northwest,Washington,DC,20012,Chdlo8ORbcSXbYKk
94,21950 Arnold Center Road,Carson,CA,90810,Gfj2MlvrCt3yBJUa
95,1427 South Carolina Avenue Southeast,Washington,DC,20003,9wEUHLAGTfokKzXB
96,1420 Turtleback Trail,Panama City,FL,32413,sFrj8bTKKoHkHFGL
97,6990 Pierson Street,Arvada,CO,80004,SQEFE282eu6GfxUl
98,376 North Williams Drive,Fayetteville,AR,72701,T6bdsoYvhxqgP5ej
99,3617 Menlo Court,Montgomery,AL,36116,X1OOSBaBbM7fPrsZ
100,711 Parker Street,East Longmeadow,MA,01028,NDx09dxQCR0xs7lc
101,8521 Crystal Street,Anchorage,AK,99502,Ro2CT52P2cmq6oEo
102,1622 Edgar D Nixon Avenue,Montgomery,AL,36104,yAvDC9DhgOWBYDES
103,1608 Gales Street Northeast,Washington,DC,20002,pVpSmyIPQ0C87qLF
104,122 East Hayes Street,Norman,OK,73069,lG6fARtZxnL1qOKq
105,5144 Cattail Court,Fayetteville,AR,72701,keICfmM2lNNtjGik
106,131 Kent Drive,Manchester,CT,06042,Ykl66XEQXO8Xsixw
107,2313 Vegas Avenue,Castro Valley,CA,94546,4ndDK7j0R5DFMtdJ
108,5420 Sunset Avenue,Panama City Beach,FL,32408,hNdOtusxybASkizM
109,242 North Ash Street,Fruita,CO,81521,5ip9VaK1ELRV33j8
110,38676 Greenwich Circle,Fremont,CA,94536,NeLkmVYFo3DbRDuF
111,2426 East Onyx Trail,Fayetteville,AR,72701,o1mCA3FIfw5aGe7T
112,110 Seaton Place Northwest,Washington,DC,20001,Z6HxLIKVbIMZftwh
113,5385 Iris Street,Arvada,CO,80002,I5QgvlkJ5o0jzpx0
114,5628 West Tonopah Drive,Glendale,AZ,85308,B8E2W8dkXt71wf42
115,65 Bay Drive,Annapolis,MD,21403,jwg5brvelVIA66CB
116,7401 North 61st Drive,Glendale,AZ,85301,rDom74nfty2IutGc
117,2209 June Drive,Nashville,TN,37214,SGgkViHEOVWboFtS
118,1840 Nobel Place,Louisville,KY,40216,j4zllRKKkXalvgHf
119,2622 Martin Luther King Junior Boulevard,Fayetteville,AR,72704,1bGv2Ji6H5a7iDFw
120,4 Glen Circle,Glen Burnie,MD,21060,k1jFDwC2t70pfPrC
121,7529 West 72nd Avenue,Arvada,CO,80003,09lu6OTDYgsY36Q5
122,10996 Largo Drive,Savannah,GA,31419,wlBeI4U3yYZx1FSc
123,2027 North Shannon Drive,Fayetteville,AR,72703,5OYqXGSALBCmznnh
124,154 Boca Lagoon Drive,Panama City Beach,FL,32408,vkivzEmozorepmo3
125,3311 Wiley Post Loop,Anchorage,AK,99517,WBFkIccb8FzaxQjA
126,5055 West 58th Avenue,Arvada,CO,80002,mnSYm3jjhHnRDgoI
127,3228 Chettenham Drive,Rancho Cordova,CA,95670,LBJosOFfRgORvfZx
128,1901 North Midwest Boulevard,Edmond,OK,73034,7dYgUIdQQAc58sHG
129,1536 North Main Street,Salinas,CA,93906,erTbz2cr1IQTcY11
130,33 Linscott Road,Hingham,MA,02043,EAl4JvW2YL8lPqcp
131,1732 27th Avenue,Oakland,CA,94601,asRrOi1yBMALA4dd
132,22 Gallatin Street Northeast,Washington,DC,20011,NxPMtSAjiEUkpkVL
133,8125 Glynnwood Drive,Montgomery,AL,36117,ldxZ2ctUFCol181U
134,2139 Glynnwood Drive,Savannah,GA,31404,kFSoLLwKrey3fjg1
135,14 School Street,Medway,MA,02053,iDRddeNcOUafkq8J
136,264 Crest Drive,Soldotna,AK,99669,dSeTjEs0n7mt1B55
137,307 Joel Street,Pooler,GA,31322,ZXt2i7L66Ocyns1z
138,188 River Road,Essex,VT,05452,WcLLGBSzNo2cVBhS
139,1643 Oxford Street,Berkeley,CA,94709,V7wEO8mZRviPlHg5
140,5545 Saddlewood Lane,Brentwood,TN,37027,CkGDHR0yv9DNjMzF
141,26466 Mockingbird Lane,Hayward,CA,94544,PiPyhMcAp6RfcPC6
142,4840 Reservoir Road Northwest,Washington,DC,20007,3vCEjGAXJwjcvYNM
143,599 Cambridge Street,Cambridge,MA,02141,wsm0nZsbakXSeYXI
144,584 Rural Hill Road,Nashville,TN,37217,YDTTAexsrUhiexkb
145,10262 West 59th Avenue,Arvada,CO,80004,CLNy3mFrnzsjmIAr
146,945 South 5th Street,Louisville,KY,40203,6uiYXNjl9shithDm
147,2543 The Meadows,Montgomery,AL,36116,Z6NBAIHO1QPSi324
148,153 Atlantic Avenue,Salisbury,MA,01952,qnAqhwwAHbf0CzXM
149,5722 8th Street Northwest,Washington,DC,20011,pM0zArQepPioFt2W
150,8700 Seaton Boulevard,Montgomery,AL,36116,3yyxtiTfWlnvlOrA
151,1004 Bellflower Street,Livermore,CA,94551,RiHkY8lCzhlMrxGy
152,4738 Mallard Common,Fremont,CA,94555,LGFgghVexjousvKi
153,875 Latouche Street,Anchorage,AK,99501,UrOBwQp1IkrPpdao
154,4940 Fuller Road,Montgomery,AL,36110,cGQMWgvd36lUNpfe
155,5754 Belleau Drive,Montgomery,AL,36117,r4i7d7jJ6BdsYc8U
156,1403 Lincoln Street,Savannah,GA,31401,QvSie6ie5z0iMxBo
157,140 South Hill Avenue,Fayetteville,AR,72701,UGSwLMCLeaKuf3kZ
158,642 South 2nd Street,Louisville,KY,40202,1DZc1GLuPou3ZhvT
159,6473 Zephyr Street,Arvada,CO,80004,WAcEInPCK8O9RrJO
160,4250 North Valley Lake Drive,Fayetteville,AR,72703,0yR0u5Fl5cxEu8Wl
161,565 North Lakeshore Drive,Panama City Beach,FL,32413,ZWuJFYw9shTEaEsR
162,5514 West Wedington Drive,Fayetteville,AR,72704,MYsYwCZkTllvBxg5
163,1909 Wainwright Avenue,Panama City,FL,32405,BQ1N3kNqcS0xsp8G
164,4525 West Frier Drive,Glendale,AZ,85301,BQbwxJXBZChJBcq7
165,201 West Montgomery Cross Road,Savannah,GA,31406,QM6iAGqw0lpvsCtM
166,915 Heath Drive,Montgomery,AL,36108,louJXSQI4272FThR
167,95 Briarwood Drive,Manchester,CT,06040,A1t2nN65OYHuTD89
168,69 Washington Street,Manchester,CT,06042,OS0y4DK6XSNUhFEf
169,2900 North Western Avenue,Edmond,OK,73012,C7jnkdUZzflz7Ypp
170,7841 West Kristal Way,Glendale,AZ,85308,jKnXk020mQXO87jG
171,361 Parmley Lane,Nashville,TN,37207,T40edOLbq7xrmiCO
172,6120 Southeast 84th Street,Oklahoma City,OK,73135,QR8jmm8d0rNK3ZcG
173,9428 North 65th Drive,Glendale,AZ,85302,C6Uxscp6ds1rgvRn
174,11 Meeting Place Circle,Boxford,MA,01921,S5bODEv9pyz4rD7M
175,4438 Maine Avenue,Baldwin Park,CA,91706,ZFG7pARofRn2JAm2
176,65 Jones Lane,Montevallo,AL,35115,IzzqIHMMnoiY3MA8
177,3140 Commander Drive,Louisville,KY,40220,WbPsYpTMVbi8i6tJ
178,107 Guaymas Place,Davis,CA,95616,CxXSrDK7aYOBkS5y
179,6114 West Glenn Drive,Glendale,AZ,85301,2URfUOlgyNsAgyz2
180,622 Thomas Street,Woodland,CA,95776,KK858wbi2vMhIT4s
181,127 Grand Heron Drive,Panama City,FL,32407,SDPwimr6YVpKCMTN
182,3504 East 16th Avenue,Anchorage,AK,99508,1uBx7lbn1yCUiu3t
183,1230 Stafford Drive,Montgomery,AL,36117,nbaDH11Fz9wAkeMG
184,6007 Yarrow Street,Arvada,CO,80004,h0RuNFMbeBXjJMKv
185,632 Belmar Drive,Edmond,OK,73025,v4qUkpHguX2kvYBf
186,1515 Chandlee Avenue,Panama City,FL,32405,aoFLyBGQJyk5wivI
187,10632 Admiral Court,Oklahoma City,OK,73162,i3s1XIFJdpSSCz8r
188,11655 West 81st Avenue,Arvada,CO,80005,OQAYav9Jp2k2Emd9
189,3500 Blanchard Drive Southwest,Washington,DC,20032,Mtu7j2ottMmEa35A
190,2755 Country Drive,Fremont,CA,94536,8zDh0HVtTkatgiCt
191,1850 Berryhill Place,Montgomery,AL,36117,9TL8IKCNhPiivsCg
192,58 North U.S.A Drive,Fayetteville,AR,72701,lApntepC16gK11KB
193,8785 Ellis Court,Arvada,CO,80005,izivO9AjC3haigVK
194,1636 Briarview Court,Severn,MD,21144,oom6IBfl9iOxyZHh
195,12 Knox Street,Manchester,CT,06040,vEdz6mEbXDnvdVVW
196,425 Middle Turnpike East,Manchester,CT,06040,ZPWAzAvouWPimbzG
197,2017 North Hartford Drive,Fayetteville,AR,72701,N20Vh0LaDYZoHcZk
198,5900 Upland Road,Brooklyn Park,MD,21225,pfldnyYfz6JSIZCr
199,9331 Edison Road,Lithia,FL,33547,uN6Cl9DUNgFZAqgG
200,1810 Orchard Place,Anchorage,AK,99502,MetFewK99UEr1iVj
201,145 Grau Drive,Fremont,CA,94536,hIplDLA0PxPRwWKD
202,3959 Fairlands Drive,Pleasanton,CA,94588,zTbtBtgwZou61aIO
203,3613 East 18th Avenue,Anchorage,AK,99508,9zHTzz9TTNDZyKSm
204,1275 South Holland Drive,Fayetteville,AR,72704,oYUCusVtchEsXUkF
205,109 Cambridge Station Road,Louisville,KY,40223,uxGqMLiClUh3ITMy
206,2107 Elfen Glen,Van Buren,AR,72956,4Ups6JADjIExir0h
207,8522 Ingalls Circle,Arvada,CO,80003,W798Vy4bxebXAYUR
208,1809 Cedar Drive,Severn,MD,21144,Q6AzOojpkEQDtNwD
209,1376 Oakland Avenue,Fayetteville,AR,72703,dNJYQ0J11WlM4Sxf
210,4306 Bylsma Circle,Panama City,FL,32404,OFLXNmnYmUrNhX60
211,233 Buckland Hills Drive,Manchester,CT,06042,359htjMdPvPDbczj
212,7701 Southwest 104th Street,Oklahoma City,OK,73169,m13JzzwkHK68QO0b
213,14003 Crossbranch Court,Louisville,KY,40245,knbQAdqqZUQBPxS3
214,19590 East Batavia Drive,Aurora,CO,80011,ascu4GuNPEfFpCRv
215,6424 Simms Street,Arvada,CO,80004,TCGTA2YGFbHCytCZ
216,718 Dutchmans Court,Nashville,TN,37076,0RwmpUvfHD18oTPL
217,8496 Isles Court,Pasadena,MD,21122,gZuNw38MUn74mmde
218,100 East Joyce Boulevard,Fayetteville,AR,72703,4TtH4iX2Ye3mysg5
219,9036 Calico Court,Hesperia,CA,92344,pJvzqq4TfhHqDnmQ
220,2723 East Joyce Boulevard,Fayetteville,AR,72703,q9Z3o9Ry37EXcVTI
221,90 Via Verde,San Lorenzo,CA,94580,saQMWavbh5a9eYtn
222,1015 Castle Road,Edmond,OK,73034,4MIE1sBTQctjQhdU
223,2787 West Blackstone Crossing,Fayetteville,AR,72704,PjgeLZxn2R2wLgTi
224,3555 Alamosa Drive,Anchorage,AK,99502,tja7CcmPEKaB1h9H
225,6231 North 59th Avenue,Glendale,AZ,85301,ONHLJETn0dvbhJlD
226,311 South Panama Street,Montgomery,AL,36107,saNEgCCzb2Zz4yTn
227,3313 Daisy Trail,Nashville,TN,37013,XCkoOWPjQKFCBd0Y
228,5436 Dorbrandt Street,Anchorage,AK,99518,KaZrwvvhSgPcDOyE
229,553 South Arlington Road,Orange,CA,92869,cGjcCmFbbd19xezV
230,615 Q Street Northwest,Washington,DC,20001,7EZJ4bRxyXGNZ0pf
231,457 Mountain Village Boulevard,Mountain Village,CO,81435,YYyizcxcRYIwvnYj
232,144 Lauderdale Street,Montgomery,AL,36116,pEq1albxoliFneqh
233,2 Ambelwood Way,Savannah,GA,31411,USSTlYkWLywFV8EW
234,4113 Holiday Drive,Panama City,FL,32408,JBq9hxE64u1DepE2
235,2001 Van Hoose Drive,Fayetteville,AR,72701,3mCinY70xvoLRm4N
236,9457 Winfield Place,Montgomery,AL,36117,UDZLOE9ogpzIeyC9
237,1120 Mitchell Young Road,Montgomery,AL,36108,7V37eh8CPLXJ2bFI
238,12816 West 65th Way,Arvada,CO,80004,2oGLibFtn0FUwNjR
239,10 Erick Road,Mansfield,MA,02048,viEm9lQzvLrjlvpb
240,481 East Redbud Lane,Fayetteville,AR,72703,wLFy9l6qApZG2Mk7
241,320 Northwest 22nd Street,Oklahoma City,OK,73103,gcKTPuT6SPzcJaPO
242,33 South Hill Avenue,Fayetteville,AR,72701,Eh8e9CxOj2Zf1QpP
243,355 Gillette Road,Nashville,TN,37211,ZqvwIWxGIHSv4W94
244,151 Main Street,Savannah,GA,31408,GaxQHyy9Mi95Tx1M
245,545 Tracey Drive,Panama City,FL,32404,lqpBBTWdCfp0gFB3
246,736 Sicard Street Southeast,Washington,DC,20003,SY47Ftts3SXQtmfi
247,6214 Herzog Street,Oakland,CA,94608,Xohka3yEYsFpYfAj
248,1160 North College Avenue,Fayetteville,AR,72703,pjfZQss11XMRFCFI
249,5843 West McLellan Road,Glendale,AZ,85301,j4dcz5OLZ8yO0lM1
250,1452 55th Avenue,Oakland,CA,94621,MLPqbNZWJ7YdgPDi
251,4255 Tanager Common,Fremont,CA,94555,FTSj9otioRBwBf12
252,13426 West Rovey Avenue,Litchfield Park,AZ,85340,V7VDI4OPV8aeucPP
253,195 Nursery Street,Springfield,MA,01104,WMeHuyisD2NmSQEo
254,126 Marjorie Lane,Manchester,CT,06042,f1C54i9wbMAmufAF
255,22 Charnock Street,Beverly,MA,01915,16xnYj5Sg9RC3jer
256,817 25th Street Northwest,Washington,DC,20037,FQyDLPwpH21foPJb
257,2552 Massachusetts Avenue Northwest,Washington,DC,20008,N4Lxwd06aEmrgUuE
258,1711 Lore Road,Anchorage,AK,99507,p9uNNUuxLrujgSHD
259,19091 Northeast 23rd Street,Harrah,OK,73045,Mm6E2VGhCYPPM1qS
260,8318 North 57th Drive,Glendale,AZ,85302,Ri8sPbSzp31A4nrK
261,7256 West 84th Way,Arvada,CO,80003,sFAKT1qGFerxiB7r
262,706 Seagrove Road,Glen Burnie,MD,21060,p2FF97JIP9JXJTe0
263,2318 Camryns Crossing,Panama City,FL,32405,Tp6O5laB1DBF9F4f
264,968 Virginia Avenue,Olivehurst,CA,95961,o1lq02Pn8RdpcaBQ
265,416 South University Boulevard,Norman,OK,73069,SZlGONcxJgEiMmUW
266,137 Gazebo East Drive,Montgomery,AL,36117,hxXVIuKAhaF2CtYQ
267,10723 Colonial Woods Court,Louisville,KY,40223,2dbJC9g0wpZlTm1v
268,119 Matthew Lane,Nashville,TN,37215,jAzxZtNjTd8SaDTr
269,3142 West Finger Road,Fayetteville,AR,72701,ga06lDBNgzcbyFiv
270,4 Elm Street,Windsor,VT,05089,9mDPUTfKD1M468Z2
271,78 School Street,Woburn,MA,01801,8tBZi7MShAwynS2Z
272,19020 North 68th Avenue,Glendale,AZ,85308,BTyWixvlQIcYpVNt
273,2849 Quail Drive,Fayetteville,AR,72704,RRdWT9nM64h2j8fD
274,2456 22nd Avenue,Greeley,CO,80631,ZDTtUKiox3JjdPUT
275,200 Boulder Road,Manchester,CT,06040,bn1I6TeZhHH3WLYQ
276,11150 Sun Valley Drive,Oakland,CA,94605,gDja0A4Xvgo5JYiu
277,505 Southeast 32nd Street,Oklahoma City,OK,73129,iMDpjmMNVw66zvyB
278,1025 West 19th Street,Panama City,FL,32405,rsLEZpyYKFh7AQoT
279,6725 Pamela Court,Montgomery,AL,36116,HIoFTjYsEBcMRlT1
280,4714 Narrow Lane Road,Montgomery,AL,36116,y4VUH3x8ZwLTh6BC
281,11 Proctor Circle,Peabody,MA,01960,jUaET9vAglmN3pzn
282,10508 Kovats Court,Louisville,KY,40223,kFc0jUkFK7xzs6XU
283,3179 18th Street Northwest,Washington,DC,20010,TJiwKISbabKWcKcW
284,3194 Bladensburg Road Northeast,Washington,DC,20018,ewMKRUrs4URjDxYD
285,260 Rio Del Mar Boulevard,Aptos,CA,95003,TUdS0GFrN9UsF1TR
286,1040 West 27th Avenue,Anchorage,AK,99503,ws1VTM9haSTs1xwE
287,42 Lake Lane,Westmore,VT,05860,McfJtXCr3w3T2nnw
288,3718 Bay Tree Road,Lynn Haven,FL,32444,WzGGN0u0epBm9QPh
289,3408 Bellisima Place,Louisville,KY,40245,kwCsusCXDqu0oAJy
290,4109 General Bate Drive,Nashville,TN,37204,qPBxId61lTu4szVR
291,5329 A Street,Greeley,CO,80634,JMlCXNmMpw5uPOeL
292,88 Shute Street,Everett,MA,02149,P3qTG1crlNec8KTC
293,480 Keene Road,Walden,VT,05836,YKY8ri1a5A8EaEOW
294,4 Cutting Avenue,Worcester,MA,01606,7tXVdAQ8mLXbRg3t
295,275 South 40th Street,Boulder,CO,80305,d8ZGxikRjSYA7mkb
296,1189 Northwest End Avenue,Fayetteville,AR,72703,ZLW2OEczG4oUa09O
297,25 Cliffside Drive,Manchester,CT,06042,lwJBcH1Likw12Lrs
298,2515 60th Avenue,Oakland,CA,94605,YOrKW8kwS2bF6uEJ
299,2057 Lucas Street,Montgomery,AL,36107,NQv8DQVCSW7h4Rpz
300,386 Daniels Road,New Haven,VT,05472,ukTQjYxOMGDKEoyh
301,9805 Meadow Vale Drive,Louisville,KY,40242,Rqm9R7h1ZZaUxQpt
302,8 Village Circle,Randolph,VT,05060,IZZDuRviGHGwJIpO
303,1011 San Jose Street,San Leandro,CA,94577,7SxfQjlaZATwR19d
304,2505 Walker Lane,Nashville,TN,37207,8HiWSfpByIZqb4n3
305,11225 West 79th Drive,Arvada,CO,80005,2qdhpOuEhUZnst83
306,1907 18th Avenue South,Nashville,TN,37212,e2ihKV0t27gAOKGe
307,16 Conway Street,Shelburne Falls,MA,01370,WCls25SbNnoHU5gF
308,20375 Wisteria Street,Castro Valley,CA,94546,A2TXQCSVaaRBiRJE
309,6408 Fern Crest Road,Louisville,KY,40291,r2gVG1W6J2xUlLqs
310,175 Creek Road,Castleton,VT,05735,AtgGqx9Hq8Uakiip
311,2531 Prestwick Avenue,Concord,CA,94519,tT8UTsq0aJV5NmxR
312,1002 Highland Avenue,Louisville,KY,40204,TG9dCwVdkFa7uD2A
313,2927 Leatherwood Drive,Nashville,TN,37214,LmyBL8dsN3AJvHJ5
314,8467 Chase Drive,Arvada,CO,80003,cJ8zLdvKgjB6kuJK
315,8556 Nelson Court,Arvada,CO,80005,Kf43fYmJqceQJlom
316,122 Summer Street,Medford,MA,02155,NsnfJMBAjWgBLEXA
317,12061 Johns Road,Anchorage,AK,99515,4CwGXp9Zbp5sgJxj
318,8358 WB&A Road,Severn,MD,21144,g4uOKKnzZtjz0XOd
319,43 Henderson Avenue,Savannah,GA,31406,slXbeHloavUQtk7B
320,347 Brewer Drive,Nashville,TN,37211,2MHedpdj3JX0RQ1R
321,2765 North Barcelona Avenue,Fayetteville,AR,72703,fEZr2nvdgzF9156W
322,5311 Chenoweth Park Lane,Louisville,KY,40291,NYJAHrHpbjwLMdhE
323,6398 Jellison Way,Arvada,CO,80004,34D0ME5GzTwR7bIp
324,604 Northwest 118th Street,Oklahoma City,OK,73114,5mjtq1OU0011VpXB
325,37 Rushforde Drive,Manchester,CT,06040,YfXSQz8zocQglRrg
326,5434 West Beck Lane,Glendale,AZ,85306,j1op9ZJ6fWGXGR1l
327,1516 Ringe Drive,Severn,MD,21144,ouVR6IAhAnKTWWfW
328,3701 Lake Towne Drive,Nashville,TN,37013,MRm6g5KsQ2edI88N
329,20250 North 67th Avenue,Glendale,AZ,85308,4dLqM5WlRYFATdY6
330,62 Prospect Avenue,Quincy,MA,02170,KcbJG8dbQCxjDCiy
331,25 Morton Street,Quincy,MA,02169,F3fd1HCntDP2Qvsn
332,8202 4 Winds Drive,Lyndon,KY,40222,1qlUjsQRzgfvV8Dx
333,513 Habberton Road,Fayetteville,AR,72703,gEhyHP0nhKW0ULLb
334,1960 Sigfrid Court,Annapolis,MD,21401,kCdfXyVLMxb6jBUZ
335,663 Chesapeake Way,Fayetteville,AR,72701,uAhxVeDIQWU74eus
336,3354 Wilmington Road,Montgomery,AL,36105,KxKwbnXh0y9qB5IM
337,8529 Old Harding Lane,Nashville,TN,37221,QZ0Dd1fCzlQmSF48
338,22219 Panama City Beach Parkway,Panama City Beach,FL,32413,N9yIrKYUlPSV3Xvo
339,37 East Broad Street,Savannah,GA,31401,33MBuFgzkOY4BnJd
340,1309 Columbia Road Northwest,Washington,DC,20009,XLYmhRDXxiQPb7Ip
341,1211 Castine Court,Pasadena,MD,21122,ynrRllhWLb6csz5j
342,906 West Berry Street,Fayetteville,AR,72701,orsoQf9Z9bg99cNY
343,341 Oakland Street,Manchester,CT,06042,TUDtHhBuw3X14b93
344,60 Downey Drive,Manchester,CT,06040,vEwGqoulaaDsi1Vv
345,3770 North Front Street,Fayetteville,AR,72703,IAJUGfgHqJ5SqXkc
346,25 Church Street,Pittsfield,MA,01201,WP4zUqN1mP6TjQ7y
347,6578 Marauder Drive,Nashville,TN,37209,RkBj7KVu2TYfq0Ne
348,2747 68th Avenue,Oakland,CA,94605,g2JMHzBYJki1BIfG
349,35 Keach Avenue,Worcester,MA,01607,C3HH8L6KAroTexSZ
350,1822 North Grand Avenue,Pueblo,CO,81003,6KaHFXapxc9ESica
351,1809 U.S. 80,Savannah,GA,31408,fJ80cWgESo9MSWq6
352,5065 North 54th Avenue,Glendale,AZ,85301,NnjeIv2fOLc6KMF1
353,1261 Steamboat Drive,Fayetteville,AR,72704,GrBALL9IXSCjIbcJ
354,1695 Archer Street,Savannah,GA,31405,4173BvsV83OiFG8W
355,3904 October Woods Drive,Nashville,TN,37013,WtLRDLEGEFmpKq49
356,1223 Delaware Avenue,Deale,MD,20733,Y1Q1ZwIGcUcgjQRL
357,10383 Eagle River Lane,Anchorage,AK,99577,nciUdke8mkQGUvn6
358,1314 89th Avenue,Oakland,CA,94621,f0er8isRHTx5ITI4
359,21 Longview Bluff Drive East,Savannah,GA,31419,L08ZTmFes425Z4FL
360,1689 Fisher Pond Road,Saint Albans City,VT,05478,rg0rU0j9fyOiMbsK
361,9920 West 81st Avenue,Arvada,CO,80005,IXz1oVmC2sS0fMz9
362,2732 Rosedale Place,Nashville,TN,37211,R8yfI0KpIY5oAicf
363,10881 Northforde Drive,Cupertino,CA,95014,Qzac5lUQprmQu8Sy
364,926 Mill Court,Savannah,GA,31419,57acqL4Re5ENonyz
365,7550 Kline Drive,Arvada,CO,80005,LBPZKFZNRn3N1l70
366,5688 Johnson Court,Arvada,CO,80002,f9V6rXjVNOn0z46a
367,4439 Gale Street,Livermore,CA,94550,pCbjQC3MDza0psC4
368,6450 West Bethany Home Road,Glendale,AZ,85301,AKcLTGINsypoQ68Q
369,2931 Shady Oaks Drive,Evans,CO,80620,WegEkyYkACAxRR7X
370,6451 West Bell Road,Glendale,AZ,85308,PNREOhNOUCpQ7KsX
371,644 West Maple Street,Fayetteville,AR,72701,9LDuhPNMxxy8AC8W
372,1219 North Storer Avenue,Fayetteville,AR,72703,zI5PL9GAwMBXoiFy
373,152 Holly Court,Mountain View,CA,94043,KgIqpyQqMR2uyU11
374,6086 Kennedy Drive,Fayetteville,AR,72704,WUNhtv6aawo4KlAH
375,2300 Deer Path Circle,Hurstbourne Acres,KY,40220,6CimuiwVXoxRB8Od
376,802 East 37th Street,Savannah,GA,31401,3gcN70yJKnoUUsGU
377,5821 Taft Street,Arvada,CO,80004,LShlL48yCzXZ3anh
378,188 Saint Matthews Avenue,Louisville,KY,40207,0VAgZpEQcX3uYqbk
379,68 Hampstead Place,Athol,MA,01331,zUDPpgxtAJJ7sFD7
380,3164 West Woodfield Way,Fayetteville,AR,72704,KLdR2vZLHhPstwqZ
381,7998 Chase Circle,Arvada,CO,80003,UvKHaPU15xPX1EW6
382,1797 Pasatiempo Drive,Chico,CA,95928,BXf0w4ISv0BFklIc
383,3722 Kisling Loop,Tyndall Air Force Base,FL,32403,uGM6zLHw45ya3JyK
384,429 Patterson Street,Nashville,TN,37211,Vqe1XO8H5HTwmAFp
385,6140 Fenton Street,Arvada,CO,80003,h9qMIcL6yesKCZvk
386,7404 West Crest Lane,Glendale,AZ,85310,BgptTgtkKoVUbTQ9
387,7841 North 59th Lane,Glendale,AZ,85301,lUZVnWHqGmagyWRl
388,8043 Cranberry Street,Anchorage,AK,99502,UumgKYXP8lWbL1Sd
389,173 Spruce Street,Manchester,CT,06040,pN7QBvjQoHBiZSyS
390,4712 Cherokee Heights Road,Panama City,FL,32404,WCJo1BhIOmHK9ubb
391,915 Sacramento Street,Bakersfield,CA,93305,RDexDoBYVxbSClM2
392,317 Windsor Road,Savannah,GA,31419,y6lpIyekSp4vn1Mm
393,1332 Maple Street,Montgomery,AL,36108,jyHplqNr98xMFApL
394,4709 Blagden Terrace Northwest,Washington,DC,20011,pVnczCCBWDz0M58L
395,5102 Ander Drive,Brentwood,TN,37027,QTuOJ9GfN6mAMqvM
396,6754 Field Street,Arvada,CO,80004,yiWCN266WLpW1wHX
397,2347 Glen Eagle Drive,Northfield,KY,40222,SJArK8oUFWOfvU7b
398,1613 Maple Timber Court,Nashville,TN,37013,AiGiV7DNig89StXa
399,269 Park Street,North Reading,MA,01864,aK0uWkmkh5RGk0cs
400,6444 North 67th Avenue,Glendale,AZ,85301,sTRqXaiZ8QTpCfqL
401,11 Pine Point Road,Duxbury,MA,02332,ImZxEuI58YeZ7bWD
402,4136 East Virginia Lane,Montgomery,AL,36116,9N51G8oj6R8eiLGz
403,5740 North 59th Avenue,Glendale,AZ,85301,DCq5tVOh86tJrrEk
404,95 Central Street,Springfield,MA,01105,DL8n6n5H0XpNAKgz
405,74 Heard Street,Chelsea,MA,02150,5ZoXdmZuWWmJNUk0
406,2500 Snowdoun Chambers Road,Montgomery,AL,36105,2e4sfFLTXZzcgvbo
407,429 Dennison Ridge Drive,Manchester,CT,06040,sc0JXoUYkQF3WaB6
408,1208 Lindenwood Drive,Panama City,FL,32405,NNSq6JxwkKidFneQ
409,7609 Doris Place,Oklahoma City,OK,73162,eqRqCgkRcxKNNY9A
410,1915 Southeast 29th Street,Oklahoma City,OK,73129,7U2zphUncReFxUK1
411,212 Holiday Circle,Savannah,GA,31419,AMs5KjaXj4EpEWck
412,32 Amsden Street,Arlington,MA,02474,jYbVOZj4fn1wfIV3
413,4016 Doane Street,Fremont,CA,94538,SBWv3HthZvkjqbwn
414,8700 Lillington Circle,Montgomery,AL,36117,8GIusoR7lnnjcvLw
415,7720 Allison Street,Arvada,CO,80005,mnmCd9BrIFDEGMa7
416,17878 Front Beach Road,Panama City Beach,FL,32413,ZJEmjI9CRYMnQjqh
417,1328 Tuckerman Street Northwest,Washington,DC,20011,2KlW6wV5u3Z7yLnp
418,4600 East Huntsville Road,Fayetteville,AR,72701,yDMYAefiacFUY9XM
419,5038 North Cimarron Drive,Beverly Hills,FL,34465,UsRf5fANwlzVHEMF
420,1216 West Hill Street,Louisville,KY,40210,t4ZX6FZmjoB2WBXl
421,3033 Aubert Avenue,Louisville,KY,40206,DvJUTPbtViWypc33
422,17020 West 64th Drive,Arvada,CO,80007,wFwXcIhiEGwPZ9Vt
423,12420 West Montebello Avenue,Litchfield Park,AZ,85340,8kMC3cm7Gvt73RUP
424,2538 East 40th Plaza,Panama City,FL,32405,ciJbEC1SizCrAnS2
425,827 10th Street Northeast,Washington,DC,20002,xYh5BCxbzwGvEOTR
426,5912 North 48th Avenue,Glendale,AZ,85301,lde5mvAKUCKA1TLJ
427,37 Fieldside Drive,Groton,CT,06340,YII3T49NYTTcx2rZ
428,9176 Ellis Way,Arvada,CO,80005,rIhnuNWwVJWPywwx
429,5370 Business Park Drive,Montgomery,AL,36116,Ze7rwYarfW4XGJ0H
430,1612 Beech Street,Louisville,KY,40211,VvDWGOSuqt2DcfpY
431,8532 Ingalls Circle,Arvada,CO,80003,u0v3JRHXkuceTBWS
432,7941 Alpine View Circle,Anchorage,AK,99507,UqZG0eLXtsBpWO3a
433,8595 West 81st Drive,Arvada,CO,80005,VCUwORIqQgaHiD8o
434,4296 North Blossom Court,Fayetteville,AR,72703,g2o481euD0jIZB7p
435,1738 Annabellas Drive,Panama City Beach,FL,32407,rFzLmUxnQh0lVL0v
436,3215 Madsen Street,Hayward,CA,94541,mHq3aZmyYRQIkAK5
437,4 Village Lake Drive,Fayetteville,AR,72703,NnRxZebgZZfdICSI
438,86 Russell Street,Manchester,CT,06040,ooPe2XFjvBZd5ZMD
439,570 Broadway,Lynnfield,MA,01940,E2mekW0xBDg5WjxI
440,1405 Monroe Street Northeast,Washington,DC,20017,AMHbAUwpxLJFtOnc
441,900 North Leverett Avenue,Fayetteville,AR,72701,k1GTd2CxEMhX8llp
442,222 Quince Street,San Diego,CA,92103,IGgKALkJ36GZhNV6
443,370 Wallace Road,Nashville,TN,37211,LZBgM7ckyXwcKygu
444,6672 Urban Court,Arvada,CO,80004,Gfz4WRcjF8AwtBER
445,516 Southwest 60th Terrace,Oklahoma City,OK,73139,R0i5Ws48ECEKrOcx
446,1513 Southeast 9th Street,Moore,OK,73160,T14Zubsv6XTdZV2L
447,154 Byrd Drive,Panama City,FL,32404,WmmYcAQ4ysAE8Ik2
448,1106 Homer Avenue,Savannah,GA,31405,miPVmDPvHXWf6GSL
449,1010 M Street Northwest,Washington,DC,20001,Y7XpRLlJCC2kX8fH
450,5420 Allison Street,Arvada,CO,80002,00pNKwlyBYVep3rO
451,20 Hacker Street,Worcester,MA,01603,sg2ogByEsdzjteIR
452,732 Kevin Court,Oakland,CA,94621,1c1cqA4Appj2HmK2
453,509 Franklin Street Northeast,Washington,DC,20017,ObvvnWaP88gNo3Bt
454,23 Whitcomb Street,Springfield,VT,05156,wA201lGt3uEc2ncb
455,3377 Sandstone Court,Pleasanton,CA,94588,z8bjD2kg7DyLjGmo
456,14 Huntington Street,Manchester,CT,06040,HVWyCZQz8MiNmMc7
457,2802 US Highway 98,Mexico Beach,FL,32456,gUmDjBPsLPgA7YUp
458,412 Virginia Avenue,Louisville,KY,40222,UHd7FhJD0mVnXYdI
459,1644 New Jersey Avenue Northwest,Washington,DC,20001,lbN8D3z88q4z88J3
460,832 51st Street Northeast,Washington,DC,20019,5pGc21fmyYsegBO7
461,894 Windmill Park Lane,Mountain View,CA,94043,XdlfkpuVrBimKaBT
462,9636 Morar Road,Panama City,FL,32409,XQpncQJRMqlfxT5o
463,9472 Noble Way,Arvada,CO,80007,W14uxnSFNhZNWQaI
464,618 Staley Avenue,Hayward,CA,94541,I9UtNdHG03PAHUWp
465,8704 Bayberry Place,Plantation,KY,40242,JPp4ee7QR2jKrpjD
466,2506 West Madison Street,Louisville,KY,40211,e7PVPnJrKge4k5Si
467,840 Inglewood Drive,West Sacramento,CA,95605,qQ0P7aL2J0Xg6wig
468,10 Dalry Lane,Savannah,GA,31419,VrotZRm5hSVcDwQh
469,3301 Nora Lane,Louisville,KY,40220,01oWRyLKuGPg8zoy
470,8304 Glaser Lane,Louisville,KY,40291,KLz1TD9ZceZEkorj
471,3720 West 86th Avenue,Anchorage,AK,99502,Cykx1yqNCxyN8l6P
472,3298 Chestnut Street Northwest,Washington,DC,20015,oqqzqo236lqXsmag
473,82 Fairfield Street,Manchester,CT,06040,fbi6B25XmiiEaSTN
474,3138 P Street Northwest,Washington,DC,20007,7n0OKVePk2k0YOxB
475,80 Locust Avenue,Worcester,MA,01604,Mb5H6oA0dQTdAwak
476,2715 Thornbrook Court,Odenton,MD,21113,b0hF01oCncmPuxRT
477,3579 2nd Avenue,Edgewater,MD,21037,v9t9aen3ojiLghSR
478,6739 Taft Court,Arvada,CO,80004,7Ym8PhUtBmRKVNL6
479,1528 Stafford Avenue,Hayward,CA,94541,aIv4bHZHzhY90PEP
480,2024 Merrily Drive,Montgomery,AL,36111,12XE6I2bHx7oZDXY
481,2034 Fairfax Road,Annapolis,MD,21401,F2elF7vhDhZGdmOb
482,1430 East Audubon Road,Montgomery,AL,36111,RfzZEBxZDleC38AM
483,3652 East Blue Stone Drive,Fayetteville,AR,72764,M2dU2qmQhXVsWumB
484,3302 Woodland Park Drive,Anchorage,AK,99517,QR7lHnqiBBHWqRXd
485,1771 Daisey Court,Millersville,MD,21108,aEjrqv4yw3hJCDx8
486,406 East Waldburg Street,Savannah,GA,31401,rrllCmAmazwDLmil
487,11843 North 60th Avenue,Glendale,AZ,85304,jHV0KKjBPrniFw2Q
488,9515 West 74th Avenue,Arvada,CO,80005,5QspPE64oMqd1NX3
489,119 Antioch Pike,Nashville,TN,37211,whBj8DEe0ADk1cmg
490,1157 1st Street Northwest,Washington,DC,20001,hcOyJcc4OsM9dUPQ
491,3578 Galindo Street,Oakland,CA,94601,Ah9m39l3U3wgzJc0
492,12800 Saunders Road,Anchorage,AK,99516,xfbNkbjSXQ7n1EQh
493,5556 West Northview Avenue,Glendale,AZ,85301,f8kVST4SCL0g4EEO
494,3617 Oak Grove Circle,Montgomery,AL,36116,ZGq5hNlfIpzJBLd9
495,2443 Sierra Nevada Road,Mammoth Lakes,CA,93546,5cPIJndZKRWkDQHb
496,10124 Watsonville Road,Louisville,KY,40272,oKuXBPfH3UrcIWuh
497,2441 Chase Park Drive,Montgomery,AL,36110,J9AHseIXYKgbZusY
498,28 Wayne Avenue,Waltham,MA,02453,eFov5yIyUIWa7Glt
499,3605 Normandy Place South,Nashville,TN,37209,07imGbuq26687ZIj
500,25538 Calaroga Avenue,Hayward,CA,94545,YiM8iogrVNnyI2XF
501,1521 159th Avenue,San Leandro,CA,94578,MOgwu5Qo8hwb7Xxl
502,344 Island Road,Savannah,GA,31406,tmhZqGIPneItC24k
503,826 South Hancock Street,Louisville,KY,40203,71ihRUz9m5AypeuB
504,2212 Greenville Street,Montgomery,AL,36107,N3h2J6MHGHh3eoGE
505,325 East 7th Street,Edmond,OK,73034,D6LzZT0QJLpRB4Ql
506,7 Maple Hill Road,Aquinnah,MA,02535,0PfTx2hS0xLvCacI
507,73455 Twentynine Palms Highway,Twentynine Palms,CA,92277,HTtNYFzj0BDeMgT6
508,410 West 89th Avenue,Anchorage,AK,99515,bM9amidwuyJx4V6M
509,24147 Clinton Court,Hayward,CA,94545,l3bDq57a9MzvUV7g
510,5620 Lilly Street,Panama City,FL,32404,m545j33ihl0A7m5g
511,207 Spruce Street,Manchester,CT,06040,vdeDfVLnW6Q22QUe
512,236 Alden Road,Hayward,CA,94541,7MfB79IgZMyobEpG
513,467 North Mountain Ranch Road,Fayetteville,AR,72704,z0mzZiFyWOcR0ivr
514,2042 High Street,Oakland,CA,94601,ipguZDDXzK7XaQ7u
515,6244 Sun River Drive,Sacramento,CA,95824,mZgh1lXyL1Z7iEZu
516,8801 Rosshire Drive,Louisville,KY,40118,an9LTtF3wj6YztDV
517,449 15th Street Northeast,Washington,DC,20002,fEmW4MunF51gbCrT
518,4385 Wares Ferry Road,Montgomery,AL,36109,Uly3Zx10yDNcaC3d
519,8546 North 59th Lane,Glendale,AZ,85302,blc97R7sHQF5Jx2u
520,8262 Elvaton Road,Millersville,MD,21108,dyYfkTVrOs5XJMTN
521,7018 Russell Court,Arvada,CO,80007,Pm1QOs35ZD4VCOAE
522,1353 West 27th Avenue,Anchorage,AK,99503,7Yf6RAqcjslrI72o
523,1030 Lake Claire Drive,Annapolis,MD,21409,UtCpKA8a2Ki87ka6
524,10980 Splendor Loop,Anchorage,AK,99577,6UTWHfLpvutu1j0S
525,36043 Soapberry Commons,Fremont,CA,94536,eJAKmkySDKYsp0FS
526,419 Wabasso Avenue,Louisville,KY,40209,KDE9P3gY3kj8NMN8
527,2098 Lower Newton Street,Saint Albans City,VT,05478,xD4qvOKbcezvcqyi
528,115 Waddell Road,Manchester,CT,06040,PlyG8vT9ejMrfQiS
529,463 East Rutgers Loop,Montgomery,AL,36109,V2FwNlnGVASZAi3L
530,31130 Meadowbrook Avenue,Hayward,CA,94544,obeIkFCk8K8BjeMb
531,8506 Laviento Drive,Anchorage,AK,99515,QxheINdnPiddhoKc
532,19404 North 77th Avenue,Glendale,AZ,85308,YHNu1anwK0hWorU9
533,302 East Granada Street,Fayetteville,AR,72703,3TSTfercjVO8tXd3
534,9321 Amy Lane,Panama City Beach,FL,32407,CslyupuhdAUA7Nvl
535,1156 Greenhill Road,Arnold,MD,21012,PLB8HiCjP3P2sjO7
536,30 Curtis Road,Milton,MA,02186,ocEjBqIyVMSeEgKT
537,904 Shepherd Street Northwest,Washington,DC,20011,A6aWjVeT8leMsRaG
538,124 Crane Street,Panama City,FL,32413,ojoSGwlmm0zYCTc0
539,15847 West 74th Place,Arvada,CO,80007,MErzhAeRWxh0pxAv
540,435 Granite Street,Quincy,MA,02169,5N0FenQX4fmymyUo
541,4418 Signal Hill Road,Louisville,KY,40207,zij1yVkiIsb4UXMV
542,2285 Wold Run Drive,Fayetteville,AR,72704,dSkdbFt4LVJPUfFc
543,110 Castle Hill,Manchester,CT,06040,iS6zF6F7s1ju0HBu
544,8474 Chase Drive,Arvada,CO,80003,bopBUIw43KSnnDIZ
545,4074 North Sunflower Circle,Fayetteville,AR,72703,ktMHED1pTDVEvWAS
546,249 Yellow Leaf Circle,Anchorage,AK,99504,Le4rMqt09uRpz47o
547,8010 Holland Court,Arvada,CO,80005,TsmOll4uufXx61TI
548,1300 East Dowling Road,Anchorage,AK,99518,DqRzDkQLelwNtzeS
549,189 Danforth Street,Framingham,MA,01701,ZXXAZqZpQNo1NzaZ
550,1011 Bell Avenue,Glen Burnie,MD,21060,O0PmC4DBNi4d7bVP
551,5224 Wasena Avenue,Baltimore,MD,21225,7qQwmvu3P0boc7Wh
552,7613 Yule Court,Arvada,CO,80007,qYB15l7oQYEW5xVj
553,1243 Doris Avenue,Pasadena,MD,21122,3awSVCpi9ugHFHYj
554,3504 East 5th Street,Panama City,FL,32401,H4Z3XO1MrSJ3WybX
555,1 Dunsmuir Lane,Savannah,GA,31411,8a5SwP9oKqAjt8Ll
556,1320 Dunbarton Road,Montgomery,AL,36117,BcQPOVepEOJQ4KHe
557,14524 Lodestar Drive,Grass Valley,CA,95949,w8g6gr1bL7HAlViP
558,8404 West Myrtle Avenue,Glendale,AZ,85305,8wtTcTwPsE69mLrM
559,620 Oakland Avenue,Fayetteville,AR,72701,nzb2RxBuko88pdFc
560,39 Cottage Street,Athol,MA,01331,KvIp1F2Yefplk7lB
561,82 Lookout Mountain Drive,Manchester,CT,06040,CVcDEqvdakbNcRg0
562,1635 Generals Highway,Annapolis,MD,21401,bOyuHLRggSO4I2Zj
563,555 North Dupont Avenue,Nashville,TN,37115,6m4qYtd0iVIRiHZF
564,2505 North Hampton Court,Fayetteville,AR,72703,vaFw0O0OFeiFXt4v
565,136 Acacia Drive,Blue Lake,CA,95525,VsArqtCOhpMAAdAS
566,22825 North 74th Lane,Glendale,AZ,85310,UIWzW9x79F37UIL4
567,643 Farragut Street Northwest,Washington,DC,20011,t5OXLRGXsHk0w4id
568,17 West 26th Circle,Fayetteville,AR,72701,gpBwRzd79DhRnCVg
569,335 C Street Southeast,Washington,DC,20003,F5ZNEN8RmA5CQs4g
570,1418 Paddocks Court,Crownsville,MD,21032,KuAmCNpn6xmTtEeg
571,2917 Miramar Drive,Fayetteville,AR,72704,oiuCXn97SE7pKGLO
572,301 Argonaut Street,Panama City Beach,FL,32413,ZktwSXQyvkTtFMwp
573,12901 Mission Circle,Anchorage,AK,99516,2kLkDZavpjwjuHvr
574,3013 Sprowl Road,Jeffersontown,KY,40299,qlaq3wLXAeFbIIZE
575,5929 West Via Montoya Drive,Glendale,AZ,85310,tijyfuTpSsBuw5q0
576,325 Joseph Circle,Southport,FL,32409,9mcDGxZyLGAcc1MM
577,922 Urciolo Court,Annapolis,MD,21401,XngDgMp2TsDvP8zz
578,2212 Daffin Drive,Savannah,GA,31404,1jE4p1vCcNEyfEER
579,1401 Cordova Street,Anchorage,AK,99501,etsI5T8Ism467uLC
580,8064 Claytie Circle,Nashville,TN,37221,DBa4PdrEUKtSfqwR
581,566 Middle Turnpike East,Manchester,CT,06040,8xxTCn1ICWyeJqws
582,93 Hamlin Street,Manchester,CT,06040,hACJUhGTHOVDUb0f
583,123 Remember Baker Lane,Hartford,VT,05001,OuPSKwR0gB96gOxj
584,125 Connors Street,Gardner,MA,01440,hn0Lyn6QZIG02aOI
585,2315 Chestnut Street,Montgomery,AL,36107,RSyZSI5HIvqnWDwY
586,2716 30th Street Southeast,Washington,DC,20020,wiOSsQGMN2BoVVCh
587,2406 Lindbergh Drive,Louisville,KY,40208,4O2SrSK9AjFAuA8Z
588,2035 Ninth Street,Berkeley,CA,94710,yZhKdSPzlI6JSIFn
589,34 Holyoke Road,Manchester,CT,06040,zoK4icW9Pa9in8Fs
590,2276 West Woodley Square,Montgomery,AL,36116,NPzm7LswxlF429of
591,20251 North 75th Avenue,Glendale,AZ,85308,NfpRS8XgKmCSYw3J
592,72 Bentley Avenue,Poultney,VT,05764,jt3iAhx62UvrXMns
593,2807 Huxley Place,Fremont,CA,94555,gt5ZmGiN1cm7N8GD
594,7772 West Palmaire Avenue,Glendale,AZ,85303,VynCs7xkLVkZYbdQ
595,82 Linnmore Drive,Manchester,CT,06040,qZu8k8GdfHthW5LV
596,882 Plantation Way,Montgomery,AL,36117,HGiH1KCzrpKgG50B
597,8150 North 61st Avenue,Glendale,AZ,85302,8fsge3ZhylFJQ1nl
598,503 Orchard Road,Glen Burnie,MD,21061,o0El01bVv7mkNzav
599,3616 Echo Lane,Nashville,TN,37218,w68AQPjmrqxYqj6T
600,376 Whites Road,Wilmington,VT,05363,fAz4qUlOk8pMAbnq
601,322 East Taylor Street,Savannah,GA,31401,dDLXt9zp7WR0cvoQ
602,605 Main Street,Watertown,MA,02472,RvURO86JXLQkFUg2
603,238 West Rock Street,Fayetteville,AR,72701,sPIxCYuH1wEGkgC6
604,1819 Q Street Southeast,Washington,DC,20020,7cyJbEMPQJ30AANR
605,1261 Sioux Terrace,Nashville,TN,37115,7gUpKh5M1evivjos
606,7002 Secrest Court,Arvada,CO,80007,P88DEyRH8D8W6Fdn
607,169 Avenida Drive,Berkeley,CA,94708,F4JGR5KLHn8nggSx
608,6095 Terry Lane,Golden,CO,80403,J9y9FNHKOOQU6n3f
609,3620 Colmar Drive,Louisville,KY,40211,8jzdqrb0DHoRBqbz
610,8820 Vaughn Road,Montgomery,AL,36117,QFY6HvdPFyuMm6dH
611,113 Hammarlee Road,Glen Burnie,MD,21060,Fh9sm1AcESPRg975
612,281 MacArthur Boulevard,Oakland,CA,94610,N4PsaioFu7PE5sgY
613,8159 West 81st Avenue,Arvada,CO,80005,swH02mTL2sbEHBUG
614,512 North Center Avenue,Panama City,FL,32401,kgLDXaJmjju0l4m7
615,4876 Norris Road,Fremont,CA,94536,GVhAnMrAnBwN29Yt
616,8378 Cole Street,Arvada,CO,80005,byuUbppFmFCtTFBp
617,2406 Brighton Drive,Louisville,KY,40205,N7qHjV1seuPYzMXm
618,19 Heritage,Oakland,CA,94605,Ohex2ajMHEVjKpS2
619,6228 West Larkspur Drive,Glendale,AZ,85304,ilcs4osGsocXX9ej
620,2504 Longest Avenue,Louisville,KY,40204,QdprJveKYJ5IUWI3
621,3 Mad Anthony Lane,Savannah,GA,31411,vWUrk2uy9VJuxq33
622,2248 South Sutherland Drive,Montgomery,AL,36116,RFfbKWvE3rY9pIs9
623,330 Michell Court,Livermore,CA,94551,f0udaCuUg4pRXP8j
624,6748 West San Juan Avenue,Glendale,AZ,85303,fyp6O6yfnoirALaO
625,1734 Tamarack Street Northwest,Washington,DC,20012,jVuvy5kGWQqYsTHx
626,915 Arkansas Avenue,Lynn Haven,FL,32444,pLImKgaYl4CGj5xp
627,116 Queens Lane,Nashville,TN,37218,k84GQRhsR96R5Sqh
628,8 Linden Circle,Somerville,MA,02143,HAuwcAIntkabHBjd
629,4 Chamois Court,Pooler,GA,31322,q0VzS6jmBRlitkWt
630,6941 West 87th Way,Arvada,CO,80003,DfWziBKf92ucfeWR
631,354 North University Avenue,Fayetteville,AR,72701,PNt7of5c4Yn9wf1N
632,6145 East Castro Valley Boulevard,Castro Valley,CA,94552,8d902v3suQpbZhTL
633,1401 Saint George Avenue,Moore,OK,73160,6egORSDyOjrOghJI
634,1713 Arrow Cove Lane,Annapolis,MD,21401,ihrcJIzFgy2zrHPy
635,56 Gardner Street,Manchester,CT,06040,jFZOwCEtILBIj3Ng
636,327 Idlewylde Drive,Louisville,KY,40206,spM89msTabdttasJ
637,18789 Crane Avenue,Castro Valley,CA,94546,Dw9gNhZH3IDdq01s
638,814 East 10th Court,Panama City,FL,32401,Nq20vciKxQd5fC5F
639,6431 Shattuck Avenue,Oakland,CA,94609,zt92r4Cfpu3pOLwK
640,4719 Bayou Bluff Trail,Lynn Haven,FL,32444,ZzEX3QEnB3AKZf1k
641,24 Lambert Street,Medford,MA,02155,nBZoATf8wagXcaqH
642,1318 35th Street Northwest,Washington,DC,20007,QoWF5bmrXVosv62Y
643,4807 North Grove Avenue,Warr Acres,OK,73122,WAkwLNUB5kP5m7oU
644,4408 Bonaparte Boulevard,Midwest City,OK,73110,GnFcbE3jDPDrCWVb
645,73 Twin Hills Drive,Longmeadow,MA,01106,HkkxpO8LabOgFHva
646,34 Harris Street,Brookline,MA,02446,ILkh74T6PXSVT8zk
647,22352 North 67th Drive,Glendale,AZ,85310,oQEXrdSWClAyLLXw
648,11522 Country Spring Court,Cupertino,CA,95014,qDRK31q5BNaFpxNX
649,21 Soling Avenue,Savannah,GA,31419,GBjGKartbFGx1qjK
650,302 Mcmillin Street,Nashville,TN,37203,rPq8w6PkHlNPSCl7
651,129 Grant Street,Redlands,CA,92373,oCmUGfRT7iswWgSr
652,3035 South Highway A1A,Melbourne Beach,FL,32951,wYUH1o826AFJLEq5
653,1637 Acre Circle,Panama City Beach,FL,32407,thZB26pUxibjgBCX
654,130 West Brown Road,Mesa,AZ,85201,HB19UKEtgL0dy9zT
655,2632 Jackson Street East,Carson,CA,90810,WPfFxdkAwgFU2sN8
656,4503 North Council Road,Bethany,OK,73008,6dW18kFQsVy337XP
657,119 Redwood Road,Manchester,CT,06040,El1ec9PGNGNRa1oZ
658,5721 Frank Hough Road,Panama City,FL,32404,16XrJJvB8B1YknzB
659,2917 Danzig Place,Louisville,KY,40245,jf47XgQUnF8kfNwe
660,26563 Chisholm Court,Hayward,CA,94544,AEabK2Ya6PkIEzbe
661,4221 East Mission Boulevard,Fayetteville,AR,72703,MOVKaD3DgTY3lAGg
662,6021 Yarrow Street,Arvada,CO,80004,upOSOhikoNH2SkzM
663,7102 North 43rd Avenue,Glendale,AZ,85301,y6BjGdHiehjlqPd7
664,3386 Sudlersville South,Laurel,MD,20724,lmDXOVlxdlsnHxSj
665,6022 West Alice Avenue,Glendale,AZ,85302,nSd4XmGeUVT1TxJP
666,580 Hollow Wood Road,Montgomery,AL,36109,Rf4qnqn9CnGJruF9
667,435 East 5th Avenue,Anchorage,AK,99501,ABdIkLljAZfVAl5M
668,6713 Holt Road,Nashville,TN,37211,Ci7QSdBP0iS0Ynko
669,5605 North Terry Avenue,Oklahoma City,OK,73111,Klg5AN7De9AZrWdX
670,412 West Ila Street,Fayetteville,AR,72701,ZUqoG2agZ27tf2zj
671,9403 Fairground Road,Louisville,KY,40291,hrQEYXL1NnWqSOZ2
672,6049 Quail Street,Arvada,CO,80004,uGQ9yeD97dHiPKHg
673,17 Hillcrest Road,Rutland,VT,05701,QtPK2DtvTQ0KqGc6
674,424 Callan Avenue,San Leandro,CA,94577,lp5dHmULjDa3mVvz
675,105 Gilmore Street,Glen Burnie,MD,21061,iedNjGlJW9usxhbW
676,910 Arlington Terrace,Fayetteville,AR,72701,GoJjcNGpaP1g3qb2
677,2204 7th Street Road,Louisville,KY,40208,162tzpPKTCEfQwY6
678,11 North Vineyard Drive,Pueblo West,CO,81007,gB3lhpMA3N2wqr48
679,3505 Albee Drive,Nashville,TN,37076,QXtY7C9EbMkNAman
680,689 Stableway Road,Pike Road,AL,36064,5WX4ft0zKfYWjbZ2
681,102 East Cydnee Street,Fayetteville,AR,72703,7SL5dbMFnQ3jHqOH
682,208 Towne Lake Way,Pooler,GA,31322,bJ7cydNZr5p9VCVM
683,2555 West 69th Court,Anchorage,AK,99502,RGiGUhghRbIrJaIj
684,58 Rice Street Southwest,Washington,DC,20032,feX45irejEp5EWUn
685,2961 Vinson Road,Montgomery,AL,36110,aQe7gbDdkd7EiM6u
686,172 Chestnut Street,Lynn,MA,01902,vVtJ0O82G88h1l2Z
687,307 Meadowood Court,Lynn Haven,FL,32444,AjeE4qoz1mJ0xeiO
688,403 Turkey Creek Road,Mathews,AL,36052,b4nHo0qr59iHLL4l
689,11 Rosewood Lane,Essex,VT,05452,h3yK31xSwlyRLlqX
690,102 Old Depot Road,Farmington,AR,72730,GGhmtG3UrX0Gl3yu
691,9 Pierce Road,Watertown,MA,02472,EMUeJ72Gj3cCGbkf
692,15254 North 52nd Avenue,Glendale,AZ,85306,sE5R0Y1xS8IJ4ouc
693,11140 West 60th Avenue,Arvada,CO,80004,q7ricqv990R149yS
694,803 18th Avenue South,Nashville,TN,37203,yJzCALRHdZo4AFgg
695,918 Cheryl Ann Circle,Hayward,CA,94544,NfTxks2LkNaQlGtY
696,1328 Jenks Avenue,Panama City,FL,32401,hUIIo1HeMwy5LzN8
697,2201 Marks Mill Lane,Fayetteville,AR,72703,FZlxL2fmpaaylnGR
698,12371 Atlanta Highway,Montgomery,AL,36117,VAEIQcut57aOz84U
699,3437 Sommerville Drive,Montgomery,AL,36111,EnGvZ29c4TUJWyCu
700,829 Dunbarton Road,Montgomery,AL,36117,nwJyoAYYoDdTQXQh
701,8 Kozera Avenue,Hadley,MA,01035,LvwkbKp7SBBQfkJ2
702,89 High Ledge Circle,Manchester,CT,06040,T84h224DoJT1x1Lq
703,35 Lakewood Circle South,Manchester,CT,06040,2BNiofOnNvE00c0H
704,2222 Martin Luther King Junior Boulevard,Fayetteville,AR,72701,qHuwRz9GSrilbiOe
705,1720 Quacco Road,Pooler,GA,31322,TnRExlhWEc6PGLTa
706,116 Jourdan Street,Hinesburg,VT,05461,py9HDMeT9cvZE9PR
707,2507 R Street Southeast,Washington,DC,20020,mVtflUbTHUl5JOPX
708,4719 West Cochise Drive,Glendale,AZ,85302,ybfTkhJZSuLwYrXP
709,1838 Crofton Parkway,Crofton,MD,21114,tD69XXG208ZOjUhG
710,26 Seaman Circle,Manchester,CT,06040,bcdGR6Ydif0Vr6bB
711,2572 Drake Street,Montgomery,AL,36108,hqcTcd4Ml8aXthoW
712,4231 Miramonte Way,Union City,CA,94587,IklVxYOwFyomq0Aa
713,2508 Grant Avenue,Panama City,FL,32405,dL6TJTXpwuCIWlcc
714,6505 South Lagoon Drive,Panama City Beach,FL,32408,A4n3AbQFjMcB7Msy
715,2032 Gorgas Street,Montgomery,AL,36106,GYQt4AGUyJ7enX1t
716,1129 I Street,Anchorage,AK,99501,o5sp36vo8EHzqD2I
717,5201 North Miller Avenue,Oklahoma City,OK,73112,4PAGmKYXQAO6Wxnz
718,1987 Boxer Court,San Lorenzo,CA,94580,XMLrkgUOH1Ku4CV8
719,3219 Lakeshore Drive,Nashville,TN,37138,HB5LTxstrOqMV3A9
720,415 West 42nd Street,Savannah,GA,31401,ieD0qTpietmwOr4v
721,5792 Owl Hill Avenue,Santa Rosa,CA,95409,9C8FGTfRTE0sS7v5
722,6816 West 84th Circle,Arvada,CO,80003,TYeDzk9hjx3z5btL
723,1900 West Virginia Avenue Northeast,Washington,DC,20002,bTGTzUjU8mt2X8ot
724,2936 State Avenue,Panama City,FL,32405,cRDgVkQADQhoTy3M
725,2604 13th Street,Savannah,GA,31408,oAC4blvfdV6jzji4
726,10304 North 179th Drive,Waddell,AZ,85355,Ys5NMDzmlqeWAOGC
727,8142 Mallard Shore Drive,Laurel,MD,20724,52zK928UOfcoiLFQ
728,653 Stratton Arlington Road,Stratton,VT,05360,KCebQpQEIWqQxkkn
729,2414 Parker Street,Berkeley,CA,94704,AYLJjXSVYl1Vd7lw
730,43 Westminster Street,Pittsfield,MA,01201,U3xhjDPTi2904wWu
731,422 C Street Northeast,Washington,DC,20002,XLDinLSXMitzMfZG
732,535 Saddlewood Lane,Montgomery,AL,36109,fDnQFbHjoLKkh4vC
733,7910 West Krall Street,Glendale,AZ,85303,AqqqUIX7iyZWLEB6
734,1600 20th Street Northwest,Washington,DC,20009,KH5EGTy0RFVPILI3
735,1217 Bay Street,Tybee Island,GA,31328,FtvWPsRCoYqw2SII
736,7645 Marshall Street,Arvada,CO,80003,egSMTqIr5eufGpXE
737,717 Joseph Avenue,Nashville,TN,37207,DXINxojCtFY5957P
738,2106 Standard Avenue,Louisville,KY,40210,dwtzkBjinwJp2qBH
739,316 20th Street Northeast,Washington,DC,20002,gzAaBmpQ2Xn4l3CW
740,227 West Montgomery Cross Road,Savannah,GA,31406,7NTfj0OmvZUsaZfT
741,310 12th Avenue,Santa Cruz,CA,95062,NiDTaFFiCQhLhcFk
742,2685 California Street,Mountain View,CA,94040,VOVzE9NP7Y2SPuXR
743,6460 Vermont 113,Vershire,VT,05079,NByUxoRiyqXNw7Uc
744,8404 South Villa Avenue,Oklahoma City,OK,73159,hfnkJXvgyhUh5JOU
745,7030 West Krall Street,Glendale,AZ,85303,sWuNDsiqcjp7Fjmb
746,189 Dalton Avenue,Pittsfield,MA,01201,nF0RP6L1NV9huPp0
747,2455 Manchester Drive,The Village,OK,73120,fTUljvh4YShMoB7M
748,2405 230th Street,Pasadena,MD,21122,slTPj96gu403qtsy
749,589 East Main Street,Newport,VT,05855,4Y4qKa2f2sTBXlYJ
750,1520 H Street Northwest,Washington,DC,20006,7N8Pe64euJ3EmZZc
751,4603 Grant Street Northeast,Washington,DC,20019,MmwFw13vG0mUVpnm
752,171 Brickhill Circle,Pooler,GA,31322,yaWNx4llEG7cpw9M
753,607 North 46th Avenue,Fayetteville,AR,72704,pdTIONWAcUJPpta7
754,9134 Brook Park Drive,Montgomery,AL,36117,Au9b2llA486MdWQt
755,2134 West Mills Drive,Orange,CA,92868,NLayitN2vBV7KHXL
756,2 Cockle Shell Road,Savannah,GA,31419,hPr3lt3njUbirOWx
757,1431 King George Boulevard,Savannah,GA,31419,yjP8mRDe05XEHhDl
758,1804 Calhoun Avenue,Panama City,FL,32405,MNu2sJ7vb3Au6iKN
759,23 Florida Avenue Northeast,Washington,DC,20002,5FxfQrzMrBfsglFM
760,5630 Silverado Way,Anchorage,AK,99518,IOoeXSCA4fdhCd29
761,11300 Lillian Lane,Anchorage,AK,99515,QqEDBgH0guMX30vi
762,2209 East Manor Drive,Fayetteville,AR,72701,K5TjqJdhGWEJ2ftl
763,8325 Northwest 19th Street,Oklahoma City,OK,73127,OxRUCWKZzoDPxfJW
764,6925 Lariat Lane,Castro Valley,CA,94552,zzqKLmfqCWdoV1PD
765,6721 Boundary Run,Nashville,TN,37221,4FdQMgTWfmxuMMXW
766,1700 William E Summers III Avenue,Louisville,KY,40211,EXMDy97j93F8CUc6
767,14 6th Street,Medford,MA,02155,WdFBkh4EufsnCaaJ
768,11865 West 74th Avenue,Arvada,CO,80005,Xrpxt1L8bjv38BcI
769,912 Countryside Lane,Montgomery,AL,36117,jmKDKTE7q36gKFmC
770,6080 Frontier Lane,Nashville,TN,37211,7jtaJN0kzUdbyBOb
771,1124 Bluewillow Court,Nashville,TN,37013,illFfZoFL0pphdWC
772,17722 North 79th Avenue,Glendale,AZ,85308,M5SnDQZgvtn2FFue
773,6 Oak Street,Town of Rockingham,VT,05101,xVjGeLWXCqwc6NPf
774,1537 Northwest 123rd Street,Oklahoma City,OK,73120,U2eAjv836jk3e42J
775,10001 Pheasant Lane,Oklahoma City,OK,73162,gHGJPQbr3BXKPR1Q
776,10340 West 62nd Place,Arvada,CO,80004,kk3QpGGcGFXWWch1
777,52 Oleary Drive,Manchester,CT,06040,ymPVkXfBsBcNCz9P
778,15082 North 59th Avenue,Glendale,AZ,85306,Baz20kVtqlXTSSJF
779,7047 Vinson Road,Panama City,FL,32413,XbVMK5vrEdKAPony
780,200 Edson Road,Windham,VT,05359,DhWsAteEqKaDOfgi
781,150 Manistee Drive,Panama City Beach,FL,32413,jilCK36oLX010wKI
782,2335 Orchard View Lane,Escondido,CA,92027,Xpq5zJxuhlQG3Usr
783,65 Clark Street,Newton,MA,02459,4IP7cFbs1bHP87wl
784,18318 Pioneer Drive,Anchorage,AK,99577,ctcGp7d0pAVskXMh
785,110 Elmwood Avenue,Barre,VT,05641,EOGQ5pT2DPRcGF8X
786,4800 Huffman Road,Anchorage,AK,99516,UCRXONwCSMWQGakw
787,8219 Minor Lane,Louisville,KY,40219,wGxVRA7rtLRmIUAK
788,10129 Spring Gate Drive,Louisville,KY,40241,k1sDPJn8HX42Kp1f
789,65 Arcellia Drive,Manchester,CT,06042,WpeBJ1Yc3QtFuRJ7
790,12460 West Solano Drive,Litchfield Park,AZ,85340,9fegXAsRdRF2ehSr
791,618 Watts Street,Montgomery,AL,36104,FKAVFuaYYTQB0HAA
792,5805 Armada Drive,Carlsbad,CA,92008,4I8Z76a5lYRWROlN
793,1644 Queenstown Road,Nichols Hills,OK,73116,Cr8hR2XAcfX9g8fQ
794,143 Main Street,Manchester,CT,06042,nBPSUzoER95j0iyJ
795,226 Tranquility Lane,Saint Albans Town,VT,05488,Il4jcbkqKbS2HKER
796,831 21st Street Northeast,Washington,DC,20002,MEuk4GE2YcNUltFn
797,22825 Paseo Place,Hayward,CA,94541,E4wNvavK0pV5eW8I
798,2902 Flint Street,Union City,CA,94587,IXP1WWrKytOkLq16
799,919 Windsor Avenue,Annapolis,MD,21403,5ohoP7FzSDnzSO8V
800,6041 North 72nd Lane,Glendale,AZ,85303,P405W1ge1uCYaSV4
801,163 Highwood Drive,Manchester,CT,06040,ehh3mWyWKbnMJgeC
802,1334 East 14th Avenue,Anchorage,AK,99501,0Qh6yjDV9Ot4AX0Y
803,223 Goose Pond Road,Fairfax,VT,05454,2g7Q8rc4vpvBPn5T
804,1021 North Center Avenue,Panama City,FL,32401,zy2vy0Ev2ZiFwmmD
805,1559 Alabama Avenue Southeast,Washington,DC,20032,xBqhZxmC0wZ4n73Y
806,1238 Roanwood Way,Concord,CA,94521,8PuFQ5LUL2JjYt7n
807,2068 Happy Lane,Crofton,MD,21114,JnuFx6XMG5r1MkSq
808,5378 Allison Street,Arvada,CO,80002,MQuASKTSKXHuNeF2
809,4604 Virginia Loop Road,Montgomery,AL,36116,57NoYrKGnRJD7PtZ
810,7711 North 51st Avenue,Glendale,AZ,85301,dtITjIQlAobENdnO
811,343 Daman Drive,Montgomery,AL,36108,v8eFBhHGR0bhm4Vq
812,3623 Chateau Lane,Louisville,KY,40219,ZtAE0hZjbEtDpvkF
813,2619 North Quality Lane,Fayetteville,AR,72703,httdqZ0c5jxwfVFI
814,5334 West Northern Avenue,Glendale,AZ,85301,K3GyKb6yeNmSgAtY
815,3835 Oakes Drive,Hayward,CA,94542,ycOY7YNZeEVCHzhu
816,295 Townes Drive,Nashville,TN,37211,Zu6bgbzFRFcVzwUF
817,125 13th Street Northeast,Washington,DC,20002,XKtcpim219DREkzp
818,7308 Northwest 119th Street,Oklahoma City,OK,73162,gSkwnnJIYH8JELY2
819,1911 East 58th Avenue,Anchorage,AK,99507,0xOni4kDZ9BuP3Il
820,22649 McManus Drive,Anchorage,AK,99567,6VQBi9ti9dWZige8
821,4617 East 3rd Street,Panama City,FL,32404,AC4UkJchY1CxFjbu
822,6436 Stoney Point Road,Panama City,FL,32404,AeB92Np0e6Gn6R0N
823,2577 Rhode Island Avenue Northeast,Washington,DC,20018,ykGOTgx94erTXi8o
824,44 Campfield Road,Manchester,CT,06040,FQkhGuVtvskDpkEg
825,7132 South Villa Avenue,Oklahoma City,OK,73159,pDj8gw4DmPKABmI1
826,107 West Canton Circle,Springfield,MA,01104,CxYMDVgARAvgKLI5
827,14358 West 88th Place,Arvada,CO,80005,M7kXh7WaQGDlHEG7
828,2100 Sandy Creek Trail,Edmond,OK,73013,8PKeRhYy82iNGSk0
829,6404 West 82nd Drive,Arvada,CO,80003,4Ii4890BPsvpB4nE
830,1609 Porter Avenue,Nashville,TN,37206,k9IQH4rx8SzKRU8e
831,8421 Thomas Drive,Panama City,FL,32408,0ur8Swtua85bflJA
832,116 Frost Park,Hartford,VT,05001,s8RYRSRiaDM8TZDm
833,132 Tensaw Road,Montgomery,AL,36117,bRy7LvPwhPiCfWZz
834,3147 West Old Farmington Road,Fayetteville,AR,72704,QuhK1BBcla6NLHgy
835,3538 Mendenhall Court,Pleasanton,CA,94588,lyAabzaegvMI0v5f
836,1623 Mines Road,Lowell,VT,05847,V5YKP2crKCgKf21z
837,99 Pond Avenue,Brookline,MA,02445,3PlnpEKKWGd4wYwx
838,557 West Willoughby Road,Fayetteville,AR,72701,rGLt8MQeE2Nrl3oG
839,309 Brooke Court,Panama City,FL,32404,UFTsCSlypKJ7arFO
840,4696 Bull Run Road,Ashland City,TN,37015,mea0CLKVkqycrQR3
841,18330 North 79th Avenue,Glendale,AZ,85308,mkrKi5P3t1CWeDnL
842,5601 West Missouri Avenue,Glendale,AZ,85301,lnZjpOmMnSFLF1m1
843,2903 West 31st Avenue,Anchorage,AK,99517,Mmg7Q3m03v1M5V13
844,2611 Bluefield Avenue,Nashville,TN,37214,jD6TEU22wIXotmGz
845,203 East Gwinnett Street,Savannah,GA,31401,ohne2fix8zzdri1y
846,3517 S Street Northwest,Washington,DC,20007,JrpEjoEDvhIe90XS
847,1123 Ardee Avenue,Nashville,TN,37216,F9OkE7JaV6ziOnzD
848,3811 W Street Southeast,Washington,DC,20020,iovY9kGce1dS2FVK
849,2130 Loren Circle,Fayetteville,AR,72701,umiNRm9jeMFm4WIz
850,4 Orchard Street,Manchester,CT,06040,KeKv7FrSFkzsR7nz
851,4755 Coventry Road,Montgomery,AL,36116,1RIVODDx0R2xD7rq
852,1806 Boscobel Street,Nashville,TN,37206,K9ZrSI5xaGWpWc3f
853,7034 West John Garrison Road,Fayetteville,AR,72704,VQeJKrEt5Sycb6WC
854,233 Juniper Drive,South Burlington,VT,05403,ov9yZFKkOXafX7aR
855,1831 Frankford Avenue,Panama City,FL,32405,J7fRaMm9dHItN3y1
856,4924 West 65th Avenue,Arvada,CO,80003,eAUrWlOLFbnURhA1
857,7095 Gladiola Street,Arvada,CO,80004,RwjbDTIF58oZ2jgf
858,7564 Moore Court,Arvada,CO,80005,ie8OTcFFz00TnXaD
859,8442 Everett Way,Arvada,CO,80005,21Kr4J8SzS5kXCLe
860,1330 West 82nd Avenue,Anchorage,AK,99518,9XH393p76hDqg7N9
861,4907 Roger Drive,Anchorage,AK,99507,Hioq4xUWMUkkY1mf
862,123 Blossom Road,Westport,MA,02790,OAaceqF6zZDLnkeX
863,915 Hargrove Street,Ardmore,OK,73401,CJU1U3NCDTKsRX71
864,1983 Reidsville Street,Annapolis,MD,21401,TscUMH3opJStN3yz
865,12403 Deerfield Road,Savannah,GA,31419,iDBA0zEUR3anZxrf
866,1011 Devon Drive,Hayward,CA,94542,osOM77sFzMnCqfEx
867,5222 West Laurie Lane,Glendale,AZ,85302,gb3KTKj9j758Ml13
868,35 Pilgrim Lane,Manchester,CT,06040,8vr3qQadErZY50ab
869,2728 Hale Avenue,Louisville,KY,40211,3RnnLcN7QNVbrXD5
870,65 Lowry Road,Falmouth,MA,02540,UsWnHVWuQt09xMhA
871,302 Depot Road,Boxborough,MA,01719,dyfoq6M3GFt3R8jI
872,1402 Maggies Way,Waterbury Center,VT,05677,5kReBfRsQ4CK16TA
873,81 Lyness Street,Manchester,CT,06040,5DOOeCGItzFjx1XN
874,6518 Dolphin Court,Glen Burnie,MD,21061,yTGqEjuFBSb0tjMk
875,1842 West Park Place,Oklahoma City,OK,73106,KzUQUABZtFYf7hNq
876,1 Pond View Road,Proctor,VT,05765,Eu6vKFNI65GlpNpM
877,1340 5th Street Northwest,Washington,DC,20001,VUqnCzETNXk74zqe
878,6000 Parker Drive,Deale,MD,20751,5cR0dsqXXLzh3FJL
879,822 Bowden Street,Savannah,GA,31415,quuUP6RmuTSpWBT8
880,1710 East Harold Street,Fayetteville,AR,72703,ikTCJRpsj318QgjV
881,1518 Jenks Avenue,Panama City,FL,32405,NLI5Y0vxKIYx03c4
882,814 South Pickard Avenue,Norman,OK,73069,C7pkgZnGtphwoiwU
883,100 Fenwick Village Drive,Savannah,GA,31419,n4IwMo5ntGdEY0q8
884,218 Middle Street,Brighton,VT,05846,bEeMleEKrytz32Uo
885,5470 Atlanta Highway,Montgomery,AL,36109,F7SfgnXAX8377NPV
886,43 Main Street,Essex,VT,05452,85jD9vpxhYiDHBAa
887,804 East 7th Court,Panama City,FL,32401,Zi6V22cwbWX51ko3
888,1709 Queensbury Road,Moore,OK,73160,P3RSJlAZou0wB6Gv
889,646 Clinton Street,Montgomery,AL,36108,0qV9FPG3xDNd4u7Q
890,708 Pine Drift Drive,Odenton,MD,21113,9mjDPQFc78Yqlee5
891,5104 West Tierra Buena Lane,Glendale,AZ,85306,tSZ3B9FuZtC067ig
892,1234 Carmel Street,Madera,CA,93638,zAbDQL3mzQU1lIcw
893,1753 Zion Road,Fayetteville,AR,72703,NUKFtWrCLAFppn0X
894,22538 6th Street,Hayward,CA,94541,mb0IItw1dsC4BNtV
895,415 Lullwater Drive,Panama City Beach,FL,32413,MfvoWlDb33oVfH9x
896,219 Bidwell Street,Manchester,CT,06040,uuyMXGZrPklWGElY
897,4500 Margalo Avenue,Bakersfield,CA,93313,zMBr943c3aVQrpEh
898,8380 West 67th Avenue,Arvada,CO,80004,NQDU5mNusnUnKIY8
899,2334 Nantucket Drive,Crofton,MD,21114,8k8KHJ3hozMJyHm6
900,720 East Muhammad Ali Boulevard,Louisville,KY,40202,h70vLwCzQRtb6En1
901,12022 Town Park Circle,Anchorage,AK,99577,kgyJFbYz5cFS2Msp
902,2305 Ranchland Drive,Savannah,GA,31404,6maArHOGOx97V2Lo
903,1656 Newton Street Northwest,Washington,DC,20010,RuWyraFOlxadftXl
904,91 85th Avenue,Fayetteville,AR,72704,cWdr3n8OzoEK8kOk
905,228 Central Street,Milford,MA,01757,B6dtvLfckhpJEAxg
906,20 Masters Way,Manchester,CT,06040,9mTrk7eHVijQPDP9
907,5396 North Reese Avenue,Fresno,CA,93722,XiwsQEeGrD5cxH96
908,28 Wilfred Road,Manchester,CT,06040,LVmA3n6joKBLPiHw
909,200 Pheasant Avenue,Louisville,KY,40118,xZyyMGKrE59unRRG
910,1650 Garland Avenue,Fayetteville,AR,72703,gNKL6MI8wr9KIRPa
911,4600 Ritchie Highway,Baltimore,MD,21225,6XzUQEFqseZcewdC
912,733 East DeRenne Avenue,Savannah,GA,31405,uapsbuaoq0n3rsyI
913,8349 West Stella Way,Glendale,AZ,85305,VTs2C6JGoUSygYWV
914,33 Pond Avenue,Brookline,MA,02445,AXVDSER4xpK29GMg
915,9 Kimball Court,Burlington,MA,01803,5dO3z2u4nd27e9ZK
916,2433 Southwest 36th Street,Oklahoma City,OK,73109,6NZt2J3PkmFy96z1
917,4607 Artelia Drive,Nashville,TN,37013,zQnKQfKcwyZ2RobJ
918,212 Ambleside Drive,Severna Park,MD,21146,6likusdUBKu1wpzV
919,8757 Lamar Circle,Arvada,CO,80003,MxtPR81YbJXBIMoz
920,130 Carolina Cherry Circle,Pooler,GA,31322,9SnPs7HFXX1XqMAw
921,7804 Abercorn Street,Savannah,GA,31406,g59zB8N4yRny29Ml
922,12870 Old Seward Highway,Anchorage,AK,99515,4tFXMelsQenDsRjS
923,8133 Meadowgreen Place,Louisville,KY,40299,GJ7I3Pwvef5NXC4E
924,5 Meadow Lane,Rutland,VT,05701,gEotfHhGbSuPohdH
925,562 South Pierremont Drive,Fayetteville,AR,72701,cPD6ZedCEjkFjiKx
926,1219 Carleton Street,Berkeley,CA,94702,rzDkY4v7xHB0stZO
927,1403 Boulder Court,Hanover,MD,21076,e7ktp3v8pBCS4GlS
928,122 Coral Drive,Panama City Beach,FL,32413,PsK8SR9yLFUuD7HV
929,1404 James Way,Edgewater,MD,21037,Qe8V4VcoulyFih40
930,4300 Woodley Square,Montgomery,AL,36116,DQL7BtPJhXWULJFF
931,422 Richmond Street,El Cerrito,CA,94530,apdeqOFCIwMpDbNR
932,222 Plymouth Street,Middleborough,MA,02346,GsAQJpC3yg1sbslB
933,451 East Street,Huntington,VT,05462,FtzjcGengHMjJbjV
934,9209 Eupora Court,Jeffersontown,KY,40299,ykDqzeFXePOhFJWV
935,4 Conti Circle,Barre,VT,05641,yUJAshfemlp694tg
936,5264 Shafter Avenue,Oakland,CA,94618,5Y9NY60cesG8H2EH
937,1630 Eton Way,Crofton,MD,21114,MhkT228a0vxiAmOC
938,5244 West Port Au Prince Lane,Glendale,AZ,85306,gT1UPQL1UF5QW7Xz
939,1835 Pointer Lane,Fayetteville,AR,72701,KIA49JpmB0gczTGG
940,107 Laurel Green Court,Savannah,GA,31419,E3ZAUliLDCzclOtP
941,7250 Urban Drive,Arvada,CO,80005,3RfI5wiC6EJ9glZs
942,12 Kane Road,Manchester,CT,06040,dVBJIjJy52w1yEBn
943,4132 Northwest 57th Street,Oklahoma City,OK,73112,3XP04XcHi7htpHAQ
944,10774 West 54th Lane,Arvada,CO,80002,hIPywbunzAvbt5bl
945,6729 North 54th Avenue,Glendale,AZ,85301,HjgXsUmHTMecs7v2
946,6483 West 76th Avenue,Arvada,CO,80003,WHb3MDVeMpzJDWbI
947,5732 Jean Drive,Union City,CA,94587,yjugEgauEI90SpUN
948,8221 Surf Drive,Panama City,FL,32408,Q0vrhaydjrVPWBK4
949,9101 Vanguard Drive,Anchorage,AK,99507,pXt8WMg6OhHSm2DW
950,18713 Shilstone Way,Edmond,OK,73012,viUPvMX0OuyA6Apn
951,51185 Helmsman Street,Kenai,AK,99611,S1hiX6PsG7ojdpGS
952,128 East Oak Street,Louisville,KY,40203,q0f66s9jp5Jz9csA
953,1222 Arcade Boulevard,Sacramento,CA,95815,5QfAF1LNn1gNVDe9
954,1405 Mercedes Avenue,Panama City,FL,32401,LLBsPV4pD6btdmDj
955,7024 Johnny Mercer Boulevard,Savannah,GA,31410,S6LOqXxuGN5g464K
956,3600 Pennsylvania Avenue,Fremont,CA,94536,q91MW9TfwImTDA5k
957,312 North Cove Boulevard,Panama City,FL,32401,vEPc8DzfJda3R0oJ
958,3118 Sora Avenue,Louisville,KY,40213,eC4FdIIv7TJ77cY0
959,6420 Via Baron,Rancho Palos Verdes,CA,90275,ZducTEWqytOAKTgY
960,3321 Furman Boulevard,Louisville,KY,40220,cjgOkIJzDSFjWHU7
961,98 Lincoln Street,Revere,MA,02151,okNXGmzHP6Udmibv
962,984 Greendale Avenue,Needham,MA,02492,6JcMTA9FByOIPh5w
963,239 Eastern Avenue,Fayetteville,AR,72701,1HpkcdbxBE3nYWBX
964,1106 Commanders Way South,Annapolis,MD,21409,loojQYs4PCIreMeK
965,4927 Alvin Sperry Road,Mount Juliet,TN,37122,EaRkZi2RtAOg261l
966,1632 North Lunsford Avenue,Fayetteville,AR,72701,OMgCj2glRmN3QQmH
967,2349 East Tall Oaks Drive,Fayetteville,AR,72703,ePkIsCylBtcpCC8p
968,2036 Hermitage Hills Drive,Gambrills,MD,21054,w9MznqD2tX6ryY2m
969,119 Oakland Street,Manchester,CT,06042,DWc5OY2i3WGPLTjv
970,37675 Fremont Boulevard,Fremont,CA,94536,IcSIdhkCNld9mSoA
971,3104 Southwest 46th Street,Oklahoma City,OK,73119,Ksa9YRxAQickZgWi
972,2036 Gorgas Street,Montgomery,AL,36106,RUrUS6V8MJRFaXhy
973,11102 Little Rock Court,Louisville,KY,40241,yZnP6KV4UKY6VQju
974,46 Deslauriers Street,Chicopee,MA,01020,7IIY2DrKbPxuRklK
975,12 Red Fox Drive,Savannah,GA,31419,tYyteaf5gHd8X5im
976,503 Blackwood Terrace Southeast,Calhoun,GA,30701,8BK4EFcb3t0b9yag
977,2223 North Fernwood Court,Savannah,GA,31404,pofnPzLRT65PSQri
978,5444 Nicole Boulevard,Panama City,FL,32404,dA6ShOMXQxe0TO4g
979,849 East Victoria Street,Carson,CA,90746,Ji3qE0e3F4VIG5WT
980,445 South Potomac Circle,Aurora,CO,80012,gNrkfKgvsB8VVDXy
981,201 East 9th Avenue,Anchorage,AK,99501,I2UAjBQsZiy6jEHl
982,3500 15th Street Northeast,Washington,DC,20017,HwJCIlzfzLH8IOjf
983,4981 Shirley Way,Livermore,CA,94550,cLnqHbjreqGnfmpl
984,1300 Lemos Lane,Fremont,CA,94539,oLtd0yA559NYxohz
985,5000 V Street Northwest,Washington,DC,20007,q6jOuLgHTpWmYyaN
986,6823 Forsythe Drive,Panama City,FL,32404,LRHbIgDDtMHbdHe4
987,1522 South 36th Street,Louisville,KY,40211,j7XgoKjtxDZJVo2E
988,313 Lone Oak Drive,Norman,OK,73071,rKLQfBLjdIJtViIK
989,970 Old Oak Road,Livermore,CA,94550,B3WKaao2bJUFeHNQ
990,1653 Brooks Avenue,Fayetteville,AR,72701,QegYJJtlyJ8RX2WR
991,441 Merritt Avenue,Oakland,CA,94610,AFJ1mJjxEA4E2uqM
992,632 North Pine Street,Anchorage,AK,99508,xAIgxz0QK6dPF0VZ
993,112 Walnut Street,Reading,MA,01867,9KpgFDVp8NyshtVs
994,4231 Laurel Street,Anchorage,AK,99508,nQovmaTUywsmmSm8
995,73 Lower Main Street,Morristown,VT,05661,RUujcXDR6xgm3451
996,2206 Skidaway Road,Savannah,GA,31404,cL7cseZKNHHk2MBO
997,6818 North Lagoon Drive,Panama City,FL,32408,vAhuMQtDdckIVrnN
998,1061 Sumatra Street,Hayward,CA,94544,96OoL6MdK1LtEyPu
999,4214 Ashleywood Court,Louisville,KY,40241,fjYcgONURlXqpfzF
1000,3612 Jim Robison Drive,Edmond,OK,73013,cl3KGmlir1496Kqk
1001,1318 4th Street Southwest,Washington,DC,20024,mvIfzCGZuNe10N4U
1002,2237 Northwest 18th Street,Oklahoma City,OK,73107,V1UlAarD50AAXVsX
1003,96 Green Manor Road,Manchester,CT,06042,ig1dP64lgaon6KNQ
1004,954 Dowler Drive,Eureka,CA,95501,xfW7xdopAoQvphdC
1005,37600 Sycamore Street,Newark,CA,94560,hWsuybDPTEd69De2
1006,2195 Cantelou Road,Montgomery,AL,36108,gEW2y7YphII4qcLU
1007,1783 Blakely Road,Colchester,VT,05446,tJY5JMuRtFhfEuBD
1008,218 Oleander Drive,Panama City Beach,FL,32413,xuLekcLDKDDsLSIU
1009,7701 Taylor Oaks Circle,Montgomery,AL,36116,HqeLzFiHKpYPOGC6
1010,6880 Xavier Circle,Westminster,CO,80030,rTtDgi8CGQ7xbff3
1011,16040 North 67th Drive,Peoria,AZ,85382,qgBtmcqnrhJDqS48
1012,6328 West Brown Street,Glendale,AZ,85302,c2oPUBZ8SGvLohsD
1013,36528 Short Circle,Kenai,AK,99611,63hGndLxl1H2mZmU
1014,22062 Cameron Street,Castro Valley,CA,94546,UYjgCYuCXOYOpnEA
1015,3871 Galactica Drive,Anchorage,AK,99517,3LLHTx0Q8yaB6hCf
1016,6373 West Golden Lane,Glendale,AZ,85302,JY8oMFjGARvOkKQF
1017,1709 Vineyard Trail,Annapolis,MD,21401,RTj0PZqsb5f0TiE4
1018,25 Edwards Street,Manchester,CT,06042,Q4SOyDmKg3Fmu8Lg
1019,1516 Buchanan Street Northwest,Washington,DC,20011,5GSZOlaxK0AkgILu
1020,42 Edison Road,Manchester,CT,06040,wZBthJUM9NFr8ghr
1021,8423 Pioneer Drive,Severn,MD,21144,PT3pBmj9zCyIB4sZ
1022,Career Avenue,Washington,DC,20032,6KvGkVBB3MBDK4hs
1023,16133 Hillsborough Boulevard,Port Charlotte,FL,33954,VjglKCA1sCfDhw6v
1024,5209 North Dewey Avenue,Oklahoma City,OK,73118,VxOLxyLLRfqXAs9g
1025,7573 National Drive,Livermore,CA,94550,fQRhdlButDFqzQrH
1026,5300 Robinwood Road,Louisville,KY,40218,a3m0vGKfsQeXlpje
1027,8202 Dudley Way,Arvada,CO,80005,Scw5wBrg0AfbyGdL
1028,6624 Strawberry Lane,Louisville,KY,40214,M45zYvG1mAMKPEiv
1029,8820 Culebra Street,Arvada,CO,80007,CXtHljME12jnI1al
1030,3440 Brookhaven Road,Pasadena,MD,21122,BH61PAEAYnO1ffeT
1031,2894 Music Avenue,Grand Junction,CO,81506,XYOUTvTz0EimB7m7
1032,7041 Coe Road,Panama City,FL,32404,sg3xLcrhFJT71Ym2
1033,3516 North Virginia Avenue,Oklahoma City,OK,73118,SPZf3sHffctGOZW4
1034,23501 Ida Lane,Hayward,CA,94541,YrnSzZST3ni8AAQ6
1035,11401 Totem Road,Anchorage,AK,99516,OUAcVIxPKrDMhg4j
1036,6928 North 87th Lane,Glendale,AZ,85305,XMLPaAqtedhFpXHe
1037,1501 New Hampshire Avenue,Lynn Haven,FL,32444,3Flvzr2iBtD9dBvh
1038,190 Church Street,Burlington,VT,05401,cSh3R5xVxXrJjB88
1039,1417 Stoneykirk Road,Pelham,AL,35124,aHoLGBN7VBqkS30D
1040,1112 Flat Rock Road,Louisville,KY,40245,atKPhIoeYm8MFPSd
1041,1800 East 63rd Street,Savannah,GA,31404,Zi1muSgUVE9E3Rjf
1042,100 Birney Street,Peabody,MA,01960,bnoTNT6TswyT6kHM
1043,29 Vista Flores,Pleasanton,CA,94566,X2vlqHtypCZnjR79
1044,6601 North 62nd Avenue,Glendale,AZ,85301,3qECjbkdu9Lr4mbb
1045,37 Parlmont Park,Billerica,MA,01862,jUXnAt1BA4dxvydI
1046,8390 Alkire Street,Arvada,CO,80005,ht8IyNqRsSdWdxt3
1047,2313 Mansfield Avenue,Del City,OK,73115,de4hf9MmMMAISy9l
1048,58 North Cove Road,Burlington,VT,05408,vSleAeOhYGzd2DZu
1049,1918 Spruce Street,Boulder,CO,80302,dPuvKHqXkwXBmtNI
1050,3110 East Victory Drive,Savannah,GA,31404,lzaOf4AaF12cCGSz
1051,523 10th Street,Greeley,CO,80631,qtYVaahPTEqWjDrm
1052,707 Harrisburg Drive,Davidsonville,MD,21035,EbvX92gK1GE7rbHA
1053,1317 Allison Street Northeast,Washington,DC,20017,H6HuWQ4XIlFWr6jp
1054,9506 Civic Way,Prospect,KY,40059,JhwPor7dbFstc6Jd
1055,105 Ridgecrest Court,Panama City,FL,32405,RQmogveWMzr9zqRg
1056,35 Pilot Knob Lane,Telluride,CO,81435,HR81qzWbF4LZcug6
1057,210 Depot Street,Woodford,VT,05201,tbgSwh7BceUYAgw8
1058,65 Hilltop Lane,McKinleyville,CA,95519,cdrvVUtg7iDWNVF8
1059,112 West Center Street,Fayetteville,AR,72701,Wmwrres370putZOr
1060,5650 West 60th Avenue,Arvada,CO,80003,GGFiCgxc5PuII4jI
1061,619 Colusa Avenue,Berkeley,CA,94707,No7x6CPFy7RBMgE3
1062,1879 South Cherry Hills Drive,Fayetteville,AR,72701,zMwN76fLqnVjBnsF
1063,31 Baileys Mills Road,Reading,VT,05062,4QW775JEUYain4VN
1064,313 Monroe Street,Montgomery,AL,36104,iGAB4rf2KqqsF2WB
1065,196 Ruth Street,Farmington,AR,72730,Z8eJiOUiwI4xhgJs
1066,52 Linnmore Drive,Manchester,CT,06040,CWaJofFQKRHgq35x
1067,6234 West 68th Circle,Arvada,CO,80003,fQ0d8gbGvL2KpAWD
1068,4920 Quonset Drive,Sacramento,CA,95820,v947iazeYXAfrLKX
1069,318 Lydall Street,Manchester,CT,06042,WE9sMJhhZEv86hRQ
1070,16412 Eastwood Cut Off Road,Louisville,KY,40245,xiZg7OBpH4i8GM5s
1071,722 Oak Grove Circle,Severna Park,MD,21146,kn5gPb00t7AnFATt
1072,90 Mountain Street,Bristol,VT,05443,3VBO9LbgscbQrYMu
1073,138 Bolton Street,Manchester,CT,06040,K4GyXBY2BUt1LkVf
1074,5011 West New World Drive,Glendale,AZ,85302,nD9pZh3hzDqnRlxR
1075,600 Crosby Boulevard,Midwest City,OK,73110,IBSKAdDr5SwPkVmr
1076,421 Madison Street Northeast,Washington,DC,20011,mFYUvRnfIYhqR9MG
1077,7301 Northwest 113th Terrace,Oklahoma City,OK,73162,JpOS3iYHLpluKGxh
1078,190 Exchange Street,Lawrence,MA,01841,IVJEXOSyWPHPB9sO
1079,6800 West Bell Road,Glendale,AZ,85308,rjjNjUzDhSJOkhJN
1080,207 Maple Hill Road,Shaftsbury,VT,05262,ogLfk7d1Ul0FGnW6
1081,88 Florence Street,New Bedford,MA,02740,5K2hIZXgjdKjfZgW
1082,205 Harrison Avenue,Louisville,KY,40243,8tcDfkFpuFfxqN1H
1083,1558 Goodfellow Road,Groton,VT,05046,zp34aipV7VMuSSgp
1084,1102 Spy Glass Drive,Arnold,MD,21012,ICTpFjxHJ342rBZN
1085,54 Gentry Court,Annapolis,MD,21403,mumhLEOsJdkCs1dB
1086,5624 Oakes Drive,Brentwood,TN,37027,DSkW6V7Pu1L2dXYX
1087,5108 Bass Place Southeast,Washington,DC,20019,daZwi4lbTHLL0LQW
1088,3436 Lexington Road,Montgomery,AL,36111,AxxDPLqCHzU7RfPD
1089,2815 Saint Edwards Drive,Nashville,TN,37211,7zQdLWwYwRQOh3ED
1090,158 Euclid Avenue,San Leandro,CA,94577,NpfIt7V7b6V32eHC
1091,45 Heathcote Circle,Savannah,GA,31405,FjkSbAWBoGzPKkzQ
1092,143 Canton Court,Goodlettsville,TN,37072,RWer8vrvGSc0wnrW
1093,4511 43rd Place Northwest,Washington,DC,20016,SlOwFGc0D5jlsP74
1094,238 La Salle Avenue,Piedmont,CA,94610,J2y4lnYaZZDMo9o8
1095,4510 Eastern Avenue Northeast,Washington,DC,20018,FupwexMPWZzJ9A67
1096,1350 Exley Street,Savannah,GA,31415,WSslbI6vAs8dQp5S
1097,880 General George Patton Road,Nashville,TN,37221,U4CUM3HG9KUzZOxJ
1098,801 Dale Road,Glen Burnie,MD,21060,YWAdhdJU3312PdRF
1099,207 Joe Street,Farmington,AR,72730,q82hMt4zTdeVPyPh
1100,1361 Barret Park Way,Montgomery,AL,36117,M5LONqOhucpIGYW3
1101,1433 Bretton View Road,Annapolis,MD,21409,mauKlAJmoseJ8Z9x
1102,6988 West Blackhawk Drive,Glendale,AZ,85308,8rqoUo9D6vBSYfNE
1103,14285 Wycliff Way,Magalia,CA,95954,MwNZxrUiz6pGaAoo
1104,5615 West Acoma Drive,Glendale,AZ,85306,9OatgIKcRWwXWvj4
1105,17800 Creekwood Lane,Choctaw,OK,73020,pMuRV7A7fhkwyspY
1106,2909 Minnesota Avenue,Lynn Haven,FL,32444,rnSzP08wl7pTJfzw
1107,3604 Ridgehaven Drive,Midwest City,OK,73110,S7nuzMLkCH2gvncS
1108,1056 Cayer Drive,Glen Burnie,MD,21061,Hn9TJcVaHM9mgn0x
1109,6221 Allison Street,Arvada,CO,80004,WP36s5bGyhLRhagP
1110,417 R Street Northwest,Washington,DC,20001,2WwAMGsMps3iq01Y
1111,1220 Crow Berry Circle,Anchorage,AK,99515,ZVID8V1jPuOPka70
1112,9008 Grayson Grove Court,Montgomery,AL,36117,rmMbQioF9BoTmje3
1113,91 Rushforde Drive,Manchester,CT,06040,8EzOzc5bk1riXRqD
1114,1937 Carleton Street,Berkeley,CA,94704,etnQCSJ1L44OPNHt
1115,618 Ava Circle Northeast,Washington,DC,20017,1GeYPB4ZZGcGBTJr
1116,3819 Vineyard Avenue,Pleasanton,CA,94566,kCiNahSwa7i1xcTG
1117,5609 Colorado Avenue Northwest,Washington,DC,20011,rUVcXl6FZdoGuzBs
1118,4001 19th Place Northeast,Washington,DC,20018,opAM55Os95ocDqlE
1119,25 Wendys Way,Harwich,MA,02645,cyg02WqSH2dIOYuk
1120,840 Fontaine Road,Derby,VT,05829,ItDLBIjvX9SAwDrr
1121,18 Curry Lane,Manchester,CT,06040,ZiRSOHA3SG52FRaz
1122,112 North Hunter Street,Farmington,AR,72730,ARBNMjwf6vmaE2mC
1123,8001 West 71st Avenue,Arvada,CO,80004,O1RrMINHJBLWbcqe
1124,77 Gerald Drive,Manchester,CT,06040,4JOlU8ioOqa6KwMa
1125,4050 Bryce Road,Nashville,TN,37211,Ai9dtVIZXq66nQm2
1126,2716 Fairmont Drive,Panama City,FL,32405,vgEYn3iXLpvTWtAR
1127,5124 Williston Road,Williston,VT,05495,3Wodzu3PoxZhvQdv
1128,1990 Poplar Ridge Road,Pasadena,MD,21122,u91hwZXcKJ14Z5IQ
1129,1001 6th Street Northwest,Washington,DC,20001,gN0dbUltWE2SjylH
1130,618 McLaws Street,Savannah,GA,31405,0MWM7Bed11dEBP6O
1131,10110 Landwood Drive,Louisville,KY,40291,vWn2NwnjpxnlQ9DW
1132,9306 Taylorsville Road,Louisville,KY,40299,t0kkhH7tT3Hww2LG
1133,7057 Old Southwick Place,Montgomery,AL,36117,8GVqNOduKRTZYJKu
1134,10332 Thuja Circle,Anchorage,AK,99507,AuOBlHpLnT7aIpoc
1135,5125 North 58th Avenue,Glendale,AZ,85301,gYvzAyvr4Xdz4ncu
1136,7111 North 75th Avenue,Glendale,AZ,85303,o2aIDWuv7arKqgrW
1137,323 Southeast 23rd Street,Oklahoma City,OK,73129,GK72KWsVNGChE9Ke
1138,6605 North 93RD Avenue,Glendale,AZ,85305,bERERt0xYG6dmjXq
1139,1731 West 18th Street,Fayetteville,AR,72701,KFUelp9qXLFY3foT
1140,146 Walnut Street,Manchester,CT,06040,Dzz5BrRxnpI0MnW8
1141,1313 Paulson Way,Nashville,TN,37013,RXJxgRd68pZqSvDP
1142,2400 Merry Street,Nashville,TN,37208,r60iTDMoVhYQnteO
1143,329 Mill Road,Montpelier,VT,05602,HXM1h4XfKWLgn35U
1144,38 Renwick Road,Melrose,MA,02176,XQJLoOAyWwuHlA0r
1145,10307 Rock Falls Court,Louisville,KY,40223,mTELYZZqlsht8KVN
1146,4001 Anderson Road,Nashville,TN,37217,BpADIGA4a98LFHmT
1147,64 Church Street,Hardwick,MA,01031,95GpxY0TcnYfjvox
1148,93 Marble Hill Road,Waitsfield,VT,05673,FFg68pcxq3ibNDn9
1149,1257 John Street,Nashville,TN,37210,ICDR8txaZJFQaeV1
1150,29 Church Street,Easthampton,MA,01027,NTZnXXltRdXIXbKI
1151,141 West Leslie Lane,Panama City Beach,FL,32407,fhoTbsomhIrlwUYn
1152,1629 South Razorback Road,Fayetteville,AR,72701,pgnAi64UJ8OCqD8b
1153,424 North Powderhorn Drive,Fayetteville,AR,72704,cmQwlLczEXzI7mpr
1154,2315 Kezey Court,Crofton,MD,21114,Fdty8EP0OXYAbXi1
1155,1030 Shawnee Street,Savannah,GA,31419,7wutTlG1eD5fzx4b
1156,6069 Jay Street,Arvada,CO,80003,Zm6t2NhZtDahNEAh
1157,3079 North Bentley Ridge,Fayetteville,AR,72704,9coBvHF1ZxZT9yJe
1158,205 Homestead Street,Manchester,CT,06042,OpAnzVt8Nkdil3Ls
1159,733 Georgetown Drive,Nashville,TN,37205,3YnhOeZJlWW4w85l
1160,6763 Depew Street,Arvada,CO,80003,prKiqVI16bnu5lrL
1161,8427 West Glendale Avenue,Glendale,AZ,85305,uh2gKpQHQ2UxAc5s
1162,5856 Parfet Court,Arvada,CO,80004,fbfcQoKuiirc4W1m
1163,9805 South Youngs Lane,Oklahoma City,OK,73159,Ttp3TL4U8HH2fGfz
1164,396 Berkshire Drive,Riva,MD,21140,2vmvABdzbZv40EZ0
1165,332 Stafford Road,Fall River,MA,02721,3JflzOy9jrFTffp8
1166,5113 Southeast 51st Street,Oklahoma City,OK,73135,F7IfsAJX7YPnmsWe
1167,1429 Harrison Avenue,Panama City,FL,32401,4LGeAIBDGARcdKQw
1168,421 West 1st Avenue,Anchorage,AK,99501,4hVJ8TKeyuhMPTso
1169,5275 North 59th Avenue,Glendale,AZ,85301,XZEt4HlErFhgFwex
1170,2245 Southwest Binkley Street,Oklahoma City,OK,73119,gt2jqyHHL567RiFv
1171,2409 Park Street,Selma,CA,93662,joIPQrEYrTdcO0WR
1172,51 Bearing Circle,Port Wentworth,GA,31407,gIL873XST4QUp56p
1173,8243 Daniels Purchase Way,Millersville,MD,21108,SKP3T12pRyLZ2sup
1174,508 Baker Street,Norman,OK,73072,giBAPmOUcQZXIs6J
1175,5036 Jericho Street,Hartford,VT,05001,UJwBQC9iVwYbAwMb
1176,6160 Norm Drive,Anchorage,AK,99507,z8OVu19HkacpNRFv
1177,1819 14th Avenue,Nashville,TN,37208,eA7OmXWvz5afsOKu
1178,3027 Badger Drive,Pleasanton,CA,94566,VVRzOWtQrnBphEPw
1179,1213 Michigan Avenue,Lynn Haven,FL,32444,ggJn6lUWspudfBl4
1180,1930 Churchview Court,Millersville,MD,21108,qPE9323hpMZLqOjj
1181,403 Irwin Street,Anchorage,AK,99508,kDJtokluMqIUUDm6
1182,353 O Street Southwest,Washington,DC,20024,ghSGO4XHnGXPrBZ9
1183,408 Pine Street,Bloomingdale,GA,31302,LcI0BlusyJ2dC5ca
1184,620 Veta Avenue,Pueblo,CO,81004,LXKvWhfUpLqr3Mmg
1185,1400 Doris Drive,Louisville,KY,40118,uHUASufC0KZa32m6
1186,111 Lakeview Terrace,Lynn Haven,FL,32444,skAnxO27bBzbp0va
1187,1699 Chatham Parkway,Savannah,GA,31405,Ymm15m1BmgjGfvDZ
1188,901 North Lincoln Boulevard,Oklahoma City,OK,73104,Blag80xBzpCtvDwg
1189,5715 Saint Matthew Drive,Newark,CA,94560,ANJStnugysQuF2S6
1190,680 Quintana Road,Morro Bay,CA,93442,l88FUYlUFjM4Movj
1191,5005 North Miller Avenue,Oklahoma City,OK,73112,ttLqyOV6gciKov55
1192,394 Hilltop Lane,Annapolis,MD,21403,A8I0hyjcjRao3U7K
1193,13501 Vasili Drive,Anchorage,AK,99577,7fK3dBOWPiHEu6Uj
1194,2811 Mechanics Avenue,Savannah,GA,31404,RwEOuAwM8Sq7LLu6
1195,4632 Vermont 15,Wolcott,VT,05680,PHAGko36TDDiOBbz
1196,13 Warren Avenue,Somerville,MA,02143,CXRYCLk8d1blgiLn
1197,2075 Archer Drive,Fayetteville,AR,72701,x4aPTU3wX8akbrRN
1198,2008 North Shannon Drive,Fayetteville,AR,72703,Y0KMsCHzMLeLJCFc
1199,7180 West Paraiso Drive,Glendale,AZ,85310,h8hkXJExoznqKCia
1200,75 Wilfred Road,Manchester,CT,06040,4ZdvodM61c0yjPtc
1201,6687 Xenon Drive,Arvada,CO,80004,eJknZLeO0mp1dNcc
1202,816 East 69th Street,Savannah,GA,31405,Ttbx4LqZ5DvFXywb
1203,1816 U Place Southeast,Washington,DC,20020,87FLcxVk6HnajDcu
1204,253 Colt Drive,Nashville,TN,37221,Dmhlc1VPHSOiNi0u
1205,324 East Drive,Montgomery,AL,36113,73GM0QcgCTvMx6Gu
1206,1701 18th Avenue South,Nashville,TN,37212,uMtj8sZ0QdrBN6KK
1207,5606 Olde Wadsworth Boulevard,Arvada,CO,80002,0AjMn3XkF6XQ74UY
1208,5316 Silver Wing Boulevard,Louisville,KY,40241,S3pWfJQDdDKoM6uF
1209,57 Bremer Drive,Glen Burnie,MD,21061,ncWYjM1JqkARD5EX
1210,628 Ayrlie Water Road,Gibson Island,MD,21056,MoPzYvCmJPY0cede
1211,9306 Norton Commons Boulevard,Prospect,KY,40059,OI9DRTWD2xauwvjU
1212,106 Parker Parkway,Mexico Beach,FL,32456,BVMjdk6lQGv6Iz7Q
1213,1532 Milvia Street,Berkeley,CA,94709,7266k9IJNFfAMA9k
1214,108 East 11th Avenue,Anchorage,AK,99501,v0WAK3ScsoZyFQD8
1215,519 Roxboro Place Northwest,Washington,DC,20011,nGPnQSyCHvAQ5CQC
1216,105 Courtland Drive,Montgomery,AL,36105,HjjT6AAvSxDMqkAI
1217,1954 Wilson Court,Mountain View,CA,94040,cReuu9cNPrJGuqXo
1218,5309 Darling Hill Road,Burke,VT,05871,Tz6Fed3AWCKwjAkz
1219,8351 Forest Drive,Pasadena,MD,21122,s7404MEs54GcofSS
1220,169 Wachusett Street,Holden,MA,01520,zySsNHjLwzF5UUBb
1221,32 Country Club Boulevard,Dartmouth,MA,02747,fdlK4IRa7t5HkdMG
1222,308 School Avenue,Panama City,FL,32401,6f3obDpuTMLyZJmY
1223,109 High Street,Manchester,CT,06040,5VS0HTbVcNfiDo22
1224,42223 Edgewood Street,Fremont,CA,94538,YT5zPjnYB5T1mU8y
1225,912 Locklayer Street,Nashville,TN,37208,pvwCzE9bqvcmcon8
1226,1613 Katrina Circle,Anchorage,AK,99508,9LOXAB4reZv1dHYk
1227,4936 Sequoia Avenue,Dublin,CA,94568,ooFV7Ajdagd0ZaLW
1228,29076 Little Big Horn Drive,Evergreen,CO,80439,BX9Oa6YOX0bCjCDC
1229,1505 Sweet Bay Trail,Panama City Beach,FL,32413,mZH2m3XqAsulP3bU
1230,119 Captain Chase Road,Dennis,MA,02639,zwu2gwC0CWKCeQHB
1231,270 Tampa Drive,Nashville,TN,37211,DwhUraOSZpLeLbZW
1232,6610 North 93rd Avenue,Glendale,AZ,85305,mZb9xCZzhusP5wCB
1233,3728 9th Street Northwest,Washington,DC,20010,PUoUY8oVhIrjZ4Jq
1234,165 New Hampshire Avenue,Somerset,MA,02726,9zBdPxbxvmliMmCo
1235,601 Farragut Place Northeast,Washington,DC,20017,vDYyAnrLTt0xocat
1236,8935 Cole Drive,Arvada,CO,80004,5IuUKDBPhAtdX60u
1237,6286 West Louise Drive,Glendale,AZ,85310,f9SBeMewd80dux05
1238,56 Concord Road,Manchester,CT,06042,9MqtiwIulWpu6jMW
1239,2849 Leawood Drive,Anchorage,AK,99502,jdmYfiriQ8TqtFzS
1240,3862 Almond Avenue,Fremont,CA,94538,6oqnYLmQR3hTfKSZ
1241,11 Eclipse Court,Alameda,CA,94501,8Bk44clGMwsgHfi8
1242,16244 Seville Park Circle,Anchorage,AK,99516,AoqnXC9frYSJR50Z
1243,369 Ruth Avenue,Mountain View,CA,94043,bhKS2793EBPECMoe
1244,1701 Foster Avenue,Panama City,FL,32405,PTI2Vs3MDl71V7a0
1245,350 Lydall Street,Manchester,CT,06042,fovpO8SlEx4qLLiK
1246,74 Bradford Road,Watertown,MA,02472,3KnOfJYY9eWPQFxD
1247,615 Sand Road,Severn,MD,21144,n4so4Ea5U1ljMFCp
1248,4960 Paddock Club Drive,Montgomery,AL,36116,G50jiGGtQbgUnFZR
1249,529 Wesley Avenue,Nashville,TN,37207,UL6GDeFERAquhgzH
1250,1904 Baker Court,Panama City,FL,32401,T7gHK2BDuh54d94N
1251,621 Northwest 94th Street,Oklahoma City,OK,73114,cwLQYX5RchDj2bxl
1252,1420 12th Street Northwest,Washington,DC,20005,NcgOY0mbcaSuG5BF
1253,6718 Keithley Road,Panama City,FL,32404,BdhN4pvHzWYsB41O
1254,6862 North 44th Avenue,Glendale,AZ,85301,AT5pe22sac5Q7iGg
1255,22207 Quinterno Court,Cupertino,CA,95014,CgpnM7nWgaGyAXnz
1256,8295 Moss Circle,Arvada,CO,80007,6zVpdxqo8svhTGt8
1257,66 Pine Street,Manchester,CT,06040,G7A2TYdqEJLzv0t6
1258,905 C Street Northeast,Washington,DC,20002,CzRPIprmGg1pVAoV
1259,109 East 64th Street,Savannah,GA,31405,Vof4f0zeTWeeFNE7
1260,1046 Dudley Avenue,Louisville,KY,40204,fPZwhQmHiHPOkfDB
1261,5410 McLean Drive,Elk Grove,CA,95757,YnOi1Yo6JiPumaMp
1262,864 Main Street,Worcester,MA,01610,LTDSiJhVjkPC6olY
1263,7013 Collinswood Drive,Nashville,TN,37221,iLILUvNg85ZZUhE6
1264,8101 Northwind Avenue,Anchorage,AK,99504,u28MAafZ7ja7UJJS
1265,2375 South School Avenue,Fayetteville,AR,72701,r9zXRfIbqGPMALdv
1266,190 High Street,Medford,MA,02155,GkO6zJ1nOG3voQbs
1267,134 Butternut Road,Manchester,CT,06040,06H3gRscp4qmStcu
1268,14 Linden Street,Manchester,CT,06040,t5xVOFyfgOb8GIAJ
1269,145 Saint John Street,Manchester,CT,06040,U1Cpv4p6jflMBzSQ
1270,3813 Vanguard Drive,Louisville,KY,40229,3VG50noa7kYAri3X
1271,201 East 16th Avenue,Anchorage,AK,99501,v5WoSRrhoFSwfjwL
1272,1552 Gibson Street,Montgomery,AL,36110,Mqwfzs5zNkU58f4s
1273,3801 North Ann Arbor Place,Oklahoma City,OK,73122,oNzRKKbRvC9YBgLT
1274,110 Central Junction Boulevard,Savannah,GA,31405,D8XWw4mUwaD7sHCH
1275,996 Ed Noble Parkway,Norman,OK,73072,fkiErPlGdYwo54X1
1276,190 Countryside Drive,Farmington,AR,72730,kx73bvJDoc2ClVl0
1277,3609 Meadow Drive,Nashville,TN,37215,IpnDIPkjU8PoBFjK
1278,2 Sotelo Avenue,Piedmont,CA,94611,5oIr2SbuF7UyIT7g
1279,410 Fairlea Drive,Edgewater,MD,21037,JOmQTpxnlPuuR1fS
1280,51 Edgar Road,Scituate,MA,02066,EEJez1hsjv1c1LzH
1281,1828 Ridgewick Road,Glen Burnie,MD,21061,ggp5j7Usc0hcdzNE
1282,44 Colonial Road,Manchester,CT,06042,muW41mFvamCbjEDr
1283,27 Cabbage Crossing,Savannah,GA,31411,Q9kTeS4p8kxWLeHY
1284,1801 Dodge Trail,Edmond,OK,73003,lETkgLrv0GqjcsFE
1285,3115 North Lake Boulevard,Tahoe City,CA,96145,MLxb1Moi7LXpuVAm
1286,1403 Robinson Road,Nashville,TN,37138,nASREqnoeijLU8Kk
1287,34 Free Street,Hingham,MA,02043,1Khs8IkZLi2vQ2qA
1288,12039 West 85th Drive,Arvada,CO,80005,IM8dhMonzCXG8Pf1
1289,1358 Scenic Avenue,Berkeley,CA,94708,yrhTKvCa7WvhviVN
1290,804 Dry Creek Road,Goodlettsville,TN,37072,XLc3q6QqgKZ2WfiV
1291,8716 Astrid Avenue,Louisville,KY,40228,nrpeMjcdJ1vSPWFW
1292,41 Fairway Drive,Tewksbury,MA,01876,UWqb2rTlN5Uny9WX
1293,6016 Northwest 27th Street,Oklahoma City,OK,73127,CbHjgQrxxNG67sZC
1294,8852 Broderick Street,Montgomery,AL,36117,YQqUJ14op5my4V8X
1295,928 Wright Avenue,Mountain View,CA,94043,LBPoWrajtgwnaOsr
1296,406 Ashwood Court,Vacaville,CA,95688,JTsE09uuX06nILyD
1297,108 Chalmers Avenue,Glen Burnie,MD,21061,SNoJ75n4u1tDtAjY
1298,100 Lake Forest Drive,Montgomery,AL,36117,QMfVECFV5K7jeBM2
1299,3102 Kinvara Lane,Louisville,KY,40242,qhQdLTB6GvvoSGgB
1300,11 Adams Street,Arlington,MA,02474,HFFLNQcSQFRYo4LC
1301,4182 North Valley Lake Drive,Fayetteville,AR,72703,kxoIWbHr8WbTTwsF
1302,8595 North 71st Avenue,Glendale,AZ,85301,SOYCxIHwNL7bEi9s
1303,450 C Street,Hayward,CA,94541,k9tJ4HxPk9yhnbXt
1304,4444 Central Avenue,Fremont,CA,94536,Zio93YwOvcC7PIUN
1305,12091 Mierkey Road,Jackson,CA,95642,9higb5qLXSSQJJZS
1306,992 Sherwood Forest Road,Annapolis,MD,21401,UY6xqXpNwFXfIJgd
1307,510 Leeanne Drive,Nashville,TN,37211,tSn0A1v4UqckPn0V
1308,1870 A Street,Oroville,CA,95966,wRtq4qtcTy1e41A8
1309,127 Andover Drive,Savannah,GA,31405,VphtvwzVrYqrPytf
1310,19259 North 61st Drive,Glendale,AZ,85308,kZcu6F7OMfj3OsHs
1311,3553 Brandywine Street Northwest,Washington,DC,20008,lp7w7yUf9Q4nwFcz
1312,6116 West Charter Oak Road,Glendale,AZ,85304,i6a7vgWRFyaevxsf
1313,2534 Willena Avenue,Montgomery,AL,36107,hqQQlZYd2yE3TGxr
1314,11 Alden Court,Roseville,CA,95678,3Ftwy9NpqgQogcma
1315,1489 Falcon Nest Court,Arnold,MD,21012,9GvdE3a6cklf9kUN
1316,1805 Meade Village Circle,Severn,MD,21144,EVxn85XjD4BSRZ7z
1317,5614 Kipling Parkway,Arvada,CO,80002,GPT4uqfkmNxjptjh
1318,6702 Johnny Mercer Boulevard,Savannah,GA,31410,DgLL7rnw7hzIpKu2
1319,1026 Orchard Avenue,Louisville,KY,40213,7WGKbWJPELz7fQol
1320,7106 Bear Creek Drive,Saint Matthews,KY,40207,NjdWurXabugjejXN
1321,5514 West Altadena Avenue,Glendale,AZ,85304,BjbOEbDr3mKFcdXw
1322,631 North Eastern Boulevard,Montgomery,AL,36117,SIvXfqrIyrS5W3Qx
1323,701 West 36th Avenue,Anchorage,AK,99503,Pm3VX6K0EHfdbUkO
1324,15 Taft Street,Quincy,MA,02169,9oxsyf77OWEAYNse
1325,731 Mumford Street,Anchorage,AK,99508,iJ0r7fasTCj5yWmp
1326,2086 Hillside Drive,San Leandro,CA,94577,tgIKQCYeceiQTQ33
1327,3189 Main Street,Mammoth Lakes,CA,93546,x7VqFNhmLUj6R1yW
1328,400 US Highway 98,Mexico Beach,FL,32456,ryf22vePlTpoufqC
1329,20097 Butterfield Drive,Castro Valley,CA,94546,pkvwNrSN2Ba3Wu4P
1330,10367 West 55th Place,Arvada,CO,80002,dzZVuMTeZGyiYoWp
1331,1414 East Anderson Street,Savannah,GA,31404,3vZEDz2i6fmL7E8c
1332,205 North Henderson Bend Road Northwest,Calhoun,GA,30701,L6g9T8ANee6TY2kT
1333,6100 Bullard Drive,Oakland,CA,94611,nLVI4wQAzKR2VtsV
1334,238 Brookley Avenue Southwest,Washington,DC,20373,SQcJLbxLp6nybX9u
1335,5549 West Hearn Road,Glendale,AZ,85306,W5J2v3n9Z8UejdMr
1336,433 Keith Street,Norman,OK,73071,MLWEWBU73Udc0zxz
1337,89 Frances Drive,Manchester,CT,06040,WxDuD6wgp1nOphnI
1338,1010 10th Street Northeast,Washington,DC,20002,2HzcIbRlRUYVfcS4
1339,1413 G Street,Anchorage,AK,99501,DC8Ye8BWxvLIE5yx
1340,2544 Worthington Way,Fayetteville,AR,72703,HaeUXBo1eTHbW8cQ
1341,4726 West Palmaire Avenue,Glendale,AZ,85301,jj0pVhrDs4KRFeXp
1342,21 Glenoak Lane Northwest,Glen Burnie,MD,21061,PFitwZlpl8oKMSaO
1343,325 Autumn Street,Manchester,CT,06040,wLwRACk55JdUM7vl
1344,420 D Street Northwest,Ardmore,OK,73401,iSqH9Uj6zNtNyYGv
1345,833 Williamson Road,Montgomery,AL,36109,ddoVjNacoT53bHv5
1346,3208 Southwest 65th Street,Oklahoma City,OK,73159,BGVDxHAPuUFPOpfO
1347,414 Tanya Pass,Panama City,FL,32404,ocQjYjaBPu5FHOas
1348,1726 Bridgeview Lane,Lyndon,KY,40242,gnldOmWN2B8ruhME
1349,7802 North Alsup Road,Litchfield Park,AZ,85340,XzNQQ7ivWhjUIchV
1350,5814 Carriage Brook Road,Montgomery,AL,36116,plwWbIZuNReh3KCR
1351,105 Bear Creek Parkway,Edgewater,MD,21037,ab0LL1c8VK7fh3Aj
1352,12064 West 61st Avenue,Arvada,CO,80004,iSju59JVDxcIQsjC
1353,4408 Northwest 55th Street,Oklahoma City,OK,73112,dW2q367ElMcRLG3t
1354,208 Southeast 19th Street,Oklahoma City,OK,73129,Fo8ICMvYQOL95ZiS
1355,2617 Truffula Circle,Norman,OK,73069,ewc0LQL8bGK807zu
1356,228 Common Street,Braintree,MA,02184,EblAmLgHydxO6u8h
1357,2355 Pearl Point,Fayetteville,AR,72701,MtgyXWDxFefiamEE
1358,1125 West 41st Street,Savannah,GA,31415,XLiJVMSK6wvA8a8L
1359,37122 Contra Costa Avenue,Fremont,CA,94536,wBXRIAE1LkXtIU1S
1360,235 Brock Bridge Road,Laurel,MD,20724,t07kahGfaEvn7tyM
1361,10911 Torrington Road,Louisville,KY,40272,StgMOE30nvQJOWEA
1362,7072 Quail Street,Arvada,CO,80004,m7FxHPdEHxrhgBpi
1363,10612 Middleground Road,Savannah,GA,31419,8AE0wcQ0HPBStYTt
1364,565 Amber Isle,Alameda,CA,94501,orzlsqmiLVGnloFo
1365,9302 West 58th Avenue,Arvada,CO,80002,vm03n3eQDlD0FVAG
1366,249 Progress Drive,Manchester,CT,06042,dqOn6uDlDupRbWE2
1367,4594 Champagne Drive,Fayetteville,AR,72703,zZuGDLCaeBgwjrWf
1368,1303 Buckingham Court,Louisville,KY,40118,XeE9m1EmVNcWsxb4
1369,6622 West Altadena Avenue,Glendale,AZ,85304,jAZm28KO2BaHew1Z
1370,211 West Oak Street,Louisville,KY,40203,ja7ejEt61QFcIIo0
1371,412 Lakefront Drive,Panama City Beach,FL,32413,kByOaU8KddeQttWa
1372,3030 Breckenridge Lane,Louisville,KY,40220,LSXzlm8BAoAFInH7
1373,521 East 4th Street,Panama City,FL,32401,5r8ddBgi8ibjXzwY
1374,1485 Hampshire Hollow Road,Poultney,VT,05764,ejNfbAxGftepLs8W
1375,115 Maple Street,Manchester,CT,06040,xXr7Gn2U5U0dRSxp
1376,4319 West Claremont Street,Glendale,AZ,85301,Y1RAoP94PQhPk60R
1377,3762 Royalton Turnpike,Barnard,VT,05068,pVjkwLQacynRibnE
1378,280 Blue Moon Crossing,Pooler,GA,31322,mowMji53w1muPqrz
1379,703 Elizabeth Barcus Way,Fortuna,CA,95540,NJuvFddhaI0FQ1lK
1380,4035 East 8th Street,Panama City,FL,32404,qoWPwk1gRLMZ338b
1381,747 West Pacific Avenue,Telluride,CO,81435,e7GSR1KcSJpsTD7m
1382,5701 North 67th Avenue,Glendale,AZ,85301,eHsmoIDGkqiVLQqh
1383,1456 North Coghill Drive,Fayetteville,AR,72704,PQTFTxh5caLfBdxB
1384,5803 West Gelding Drive,Glendale,AZ,85306,nlJGaAbLxOlaKsNz
1385,4 Marsh Haven Lane,Savannah,GA,31411,rqotxl1Wwswcco7l
1386,353 Cotswold Cmns,Norman,OK,73072,dkWdB2ILk16eM4ls
1387,465 Humboldt Way,Livermore,CA,94551,hSxp8cckQYAQUYx6
1388,16772 West 70th Avenue,Arvada,CO,80007,ASpt5p9WVSmk4gzP
1389,702 Plantation Circle,Panama City,FL,32404,dxlVu2IFQlX4XlSb
1390,7407 North 75th Drive,Glendale,AZ,85303,qmsobMOqrhDyCfHT
1391,11724 Rushmore,Oklahoma City,OK,73162,lme7RcL2NiTGfuYS
1392,7237 Wild Currant Way,Oakland,CA,94611,DGuTxEnNQZ76NoaK
1393,1236 Southwest 49th Street,Oklahoma City,OK,73109,EjemRnMQGuCB0bEH
1394,1002 Cedar Ridge Court,Annapolis,MD,21403,LpZ4Lm1DwmzBItwz
1395,625 West Main Street,Moore,OK,73160,G4TLyjqrP0D5THQo
1396,4401 Burlington Place Northwest,Washington,DC,20016,2xdGQZH7aYEolsch
1397,5936 North 80th Drive,Glendale,AZ,85303,Cfc5jBz4ASJMKqcl
1398,178 Phillips Road,Bourne,MA,02532,u0f8qk1dA1qJHTH6
1399,1123 Glenwood Avenue,Nashville,TN,37204,YtshbcKLKgUxxevv
1400,509 Sea Breeze Drive,Panama City Beach,FL,32413,U4FrO7jpShZJCzJG
1401,8347 Ames Way,Arvada,CO,80003,Pdnln7qK01lZche7
1402,4308 Princess Lane,Nashville,TN,37218,OFEm7ZDiGa4xpA3R
1403,184 Oak Street,Foxborough,MA,02035,5zsdLAMXYYK1p508
1404,5222 Nick Road,Shady Side,MD,20764,9obX65DTDVJSGyA8
1405,2246 West Fairview Avenue,Montgomery,AL,36108,3ZWQctDRWgy8jX35
1406,5128 West Carol Avenue,Glendale,AZ,85302,9zNce3dBrIWcQjtY
1407,1309 Southwest 71st Terrace,Oklahoma City,OK,73159,sl2OgP2VGoJmDNv3
1408,8513 Pipit Court,Montgomery,AL,36117,XBzuQNlDgC6jV3gk
1409,23 North Hill Street,Nashville,TN,37210,62IyjaIXc34WZxp8
1410,20 Dearborn Drive,Manchester,CT,06042,WqyBqGpkacfRVuLC
1411,12156 Oslo Drive,Truckee,CA,96161,XKHhM3dSNttcK8iQ
1412,2835 Jed Road,Escondido,CA,92027,biE6ixOhUBmupMes
1413,982 Stonington Drive,Arnold,MD,21012,2fCivnKoshflF728
1414,2577 East Wyman Road,Fayetteville,AR,72701,TVXny4FufVMY6kYn
1415,720 Southwest 2nd Street,Moore,OK,73160,lXFNnfr7YtM8lsyF
1416,4463 Cato Road,Nashville,TN,37218,naTewDAbwwzzyfXy
1417,15010 North 59th Avenue,Glendale,AZ,85306,m0XpeBDt7DIicyvf
1418,8112 Equestrian Drive,Severn,MD,21144,TeInKf3V9wm0CzDV
1419,803 Kay Lane,Lynn Haven,FL,32444,Jcep8DOYX6hPKM55
1420,5581 Nolan Street,Arvada,CO,80002,PSvGxURfhNp1Qtix
1421,7229 Lewis Place,Anchorage,AK,99507,qGlYEm00DeXyohkn
1422,6703 Bluffview Circle,Louisville,KY,40299,YOl9ST8l2h1USOFg
1423,1124 Jacobs Court,Nashville,TN,37080,4oVQBXuiOh1YKneI
1424,103 Martin Luther King Junior Boulevard,Fayetteville,AR,72701,vHRa2Apedl1XdhJ2
1425,230 East 8th Street,Edmond,OK,73034,2x2VcnF9qd4nZ7YF
1426,11985 West 56th Drive,Arvada,CO,80002,Cy3qU80nU5Dvv3D8
1427,5815 West Del Lago Circle,Glendale,AZ,85308,BE9172q77NmYV3eC
1428,736 Middle Turnpike East,Manchester,CT,06040,JCvrPwhWUsXFdFCS
1429,1304 Northern Hills Road,Norman,OK,73071,jpAlhiQbBeKV5auk
1430,200 Hialeah Drive,Glen Burnie,MD,21060,kqjZi6CbX5uu6wOJ
1431,275 Ridge Lane,Waltham,MA,02452,Ze6itDTynUlAx7DU
1432,174 Village Lake Drive,Pooler,GA,31322,tAUuKKbmkZCYC2Gb
1433,682 Brighton Way,Livermore,CA,94551,VGvdnJpUEBXHWlni
1434,9110 North 63rd Drive,Glendale,AZ,85302,hcBWFDP8J9nQHTHA
1435,1126 Oates Street Northeast,Washington,DC,20002,JUYtzvf05fEtEkik
1436,194 Buckland Hills Drive,Manchester,CT,06042,J2HXRvgb7x1nchxr
1437,105 French Run Road,Savannah,GA,31404,pgqFG24NEw4SXEXa
1438,8709 Peeble Lane,Louisville,KY,40272,PJMdEtLZWr3jiLbO
1439,815 Plantation Drive,Panama City,FL,32404,EeVIDY079FqfacTS
1440,141 Lavigne Road,Colchester,VT,05446,0gwrQl2Wv9mLGQzp
1441,112 Shannon Road,Colchester,VT,05446,mBqQ7KzOemzu2RmS
1442,82 Queen Court,Manchester,CT,06040,yuEpygBgwbkv3pdu
1443,702 East 53rd Street,Savannah,GA,31405,uzBJLrVuHicRUeRb
1444,341 West Tudor Road,Anchorage,AK,99503,RiRJ3PZcd7lUkpti
1445,305 Brookside Court,Manchester,CT,06042,1f7KWcZBINPNNW5a
1446,6118 North 60th Avenue,Glendale,AZ,85301,XnY4NB1pNYPCi3zq
1447,903 East 20th Avenue,Anchorage,AK,99501,gwfoxMOoPulvhxFu
1448,1427 H Street,Anchorage,AK,99501,COAerhDIxgG9niHF
1449,208 Solitude Circle,Goodlettsville,TN,37072,vtj21fSb3FyN329g
1450,2324 North Briarwood Lane,Fayetteville,AR,72703,thnXVgjDUMsSVOg3
1451,402 Tuten Avenue,Savannah,GA,31415,Vy4SeLPV5cIxaGsR
1452,5112 Southwest 124th Place,Oklahoma City,OK,73173,BIPhnws0ElycOF6l
1453,42 West Louise Street,Fayetteville,AR,72701,KFh6G64lulx3qft4
1454,6208 Ingalls Street,Arvada,CO,80003,PAhqhQaYU1LYb9Uu
1455,9 Thomas Street,Ashland,MA,01721,COUiYZawWlHzVLDj
1456,644 Byam Road,Bethel,VT,05032,j4dNEPTJnN769agJ
1457,401 East Northern Lights Boulevard,Anchorage,AK,99503,YPx0cTVpX8GN25AQ
1458,8446 Coors Loop,Arvada,CO,80005,slOGcSRRK7mEZHt7
1459,2309 Stearns Hill Road,Waltham,MA,02451,Pd9xBoSaNpfmLQHC
1460,85 Hokum Rock Road,Dennis,MA,02638,B4FzDUCxNvR2ggQK
1461,222 Holiday Circle,Savannah,GA,31419,yC36dSNbLYkkHt73
1462,3323 Summerhill Drive,Fayetteville,AR,72703,A7sNlco6ow3rxMb6
1463,243 Kentucky Avenue,Pasadena,MD,21122,KTLzLjgBlOEgpY72
1464,30 Tanner Street,Manchester,CT,06042,avNPuNqMILLq7gUa
1465,5124 E Street Southeast,Washington,DC,20019,E8lnap404jHxjMUN
1466,2750 Gilmore Lane,Oroville,CA,95966,bcI0Al3f1341FHkI
1467,921 Woodmont Boulevard,Nashville,TN,37204,KspsoOg6cDQzRd6g
1468,854 Cherry Trail,Crownsville,MD,21032,RjzrSkYHhlR0NdFc
1469,104 Lakeridge Drive,Panama City,FL,32405,P5ScddjGYfpyeiOJ
1470,240 Chatham Lane,Annapolis,MD,21403,INNQy01Zz4wbRwFC
1471,1233 Paradise Lane,Fayetteville,AR,72701,pk79sGlVIDpLG4fj
1472,1117 Everett Avenue,Louisville,KY,40204,jwanoescm07FvMoY
1473,172 Homestead Street,Manchester,CT,06042,pTWC4fW4LlXjsD4N
1474,6534 Benton Circle,Arvada,CO,80003,5LzWsly9iHPMxj9R
1475,33 Chesapeake Mobile Court,Hanover,MD,21076,AvGO3iIYZYbktOfK
1476,404 Summit Oaks Drive,Nashville,TN,37221,4XBFZ6VR2WkQfY8D
1477,507 Castlebrook Drive,Montgomery,AL,36110,rtUxEdqwlLStQk9s
1478,1352 Purdue Street,San Leandro,CA,94579,uv46c2PXb318biT3
1479,332 33rd Avenue North,Nashville,TN,37209,BPbBx7NCkMZHjckQ
1480,1405 Hickory Avenue,Panama City,FL,32401,KgqI6FtV0MXCQddl
1481,2313 South 4th Street,Louisville,KY,40208,LMnxZUU8fAX2r74f
1482,1145 Chaseway Drive,Pike Road,AL,36064,wDdj39M57AkmjCPf
1483,6851 Howard Avenue,Anchorage,AK,99504,gRFbn6TOEabYl7tG
1484,18426 West Carol Avenue,Waddell,AZ,85355,9QfyX8p9rp3f5AA7
1485,1303 Kearny Street Northeast,Washington,DC,20017,6KHqKUR8V9s3PQha
1486,7701 West Saint John Road,Glendale,AZ,85308,d3z11PWfGWSySUat
1487,1310 Riggs Street Northwest,Washington,DC,20009,rsQp9FpPOi22g0iH
1488,615 Long Hunter Court,Nashville,TN,37217,EawY2mPazW9DxYU9
1489,2130 Winona Avenue,Montgomery,AL,36107,rxccFUU4ZV69rDZT
1490,14505 Landis Villa Drive,Louisville,KY,40245,IBvJnAK0BqKcSwQq
1491,5337 West Wheeler Road,Fayetteville,AR,72704,7bIW90O8ctLP7TDA
1492,8772 West 79th Avenue,Arvada,CO,80005,FDz7gFpck4JcbYVs
1493,1622 Orchard Avenue,Louisville,KY,40213,Pgt97f7PQwzL1CQO
1494,8117 Mountain View Circle,Pasadena,MD,21122,bHgORB1MewI0sAdh
1495,115 Falkirk Street,Savannah,GA,31407,a3yotmfv0BBXDP2n
1496,6755 Mulberry Drive,Anchorage,AK,99502,a4wT8W9c6zjv6f1L
1497,4216 Park Boulevard,Montgomery,AL,36106,M0iHYPfJcGfTeNC7
1498,8673 Burkitt Place Drive,Nolensville,TN,37135,0eRtgT1b7n1eq3G6
1499,7809 Highway 2302,Panama City,FL,32409,UVeN4aALs4AxO7Ax
1500,2262 Hall Place Northwest,Washington,DC,20007,tQ8odB3n7cQEIJ76
1501,5908 Sedberry Road,Nashville,TN,37205,0mUtKSE1H9ugMHgr
1502,6522 Harlan Street,Arvada,CO,80003,B5vPngoobUsxNFwR
1503,2063 Notchbrook Road,Stowe,VT,05672,rLlkack3fzrVoTz1
1504,4000 Albemarle Street Northwest,Washington,DC,20016,PEvvQdtBf5K6oUa6
1505,215 9th Street Northeast,Washington,DC,20002,BLSXZH6vOH3d7csk
1506,3365 South Cato Springs Road,Fayetteville,AR,72701,Zrfz34pxVFmuKAlb
1507,1011 Irving Street Northeast,Washington,DC,20017,xV1dcgwGQpCcwXTd
1508,1914 Stratford Downs Drive,Montgomery,AL,36117,vVnwrnUU1wpLTgVG
1509,88 Pine Valley Road,Savannah,GA,31404,WAHjUv05X8bb0A01
1510,2650 East Huntsville Road,Fayetteville,AR,72701,xKbd9NSGtvwqITXo
1511,410 51st Avenue North,Nashville,TN,37209,SDgAkXgjNkRZS9nR
1512,7416 West Maryland Avenue,Glendale,AZ,85303,0qPcgVPiHs42gPo7
1513,72 Salmon Road,Alameda,CA,94502,rFQWs0uA17lhDT0P
1514,19 Keyes Drive,Peabody,MA,01960,dJFU4l4H0PYOeCa3
1515,4511 Sloat Road,Fremont,CA,94538,3iCaZlP8cZS38J2H
1516,7622 Vance Drive,Arvada,CO,80003,ufx1ZfQSwRI2jOX4
1517,2040 Innes Circle,Anchorage,AK,99515,anZcBDgSJEuJmbS3
1518,5708 West Union Hills Drive,Glendale,AZ,85308,RnixyJuEjCR2FI7B
1519,1817 Southeast 14th Street,Moore,OK,73160,7rUdlxwxK5yXrC9H
1520,3820 North Peniel Avenue,Bethany,OK,73008,rDxXz7PeN7csFjpJ
1521,4444 Hansen Avenue,Fremont,CA,94536,AuawgLZHQKXVeBHH
1522,9716 South Silver Lake Road,Fountain,FL,32438,FMpEitxP2fTUDXq2
1523,639 Saltzman Road,Severna Park,MD,21146,uINnWJl4KyxL055l
1524,8666 Iris Street,Arvada,CO,80005,6KItBXmNOo5AWE2j
1525,321 Kentucky Avenue Southeast,Washington,DC,20003,omwaYZl29kg0Vvch
1526,505 Tarpon Street,Panama City Beach,FL,32413,uIgSWGCapT85bO6E
1527,45 Parsons Avenue,Saint Albans City,VT,05478,p9FhH16au7zrhEYY
1528,802 Virginia Avenue,Lynn Haven,FL,32444,8zXcN6BUUoqmxj3p
1529,31 Hills Point Road,Charlotte,VT,05445,lxKY8en3PLLZc5xq
1530,2 Green Street,Underhill,VT,05489,12VWnwjGaHcSkprX
1531,3014 R Street Northwest,Washington,DC,20007,MWRbMx7MgAaTc08v
1532,86 Pine Street,Cambridge,MA,02139,65AU22Bn26N5lDrr
1533,91 Hoague Drive,Highgate,VT,05459,tz5csQDhWWD6MxbV
1534,3318 East Woodbine Road,Orange,CA,92867,khHgbpMFBjIskcQ9
1535,397 North Main Street,Manchester,CT,06042,i0ovNXu5LfBlFYCJ
1536,3810 Camp Ground Road,Louisville,KY,40211,gOXB59b96zZqcSsy
1537,51035 Conifer Drive,Soda Springs,CA,95728,Irjuur2Umkg2gA5M
1538,382 Ocean Avenue,Revere,MA,02151,ImOExLuM77zND0FI
1539,449 Saratoga Lane,Montgomery,AL,36117,kRvZdffIniEa22bE
1540,7085 Gladiola Street,Arvada,CO,80004,FMThhXyRaAYOuWJB
1541,4012 Heritage Place Drive,Norman,OK,73072,AbNauVYtycjIjjfs
1542,5959 North 55th Avenue,Glendale,AZ,85301,hF6jnrErW6Z0FU9g
1543,7822 West Peppertree Lane,Glendale,AZ,85303,MzAIfHA9cAqaSiWX
1544,83 Kennedy Road,Manchester,CT,06042,RJ9xhQadeu2y6Obr
1545,4341 Ponds Street Northeast,Washington,DC,20019,T87ocaPRarVnYXX8
1546,3394 Wilmington Road,Montgomery,AL,36105,7PyXuo0TczF5SQK8
1547,8597 Bay Road,Pasadena,MD,21122,YhjUDDcwGGViIab8
1548,35805 Alcazar Court,Fremont,CA,94536,xt84oNHbhG4tddab
1549,4809 Trappers Ridge,Nashville,TN,37013,BLGw9touKfrpQiVj
1550,521 McGregor Court,Montgomery,AL,36117,GMQPidkACTOJSiPv
1551,12 Saint Andrews Crossover,Severna Park,MD,21146,nvSQHmUgo7B5ps8B
1552,702 Farragut Street Northwest,Washington,DC,20011,PGd1X8zMZbB3wW28
1553,6514 West Golden Lane,Glendale,AZ,85302,sy2NqJFoepkUaDjY
1554,6029 Wright Street,Arvada,CO,80004,0tYNk5YcvcgSNfiq
1555,6 Little Country Place,Savannah,GA,31406,yZiDPBOgJbs6k0of
1556,3600 San Sebastian Court,Punta Gorda,FL,33950,3ddmv3CdBmZHV3KE
1557,1109 East 35th Street,Savannah,GA,31404,FMCuYmRZdTaXwmei
1558,345 Tattnall Street,Savannah,GA,31401,blp3ZYZJxl07hs0R
1559,63 Columbia Drive,Manchester,CT,06042,j6elMHhNHZgRQHBL
1560,1333 Farragut Street Northwest,Washington,DC,20011,r1VHboLMKvQHJIgw
1561,1357 Addison Street,Berkeley,CA,94702,Y7EVhPnLhjrjLi8T
1562,1600 West 11th Avenue,Anchorage,AK,99501,7I5MsRAXtkkrD9Mt
1563,1040 University Avenue,Berkeley,CA,94710,786bXactYSmZ8mS8
1564,3808 South Smiley Circle,Montgomery,AL,36108,DcFRvBQs5vvhW1li
1565,301 East Court,Savannah,GA,31404,RlVCbd45eyvrb8GX
1566,165 Quincy Shore Drive,Quincy,MA,02171,dQyxTs9g9ZogToeP
1567,7905 Old Heady Road,Louisville,KY,40299,DguBhH5gJyDqoqto
1568,2902 North Gregg Avenue,Fayetteville,AR,72703,pjZJvdOucAgDtccv
1569,113 Dove Lane,Savannah,GA,31406,cdnY8AvfHKSggSye
1570,154 Lyness Street,Manchester,CT,06040,fKid7zFjmk7hIUlq
1571,1920 Bladensburg Road Northeast,Washington,DC,20002,ItOFh7Wcw2rwBq7o
1572,7435 East Tulare Avenue,Fresno,CA,93737,oq9BJYQx6ZxLgjl6
1573,618 Amberjack Drive,Panama City,FL,32408,CF7WwiyXaEaTbhMM
1574,325 Alexander Drive,Lynn Haven,FL,32444,EmBFP8pmIfWOM4BX
1575,314 Cherrywood Drive,Moore,OK,73160,mqDgnHD4KFRjX9TU
1576,199 Spencer Street,Manchester,CT,06040,GNutRkqlmoonuvfG
1577,6419 8th Street Northwest,Washington,DC,20012,MOc6rsiwva4cakWb
1578,6040 West Kings Avenue,Glendale,AZ,85306,njyTNNzWz2kEAX2C
1579,13005 Mills Edge Court,Louisville,KY,40272,l9zulLvNOdpxVQOg
1580,5921 Ashwood Bluff Drive,Louisville,KY,40207,WGWdwkGanTyfycA3
1581,27 Leary Drive,Savannah,GA,31406,85siTIjMVtaacjuQ
1582,2013 Talbot Terrace,Montgomery,AL,36106,n3XmFUTvTv63C3gv
1583,7968 Newman Street,Arvada,CO,80005,4aKw4BroYaDLIiuX
1584,2317 Fernwood Drive,Nashville,TN,37216,939338JpCjSHdTLm
1585,13852 West 66th Place,Arvada,CO,80004,uw9cy0An3EUnLpmI
1586,57 Birdie Lane,Tewksbury,MA,01876,MtiJGLdI3KXcKPe8
1587,814 Coachway,Annapolis,MD,21401,apOYYHafrjlDAOUn
1588,2620 West 33rd Avenue,Anchorage,AK,99517,ibnulEXCfwHKd7v7
1589,15 Lakewood Drive,Thunderbolt,GA,31410,uYtdfLwKkzKaohn8
1590,2909 Flamstead Road,Chester,VT,05143,napMJR2zd8L2JM6X
1591,45 Brackett Street,Quincy,MA,02169,YynUC3BMK1KvK9zd
1592,6073 Harlan Street,Arvada,CO,80003,xLs9gXFCogz8GeTx
1593,7703 Aragorn Court,Hanover,MD,21076,tfIcAdqZOIiVQN3S
1594,107 Mark Drive,Glen Burnie,MD,21061,TODoCimoOiv8HPWg
1595,922 Judge Court East,West River,MD,20778,0it2J076GJtSZ2KD
1596,4911 Alameda Street,Panama City,FL,32404,4wGW8ciORNAkWu7g
1597,53 Greenwood Avenue,Wakefield,MA,01880,vGiFB2Kj2wajhGad
1598,5024 West Christy Drive,Glendale,AZ,85304,mwb8maiMhmdBXxTX
1599,406 North Hammonds Ferry Road,Linthicum Heights,MD,21090,ifHx0XwXvKiRDkFJ
1600,1821 Catalpa Way,Hayward,CA,94545,q7Nh0jI4kK6k1LOk
1601,7770 West Bell Road,Glendale,AZ,85308,Ve0eR7nL1se25e93
1602,108 Springer Lane,Yarmouth,MA,02673,iUG2MCkphvp5OAih
1603,10725 Sunset Boulevard,Spencer,OK,73084,zoiT8VX3r2NIB3cD
1604,1200 S Street,Anchorage,AK,99501,d4QOCT05N7cmpVwm
1605,1207 Branch Lane,Glen Burnie,MD,21061,AoYa44VyxdQxgaZW
1606,2502 Adrienne Way,Louisville,KY,40216,DyXYtIRZ4TLWiCYV
1607,1917 Whitaker Street,Savannah,GA,31401,vrJrUtReYvqj3Rd6
1608,1256 Talbert Street Southeast,Washington,DC,20020,AkaFBs8vJyO4VfjB
1609,3300 Crystal Road,Montgomery,AL,36110,CGHdm7a0XPj6kGPK
1610,55620 Jolon Road,King City,CA,93930,NNGE6t6d4ciaw4eV
1611,1076 Foster Street,Alameda,CA,94502,3Nw5mKBVvcElzdq1
1612,8573 North 63rd Drive,Glendale,AZ,85302,OadnxRYQ8JWuJqja
1613,5632 West Acoma Drive,Glendale,AZ,85306,l8iAa2n6oD6kHfW8
1614,517 Glenpark Drive,Nashville,TN,37217,N71pgLRjcwdqexxM
1615,709 Mildred Street,Montgomery,AL,36104,zU8kdiCKGqCYsLgn
1616,37 Kensington Street,Manchester,CT,06040,CIBKurU6uEtfSeSl
1617,1416 Ridgewood Avenue,Panama City,FL,32404,iGpBFa9RK1LXb5h3
1618,7310 East Chester Heights Circle,Anchorage,AK,99504,Qk89qlbxSCyhY3BL
1619,240 54th Avenue North,Nashville,TN,37209,ZpzCyWYKbJD2CMmw
1620,6276 Devinney Circle,Arvada,CO,80004,5eNsahq1n69r0upI
1621,6206 Waters Avenue,Savannah,GA,31406,b0tWNAvdE91bipnT
1622,13116 West Palo Verde Drive,Litchfield Park,AZ,85340,s4fCdEtHceNZzeB7
1623,112 Mallard Drive,Savannah,GA,31419,c5ypN3IEZ3ZO3Ftb
1624,4010 Governors Drive,Montgomery,AL,36111,QlC19RRb99egHZ1E
1625,3604 West Market Street,Louisville,KY,40212,rcUhUiy1g3K4xfSo
1626,349 North Sabine Pass Road,Fayetteville,AR,72704,enlwU2WidVnIoknf
1627,7912 Depew Street,Arvada,CO,80003,86LkIWN8Myim9bIw
1628,23128 Donalda Avenue,Port Charlotte,FL,33954,eDDGXfQ6lYjOpKrn
1629,44 Elm Street,East Longmeadow,MA,01028,E7mXKdUsRW01pTu0
1630,9912 Shirewick Way,Louisville,KY,40272,2X3kfcr1q5imKIqv
1631,2732 Humboldt Avenue,Oakland,CA,94602,DZBVnOx00OD5EtwD
1632,2500 Medallion Drive,Union City,CA,94587,PNNwjvix8NRhEvMd
1633,46 Lilac Street,Manchester,CT,06040,7cqEhsnY8nZsVOSg
1634,3541 North Road,Maidstone,VT,05905,dllCXr2TM4ch3owZ
1635,1318 22nd Street Northwest,Washington,DC,20037,RBuRDYK7BtH26zZo
1636,3408 Taylorsville Road,Louisville,KY,40205,G9rq2fMR9q9AgjQM
1637,7851 Snow View Drive,Anchorage,AK,99507,NWDGmfTGB3Fh4V7U
1638,1900 Lincoln Street,Savannah,GA,31401,OAEhsPpRprB2ATmQ
1639,2740 Collie Hill Way,Anchorage,AK,99504,9iU2TOVDJAf65OUo
1640,7 Vantine Avenue,Alburgh,VT,05440,rHaw7KFfRndcwnFh
1641,5161 Jefferson Boulevard,Louisville,KY,40219,6csl1GlDRS8UcZ9S
1642,57413 Taku Avenue,Homer,AK,99603,Iab32rcsbHoGMhHy
1643,13360 West 83rd Place,Arvada,CO,80005,FjPzWJaBZJucQyzW
1644,6215 Sheridan Boulevard,Arvada,CO,80003,fBc5zzEEML0zjuCH
1645,175 Oak Street,Manchester,CT,06040,CfpUY8OVDiZkshfm
1646,20933 River Park Drive,Anchorage,AK,99577,lDEdXvze4c1JUApj
1647,66 Troy Avenue,Colchester,VT,05446,Fm9cQ4KYdhWLUpiW
1648,4329 Howe Street,Oakland,CA,94611,zDY2UY4HF5MbK9iM
1649,235 Hugh Thomas Drive,Panama City,FL,32404,U5YZEVzaSv16COY6
1650,2278 North Windswept Lane,Fayetteville,AR,72703,x7UGlxvNeI1VIqxK
1651,1114 Barley Drive,Montgomery,AL,36111,OkYmtkOfdpLs6CpB
1652,43 Howarth Avenue,Attleboro,MA,02703,0INS6UP36n4V3SsV
1653,2032 4th Street Northwest,Washington,DC,20001,MnsJ2zj3vuO3xyu4
1654,204 Blue Hills Drive,Nashville,TN,37214,CzPvWMr1nIc73h3X
1655,881 Main Street,Manchester,CT,06040,9oB787Onj6GzBA3G
1656,3425 North Futrall Drive,Fayetteville,AR,72703,FsLSfIYS2YQ5E0ul
1657,519 Emerald Drive,Savannah,GA,31415,gRHg5R5F2TUzRuj6
1658,2464 Windham Hill Road,Townshend,VT,05359,abEFbftnAZpyNSQ6
1659,1478 Sharps Point Road,Annapolis,MD,21409,fHAPFFJeTP8mSGyI
1660,3337 Woodpark Court,Montgomery,AL,36116,lcPxgc8KxLgNo0RE
1661,16303 Mateo Street,San Leandro,CA,94578,3d8CAyZA2F5eyxjZ
1662,111 20th Street,Mexico Beach,FL,32456,PgUtinTEfvWSKizI
1663,16910 Alpine Drive,Pioneer,CA,95666,WbN5Wx34lVwIXKRM
1664,5685 Express Drive,Montgomery,AL,36116,2GB2d5rzzVCj4Qsd
1665,4409 Star Jasmine Court,Bakersfield,CA,93304,D6sYtrjGceXDjGfZ
1666,8300 Dover Way,Arvada,CO,80005,Bsk2R1RuuFhgZG9q
1667,439 Crestmont Drive,Oakland,CA,94619,9c55CM2P6GQuu04K
1668,1666 South Summer Rose Avenue,Fayetteville,AR,72701,yEF6Ggfrp249cRVS
1669,525 Middle Turnpike West,Manchester,CT,06040,wWWUFzxUJ6EwOEjl
1670,4516 Old Seward Highway,Anchorage,AK,99503,59zP0iQID0CKOnDK
1671,6716 South Mariposa Lane,Dublin,CA,94568,Rsjjs0P8RQh0bUYq
1672,40 Highwood Drive,Manchester,CT,06040,5qEIT50nr0ZmWvqo
1673,32 Royal Drive,Louisville,KY,40214,YFhvQdKNYoC2d7ZP
1674,4728 Rockland Trail,Nashville,TN,37013,TWtpS5q8GMMay4CK
1675,200 West Center Street,Manchester,CT,06040,7fe52xKRUnuLW7mH
1676,1708 Melody Drive,Midwest City,OK,73130,kNyw1SE9S2637iLu
1677,654 Laurette Place,Hayward,CA,94544,WV6JrfZjZQwvJaaI
1678,815 West Market Street,Louisville,KY,40202,RgCllYcqccMXGzeR
1679,7003 9th Street Northwest,Washington,DC,20012,R9ZFF4cljuqqbNYS
1680,468 Raymond Drive,Ione,CA,95640,KywyAX2laXVqKz5w
1681,6802 North 67th Avenue,Glendale,AZ,85301,TBZM9y4VMK3AGL13
1682,756 Neponset Street,Norwood,MA,02062,ckg8PPqVIJneGyav
1683,241 Methuen Street,Lowell,MA,01850,5Of3OOaTP9osu1sP
1684,3111 Gentilly Court,Montgomery,AL,36116,2YO7T462Km8ZxqIh
1685,5619 Clay Place Northeast,Washington,DC,20019,p3rWa8W4Z73vmHvG
1686,208 Timrod Road,Manchester,CT,06040,vOjcuTXREJW2Tmbc
1687,43626 Bryant Street,Fremont,CA,94539,XuVDyWmVzE91ZNHw
1688,2521 Naylor Road Southeast,Washington,DC,20020,oTMMjoasD1VPsXrG
1689,49 West Street,Bolton,VT,05676,a6I0Ju4YBQaWYEAP
1690,4513 Beth Manor Drive,Montgomery,AL,36109,KrPSBcfWXCqBlzXY
1691,5725 Medallion Court,Castro Valley,CA,94552,rzQXmI5YUXa4Lna4
1692,8036 Laketowne Court,Severn,MD,21144,tyznTPAOcipYY4e6
1693,95 Claiborne Street,Nashville,TN,37210,JBp7GFz39gQVdSxx
1694,2713 Mitscher Road,Washington,DC,20373,XnycKAwDUySiqFJI
1695,6013 Cherry Hill Road,Montgomery,AL,36116,jEn0laVcBjfgEmYN
1696,9605 West 62nd Place,Arvada,CO,80004,gKkbCKfOd7kog3aY
1697,95 Forest Avenue,Brockton,MA,02301,v6YEWcXGQnW8xr6r
1698,3420 Horseshoe Circle,Montgomery,AL,36116,dTbnuL7erVseBQjE
1699,77 Weaver Road,Manchester,CT,06042,TYpqscaVn3xnrgII
1700,233 Ingraham Street Northwest,Washington,DC,20011,Deiu3GOZVDopkKOa
1701,612 Penn Lane,Moore,OK,73160,TvAb6aaOuCKaUuN2
1702,5634 Kipling Parkway,Arvada,CO,80002,WXXgXVmdw8emP2CN
1703,7321 Mary Jo Avenue,Panama City,FL,32409,NToX9Cczm6hgKn7k
1704,1938 Arcadian Street,Savannah,GA,31405,zSaBPTdKPH0EWUBf
1705,10151 West 64th Avenue,Arvada,CO,80004,huZIdgQEg6GCimmZ
1706,149 Lenox Street,Manchester,CT,06040,Nh1sI49uInXtrHYc
1707,798 Airport Road,Panama City,FL,32405,yVXSrFNacPPCeOr4
1708,180 Center Street,Manchester,CT,06040,kShvV2lfEqlRGls0
1709,19 Murray Road,Essex,VT,05452,kKG2pxLv2D3z14N8
1710,6057 Griffith Avenue,Linda,CA,95901,347y0Ak8enC7AXCg
1711,1753 Carswell Court,Suisun City,CA,94585,OcSizvkxpcCWTYqQ
1712,3060 Zelda Road,Montgomery,AL,36106,FkRFRFThnJdELx3x
1713,10700 South Pennsylvania Avenue,Oklahoma City,OK,73170,BhRsCwH4mJQGDFun
1714,5804 West Abraham Lane,Glendale,AZ,85308,lwhYi5VIEqNPR9ue
1715,17361 Baronoff Avenue,Anchorage,AK,99577,nxJAE43Ml7l7kOfB
1716,4560 Hurlston Drive,Montgomery,AL,36116,OgEONFuwjHRmFrvm
1717,7703 Laird Street,Panama City,FL,32408,2e5r1rJbz10tnhua
1718,67 Steeplechase Drive,Manchester,CT,06040,P3eV1iAyGAxJQ8uj
1719,27 Church Street,Manchester,CT,06040,XW5DjS0By7R7dt3a
1720,5136 Gaines Street,Oklahoma City,OK,73135,bxkhm7LroRqSmmz3
1721,6821 Northwest 25th Street,Bethany,OK,73008,psV4ktAObHCbQ2Mj
1722,129 Glen Street,West Brattleboro,VT,05301,yvSaPekjSGcCMfJW
1723,750 West Dimond Boulevard,Anchorage,AK,99515,TD65YpIdhYUcSNDQ
1724,8506 West 54th Avenue,Arvada,CO,80002,mnyNN0OEApKJFVER
1725,525 Merrill Lane,Dracut,MA,01826,pqSEMEggRgCzZ5eJ
1726,1456 East 39th Street,Savannah,GA,31404,lwyX0LE1M1n6hf3y
1727,6452 El Camino Real,Atascadero,CA,93422,e06qBkIL4Qyldbae
1728,93 Alpine Avenue,Oak Bluffs,MA,02568,Mg8JhHoVf2IuE7AV
1729,1425 Claremont Circle,Savannah,GA,31415,evDCTVysjl8GROgq
1730,1363 Dean Forest Road,Savannah,GA,31405,zNhAr0O3uWqMpTp9
1731,208 Bonita Circle,Panama City Beach,FL,32408,9fQSzibJmy1loUHb
1732,1217 Cottondale Road,Montgomery,AL,36109,AvQTsJilSUxGlYDS
1733,1823 Dinger Road,Annapolis,MD,21402,8igZCSD2WXpCiSpy
1734,788 Williamson Road,Montgomery,AL,36109,mV843JaC21aDvA63
1735,150 Meadowview Street,Marshfield,MA,02050,wsIqij3CvDC2r791
1736,5611 Kendall Court,Arvada,CO,80002,sBTH5BHwO7QxUJBf
1737,2201 Ontario Road Northwest,Washington,DC,20009,n44XfYeqebPkfqVj
1738,6606 North 52nd Drive,Glendale,AZ,85301,60ggqNsqoVsV2yWf
1739,1852 Cherry Road,Annapolis,MD,21409,V1hQYKtHHvUpEgLn
1740,7000 Hugh Drive,Panama City,FL,32404,nLQ9j1LZaEmz5hG7
1741,115 Colemont Court,Nashville,TN,37013,txe2oKY9UBGvg6o5
1742,6611 5th Street Northwest,Washington,DC,20012,cA1EkQ0cz8mIvD1D
1743,1523 South 9th Street,Louisville,KY,40208,rKed1ARbHlk1iv2G
1744,185 Longview Road,West Tisbury,MA,02568,DYgkTDbsuhywRYUY
1745,123 Villa View Court,Brentwood,TN,37027,Eu43162LF19Z4MxK
1746,33300 Mission Boulevard,Union City,CA,94587,x42qLPWHSEq466wG
1747,1205 Southwest 128th Street,Oklahoma City,OK,73170,V7aab7x9frniI1Bs
1748,612 E Street,Marysville,CA,95901,QyiZj3HniqahuAcN
1749,760 11th Street Southeast,Washington,DC,20003,DpxwoDk1dVh4jZSA
1750,29 Lucian Street,Manchester,CT,06040,SbmbmXn7BSWtytY6
1751,2140 East 56th Avenue,Anchorage,AK,99507,SmfN4ZJPEjtqkwqa
1752,5516 West Indore Drive,Littleton,CO,80128,qIn8rmxpbxuNz2jk
1753,306 Rural Hill Court,Nashville,TN,37217,VXrcr1o7l14DaZCu
1754,2307 East 72nd Avenue,Anchorage,AK,99507,UiUZqEaDojq3cL9y
1755,20241 North 67th Avenue,Glendale,AZ,85308,xJgJhaCKwyWh1Cem
1756,1349 Burkhart Avenue,San Leandro,CA,94579,4GeP2StW41JuSb3d
1757,606 National Street,Fayetteville,AR,72701,QMoKiEeeBMy8lBA0
1758,5415 Frank Hough Road,Panama City,FL,32404,dB1y2yU6QWv4ynVY
1759,2325 Eastridge Circle,Moore,OK,73160,bDQrXLX8rt8FGBrB
1760,5331 Rexford Court,Montgomery,AL,36116,9ENXcZCfeI0BcoL2
1761,3521 Stargate Circle,Anchorage,AK,99517,qhFOctQt41tDFD84
1762,1515 Excelsior Avenue,Oakland,CA,94602,KBAXVFbYBhk3XtEH
1763,40700 Penn Lane,Fremont,CA,94538,bQmJV6yVhIL8ZzGl
1764,813 Holt Grove Court,Nashville,TN,37211,Sakfo9LYS5rYrsiQ
1765,430 Cornish Drive,Nashville,TN,37207,qhuGB4QLOsRXrmWo
1766,2613 Cottonwood Street,Anchorage,AK,99508,9PXn61e6TpMkEOG7
1767,7822 Club Crest Drive,Arvada,CO,80005,tqj7UdIJxRgsbHJP
1768,2613 Southeast 50th Street,Oklahoma City,OK,73129,bNNuSeaqFe1tgiUH
1769,103 Chevis Road,Savannah,GA,31419,AbRlcee4FRyaa5TX
1770,3138 Banneker Drive Northeast,Washington,DC,20018,EfxADJZAe8MFoAO7
1771,228 Wood Street,New Bedford,MA,02745,AuGNa3zEKD72aTlu
1772,7321 East Chester Heights Circle,Anchorage,AK,99504,TrZz8zb5hjzVXIBM
1773,15510 Champion Lakes Place,Louisville,KY,40245,whg2ncvRSPzCgCtO
1774,17109 Guava Avenue,Panama City Beach,FL,32413,Ozobc847iHlVSZvE
1775,721 Vermont 5A,Westmore,VT,05860,5SD19jukciOccDsS
1776,5 Hibiscus Avenue,Savannah,GA,31404,pMlzaZbkoHPqdVky
1777,10763 West 54th Place,Arvada,CO,80002,xOMA5XdOMXNNOWKu
1778,4207 Ranch Drive,Edmond,OK,73013,hj2BQ4qAaepqSbBG
1779,8216 West Citrus Way,Glendale,AZ,85303,IjZiwIbFRZZ5Cl11
1780,200 Edgewood Way,Louisville,KY,40243,I1O1qcl3CRBM341D
1781,1890 Orchard View Road,Roseville,CA,95747,bNlvGjtwCeA41Ygn
1782,10654 North 60th Avenue,Glendale,AZ,85304,jpg3gIjxOVQ34VEF
1783,7187 Holland Court,Arvada,CO,80005,KQQ3XCVngKMQdUaz
1784,600 West North Street,Fayetteville,AR,72701,6gRh2wEUG7ZqF1TG
1785,5510 Montgomery Street,Savannah,GA,31405,5uKegmsnBtnEquel
1786,1405 East 55th Street,Savannah,GA,31404,snftJ9qFGUAkfOVm
1787,2845 Zelda Road,Montgomery,AL,36106,BZK2jpdWL9FH5A8k
1788,7131 North 67th Avenue,Glendale,AZ,85301,AT1lItMVq6y8Q0lH
1789,135 Pond Road,Shelburne,VT,05482,hNvJXqK3iQXuDaLe
1790,2224 East Tall Oaks Drive,Fayetteville,AR,72703,VYCGnHn2qNr21n2c
1791,13931 West 87th Drive,Arvada,CO,80005,JACdLb1MUFyHSxVi
1792,201 Lee Boulevard,Savannah,GA,31405,aqR9AeHTDm3gMOMf
1793,401 Fairhill Court,Annapolis,MD,21403,kpliIPRIiF9opzky
1794,645 Governor Bridge Road,Davidsonville,MD,21035,MxuUcI6EBHhMf33c
1795,3388 Thomasson Lane,Fairfield,CA,94534,DjRkvkw8xkJonhj2
1796,1460 Berger Street,Odenton,MD,21113,cD5E9MMORg5CQ89w
1797,1226 Blossom Circle,Livermore,CA,94550,dfAaKlFGgJnenGcs
1798,9828 East Pueblo Avenue,Mesa,AZ,85208,tW83yyGHBjC1jgEs
1799,634 Chautauqua Avenue,Norman,OK,73069,pkKclFaRaIYNHVvx
1800,313 Post Road,Rutland,VT,05701,wQjmGZ1Yssjtbzmc
1801,223 Main Street,Nashville,TN,37213,iwn7HVB7z5MJ3Uvu
1802,4032 Windwood Lane,Nashville,TN,37214,ilXGn3h3yUK6grhA
1803,201 West Street,Annapolis,MD,21401,M53QN9QtvtwxmE7c
1804,11 Water Street,Holbrook,MA,02343,3HXhA6dPrKqYjKO1
1805,3500 South College Avenue,Fort Collins,CO,80525,KNQoYQyFWMhwDil8
1806,940 Ironwood Drive,Montgomery,AL,36117,6fYfP4TBA0XeZuoT
1807,824 Main Street,Manchester,CT,06040,DllMJJyK6gDkdBgA
1808,332 Concord Avenue,Cambridge,MA,02138,K2drSvYriOImhC1G
1809,1811 1st Street Northwest,Washington,DC,20001,sS0ZcQ2cGrebKdO3
1810,3415 Brookdale Drive,Santa Clara,CA,95051,h7D28pTUqke96vo2
1811,664 Irving Street Northwest,Washington,DC,20010,ylsX1Dfr830YgNdn
1812,1136 Northwest 31st Street,Oklahoma City,OK,73118,XBYCDqezElyTuOw1
1813,3469 North Par Court,Fayetteville,AR,72703,movkb5VVUxYHgBSz
1814,16820 Coronado Street,Anchorage,AK,99577,sYrZsDClBlEj4WX1
1815,103 Aspen Place Northeast,Calhoun,GA,30701,gOJfQfl0RGpgwRxm
1816,1 Logan Circle Northwest,Washington,DC,20005,EFpyx6FpRB5qfXbm
1817,1816 14th Avenue,Nashville,TN,37208,8VR6ar9gLkl2l789
1818,4900 Cambridge Way,Anchorage,AK,99503,MjDmlMrnUBxSQKcK
1819,63 Wild Thistle Lane,Savannah,GA,31406,m7N7pmBTPRs0mnog
1820,11256 Palos Verdes Court,Cupertino,CA,95014,exKLmXzSvr2jbjC8
1821,890 East Skyline Drive,Fayetteville,AR,72701,JEuQaEdksqgoMAzh
1822,3901 Old Seward Highway,Anchorage,AK,99503,7N6YHsqF9tBFcWMa
1823,2707 Eden Street,Nashville,TN,37208,iY2HvxQK1L5qfaNG
1824,16 Harlow Road,Springfield,VT,05156,vKfGECBljd8YmX5v
1825,1751 Shoreham Drive,Montgomery,AL,36106,Q1e4fkJMu5R5unJm
1826,4672 A Street Southeast,Washington,DC,20019,049aso1K1eJ81V3N
1827,310 West Trinity Lane,Nashville,TN,37207,aZ4tgdMQ9G1GdVED
1828,1044 Stokes Road,Montgomery,AL,36110,GuhMfAd1bQtgwhXK
1829,7419 West Hill Lane,Glendale,AZ,85310,8CVCQnDZ8dNjUQoY
1830,7230 Montagne Circle,Anchorage,AK,99507,LSKtqMg2AemegGTV
1831,464 Springfield Street,Wilbraham,MA,01095,IhPg0qGI538gPtFA
1832,3116 Northwest 61st Terrace,Oklahoma City,OK,73112,bLH6OKvY6StHBph6
1833,1601 Algonquin Parkway,Louisville,KY,40210,G1trbOwmDpWvhbk1
1834,6740 Dickerson Drive,Anchorage,AK,99504,l2piGnmMNGBCGxZ4
1835,110 Oxford Road,Savannah,GA,31419,mCfo2LSVLsezIfg8
1836,3551 North Georgetown Drive,Montgomery,AL,36109,xiwgz2xsjEp4y6Vx
1837,210 Long Hill Court,Pasadena,MD,21122,Ne2Oiwn10V6FJnEX
1838,3815 Williams Street,Anchorage,AK,99508,SCygWAfWOKkkyrCr
1839,25800 Industrial Boulevard,Hayward,CA,94545,uNvEG8kH6uNn3SqY
1840,737 Nelson Road,Ludlow,VT,05149,i1GvYjjZ5igd6O5q
1841,1909 Seventh Street,Berkeley,CA,94710,j1h3urR0cTOgumOU
1842,407 Morse Street Northeast,Washington,DC,20002,8nm1aDl2pbZMjm5e
1843,7030 Cotton Blossom Lane,Montgomery,AL,36117,CbsiTYR2UGhqzjHN
1844,1915 Dean Forest Road,Pooler,GA,31322,sUndOJSktrGuYYTU
1845,7502 Kingman Street,Panama City Beach,FL,32408,gbPkgYL9uJcjtRDx
1846,34 Main Street,Gardner,MA,01440,W9pHYaomZ9TxtCD8
1847,26334 Adrian Avenue,Hayward,CA,94545,BjUJKXfus1W2SX8H
1848,102 Derondo Street,Panama City Beach,FL,32413,2nzsBK9ujnfVngJV
1849,533 Forest Ridge Court,Montgomery,AL,36109,TmZOxzSgyCsfIVwC
1850,11330 Elmore Road,Anchorage,AK,99516,tm0dyGgOtOM1nrTx
1851,10 South Main Street,Fair Haven,VT,05743,NUtEC8lO3yjBGxj1
1852,6515 West Poinsettia Drive,Glendale,AZ,85304,8pnjjaEM3keiAnNN
1853,117 Adelaide Road,Manchester,CT,06040,BL4k7QfyOU6AbuYw
1854,5430 Brookdale Avenue,Oakland,CA,94619,GAUdS6tF4RR0s3HO
1855,80 Homestead Street,Manchester,CT,06042,AttIKRCdRG7xREO6
1856,2927 Martin Luther King Junior Avenue Southeast,Washington,DC,20020,24qu0gRytZZ9jX2Z
1857,15253 North 62nd Avenue,Glendale,AZ,85306,9dvDnZz12mcoYoGJ
1858,3111 West Place Southeast,Washington,DC,20020,5IHkLvI5EgppgCv6
1859,713 East 32nd Street,Savannah,GA,31401,rUZxcnUmDSJh7FYD
1860,3823 Shannon Run Trail,Louisville,KY,40299,TWrz0eqeLMsIswug
1861,4 Samuel Riggs Circle,Gloucester,MA,01930,QfczsxNMvnFLuT9M
1862,5 Centercrest Drive,Tyngsborough,MA,01879,Mhia70imMSjyBRNL
1863,3300 Gatsby Lane,Montgomery,AL,36106,av8wJMfPsq24FeBw
1864,741 Amity Lane,Montgomery,AL,36117,4PaX7PLgJovyVyVw
1865,631 West 32nd Avenue,Anchorage,AK,99503,JqLsDxDN7lOVRSju
1866,714 East 33rd Street,Savannah,GA,31401,oGW9v4c5MMYxfUJ8
1867,210 Seaman,McCrory,AR,72101,cxodSLe2xRbMyBsn
1868,4050 Lake Otis Parkway,Anchorage,AK,99508,r7WDaNJ7fRgZ70uf
1869,9399 Yucca Way,Arvada,CO,80007,ItN6rccoxWaXhRJL
1870,14213 Doc Hawley Street,Louisville,KY,40245,pKrSRVnIolRXIwgx
1871,5840 Eagle Circle,Montgomery,AL,36116,sW7XyKDRs0DmsOk6
1872,713 Ringgold Drive,Nashville,TN,37207,5J7i3KgdIsEv7nre
1873,7101 West Beardsley Road,Glendale,AZ,85308,WSRnFgX7YNE2cSsZ
1874,1780 Poplar Ridge Road,Pasadena,MD,21122,zVUbmAUebLjm2B3Q
1875,4971 Janet Court,Livermore,CA,94550,U8vqEDHM4RW72WGx
1876,4316 Dover Road,Louisville,KY,40216,ImuvUoDoxcPg6ab1
1877,3404 Lakeside Drive,Anchorage,AK,99515,JE2LjGWtsR4SdzYn
1878,1838 North Scull Creek Drive,Fayetteville,AR,72703,1WgWhvJ4GsRJr2UN
1879,475 Maple Street,Holyoke,MA,01040,ZYSmzExWKUehZeRM
1880,31 Ashworth Street,Manchester,CT,06040,xuXXBwlPQKNEZFfV
1881,529 Barr Hill Road,Greensboro,VT,05841,43tB9bwgP7RmTLA5
1882,700 Revels Drive,Nashville,TN,37207,bkSl6YzZkG4xODEL
1883,2 Thompson Road,Manchester,CT,06040,EMMFsw5eiTMH27nC
1884,6620 North 61st Drive,Glendale,AZ,85301,JGo78DXjGF4Z0sTo
1885,3905 Lyceum Avenue,Los Angeles,CA,90066,OQIvx6AF7IcD1Gns
1886,125 Summer Street,Manchester,CT,06040,2aZqikdVEjqzJfq3
1887,4052 Brandywine Pointe Boulevard,Nashville,TN,37138,uARLmu76cjHzpf7n
1888,235 17th Street Southeast,Washington,DC,20003,6pnvANobSaZFegAA
1889,91 Eldridge Street,Manchester,CT,06040,TVqfEGuIyEIr3IK7
1890,5130 Morris Way,Fremont,CA,94536,eRjO1i7CbPdvCa5I
1891,3777 Mowry Avenue,Fremont,CA,94538,jMRhANMtcICCtrs0
1892,1607 Louisiana Avenue,Panama City,FL,32405,sIvneuW1bfwUd3C9
1893,1701 Atlantic Street,Union City,CA,94587,r3yI89dvjdbnrci0
1894,201 North Locust Avenue,Fayetteville,AR,72701,S8eh0Z52BVpkWRRO
1895,5813 Hammermill Loop,Montgomery,AL,36116,mRoNXKXpxK3UCq6m
1896,3951 Kimberly Street,Montgomery,AL,36116,bSIIc824JwfBdahq
1897,932 Northwest 20th Street,Moore,OK,73160,TOOlImanWhXAPp9B
1898,333 Saint Charles Avenue,Fayetteville,AR,72701,EWdLHEScUxITy32o
1899,2527 Lisenby Avenue,Panama City,FL,32405,W4hxAU6VdxAa3kDr
1900,1108 Slater Street,Santa Rosa,CA,95404,bmeSMmEMhf704tL5
1901,10 Skyline Way,Hartford,VT,05001,DYXBEadsxPj9RElm
1902,4375 West Missouri Avenue,Glendale,AZ,85301,Ympc34J8JLpDcGwN
1903,3321 Eureka Street,Anchorage,AK,99503,XiO8Th3VLg98oikB
1904,7427 West Abraham Lane,Glendale,AZ,85308,LvoqCXIrSeHh7qf7
1905,3325 Dix Street Northeast,Washington,DC,20019,9qxH3WcZoLtxVCpa
1906,4821 Milner Drive,Nashville,TN,37211,HqBGY2oFLgZUWwJL
1907,712 Wilsonwood Place,Nashville,TN,37206,mzAHLJ3jN1hQe8mU
1908,53 Fairfield Street,Manchester,CT,06040,TC39NOLwQW2qwV8A
1909,2821 Tyson Place,Louisville,KY,40218,KVlWh336OyGLj6ni
1910,31770 Alvarado Boulevard,Union City,CA,94587,XgOiRONd5y9BgIgG
1911,236 Middle Turnpike East,Manchester,CT,06040,bKnWazqkE8X9Omk4
1912,64 Roseberry Circle,Port Wentworth,GA,31407,JJCL1qxmVxhjrhsr
1913,2643 North Sierra Avenue,Fayetteville,AR,72703,ZtfOf1oR5uWpBE4P
1914,4604 West 19th Court,Panama City,FL,32405,hu2krOA6PzSoCWl0
1915,883 Rodney Drive,Nashville,TN,37205,CZCJFmLmdqBKC2UN
1916,3345 Archie Watkins Road,Farmington,AR,72730,of5OYMwYWwWRuqpb
1917,1865 North Higley Road,Mesa,AZ,85205,Dnxl51NPWYc2Gfg5
1918,50 Winthrop Avenue,Lawrence,MA,01843,qP7mzM1qG8fwIkDS
1919,63 Dorchester Street,Worcester,MA,01604,SE97B3k6uFOfdNHb
1920,2686 Avery Park Drive,Nashville,TN,37211,N7Nqsoo0SqB74fRc
1921,487 Maury Street,Montgomery,AL,36104,SCNnBgmrmMlw0mHZ
1922,2100 North Leverett Avenue,Fayetteville,AR,72703,i3UnmXyDUZ5o3EzF
1923,1320 Huffman Park Drive,Anchorage,AK,99515,To13XoPVInbQB2l0
1924,8 Chestnut Street,Winchester,MA,01890,FEuejJ5wlXOk9Omy
1925,8121 Copper Creek Drive,Lyndon,KY,40222,SchsyIxUDGm4vOOP
1926,9360 Hester Beasley Road,Nashville,TN,37221,rTllZ7uFwpvdx7jV
1927,14 Tranquil Place,Pooler,GA,31322,pzVHSshyenJf9nHU
1928,1013 Balboa Avenue,Capitola,CA,95010,WvlcH24A8XpWargQ
1929,3100 Don Juan Court,Montgomery,AL,36110,NkgrDLu2wbe75NWp
1930,8001 East 6th Avenue,Anchorage,AK,99504,tnXiPIV05AEAm7xG
1931,2079 Nashboro Boulevard,Nashville,TN,37217,Bu9q03piF9NfckU5
1932,629 Cutter Court,Annapolis,MD,21401,3qooceJFRQQ09R6u
1933,1263 Evarts Street Northeast,Washington,DC,20018,1DWnAEvMPA3IQhC2
1934,10749 West Kaler Drive,Glendale,AZ,85307,OJAepOrLayxVEHQ3
1935,1734 Corcoran Street Northwest,Washington,DC,20009,QRHloyEvBr6ueCkK
1936,1729 Frankford Street Southeast,Washington,DC,20020,ca1Hgmuau7J5zVAv
1937,6740 Van Gordon Street,Arvada,CO,80004,5QrgZzcS8YfScToH
1938,55 Sunrise Avenue,Moretown,VT,05660,FO0JPaU4Nr9CvUa3
1939,7 South University Avenue,Fayetteville,AR,72701,W1gpdRwVHLBNCDV6
1940,10406 Sunlight Lane,Louisville,KY,40272,32BosFUrM0Flbjf3
1941,1255 U.S. Route 5 North,Windsor,VT,05089,e4LmNK4DWNuGkVKw
1942,301 Southeast 37th Street,Oklahoma City,OK,73129,I9xkEunck3PkEQUf
1943,6233 South Hampton Drive,Montgomery,AL,36116,of5XCBFuM3Q485lE
1944,8010 Queen Victoria Drive,Anchorage,AK,99518,13T6RFco1EdO59bp
1945,4303 Ashleycreek Court,Louisville,KY,40241,JYxmvpXqlrZpZdwx
1946,23480 Abers Avenue,Port Charlotte,FL,33980,89pwhd50O2ZnBfO3
1947,1817 Beech Street,Louisville,KY,40210,P1Az1TaaixSzJQL5
1948,2169 Barre Road,Hubbardston,MA,01452,BegkZkmftS9rchZK
1949,7060 Eastern Avenue,Washington,DC,20012,ru3Cm1exYTY1tR0j
1950,25793 Durrwood Court,Castro Valley,CA,94552,pgXxQTM8DfqjJedK
1951,8526 Preston Highway,Louisville,KY,40219,e4tLyPndNlvlbv8R
1952,3642 Chatsworth Road,Fayetteville,AR,72703,XscuSmhHjtLsIxvw
1953,722 13th Street Northeast,Washington,DC,20002,66ttYIGzwwPur6BA
1954,19141 Pine Ridge Circle,Anchorage,AK,99516,PPOzIOALEckrugK8
1955,2133 Boultier Street,Montgomery,AL,36106,n3ksdWw5KSMDWZwu
1956,3635 Bisquier Drive,Anchorage,AK,99508,77gne3LY2eD9zQfQ
1957,1100 West Bowen Boulevard,Fayetteville,AR,72703,x1MMSyVEr80yAx5U
1958,606 Spence Enclave Way,Nashville,TN,37210,JNOJqxTAcdmkrsOF
1959,9730 West 81st Avenue,Arvada,CO,80005,lLmUZUfyNZLZ9pBm
1960,7802 Titan Court,Pasadena,MD,21122,0NJxx2n53pHKjK8L
1961,312 Northwest 90th Street,Oklahoma City,OK,73114,n6qGYAD4ork56wff
1962,3904 Martagon Circle,Anchorage,AK,99516,jGPMmusp0SSSJ7vZ
1963,8157 East Beach Drive Northwest,Washington,DC,20012,LF1jx3Ws4On1Pq7q
1964,848 Vermont 14,Woodbury,VT,05650,fUgevCxCisxwhrtS
1965,971 Zenith Loop,Fayetteville,AR,72701,aS4OOfsjE8BT2f2a
1966,17 Elm Street,Cambridge,MA,02139,5oUZdcpp77EiAaPw
1967,4188 Summerview Drive,Louisville,KY,40272,seYxabbkjo1xo5dE
1968,8302 Star Point Court,Prospect,KY,40059,lmz60OHNNtcP6itL
1969,707 Pinkston Street,Montgomery,AL,36109,3DFHiCwmOHkkYztA
1970,1761 Thousand Oaks Boulevard,Berkeley,CA,94707,DKSgnyuZlHCzplVu
1971,9712 Stream View Trail,Louisville,KY,40258,BhVYIZvbC4JKQvUB
1972,16 Redbud Way,Marlborough,MA,01752,NtNcBnD8zjbjlWzh
1973,6604 North 59th Avenue,Glendale,AZ,85301,bEsoTN2C41d7fruC
1974,35 Leominster Road,Lunenburg,MA,01462,drG6ewEc5ry89N1U
1975,2230 Armstrong Drive,Savannah,GA,31404,bNl0P1PHexu3f1yi
1976,1906 Palmetto Avenue,Panama City,FL,32405,haI2MCtxv8uxCHmY
1977,108 Croft Drive,Manchester,CT,06042,BjyYWu1zjoGerkXf
1978,179 Blue Ridge Drive,Manchester,CT,06040,E7DwkEGFwzhyBvSF
1979,1209 Parker Street,Berkeley,CA,94702,uritNRjDrfNKC9sV
1980,400 South 28th Street,Louisville,KY,40212,DiKWtXY2iqMlc76X
1981,6047 Cole Court,Arvada,CO,80004,3GCqGNEDAIn2P8jv
1982,905 Richardson Vista Road,Anchorage,AK,99501,pNmwxGLZEu7vXhv0
1983,12610 Webber Road,Fountain,FL,32438,mDqlksZIbuRKXdp8
1984,350 Woodbine Road,Shelburne,VT,05482,JphvTQLCOl3LFM2h
1985,11501 Maple Way,Louisville,KY,40229,SJqLfnJ1DWxbxjvB
1986,98 Lee Drive,Annapolis,MD,21403,0K5aML6DvtPGEyxn
1987,126 Sunshine Road,Savannah,GA,31405,UPKqxfdqRF47QpR6
1988,4313 Wisconsin Street,Anchorage,AK,99517,RN1Ps9YSnvyAGoot
1989,829 Main Street,Manchester,CT,06040,RPJw197ZowMSfLHD
1990,37 Spring Street,Groton,CT,06340,Ilro60tbQTFuE9y7
1991,266 South J Street,Livermore,CA,94550,BuoFpv0X0nPaBNiU
1992,7952 South Algonquian Way,Aurora,CO,80016,EnqOKXZ9McpVdXTd
1993,9223 Elgin Circle,Anchorage,AK,99502,OF8PEnvDWsPxegJ2
1994,224 Michael Sears Road,Belchertown,MA,01007,w9IyK3bav4Fvivk3
1995,706 James Road,Glen Burnie,MD,21061,eqik9zXSqnZetfY1
1996,1309 Graniteville Road,Williamstown,VT,05679,CTS2l9I1NXok98h4
1997,1421 Floral Street Northwest,Washington,DC,20012,OeAZ4OhhvwBliVI7
1998,3413 Pheasant Run Road,Norman,OK,73072,gfhZkqC1s9t6xOdh
1999,1428 Flatwood Court,Crofton,MD,21114,7bDnZf6ZIyAL8yDL
2000,3031 Casa Drive,Nashville,TN,37214,hirtSuC8vMg0rGnP
2001,4339 Benning Road Northeast,Washington,DC,20019,jZoV4hCFpeAqfvgk
2002,17794 West 77th Lane,Arvada,CO,80007,Dz7rVtmu4yYNA73Z
2003,5603 Dune Creek Trail,Panama City,FL,32404,sMt6Pa3BEvp14BPr
2004,3502 Cottage Cove Lane,Panama City,FL,32408,TZShOXyHrII7JypA
2005,4221 Thompson Avenue,Anchorage,AK,99508,2MYpn0tZBCbaIdJr
2006,3526 Sutton Loop,Fremont,CA,94536,cGgA4J2V8cTYg2j8
2007,398 Gove Hill Road,Thetford,VT,05075,iYsL1tjj3PNsuLzv
2008,3808 Richland Avenue,Nashville,TN,37205,oDPyyNTCyT6XDffl
2009,5113 Village Trace,Nashville,TN,37211,2T7ZavLmgvODnut8
2010,324 Martin Luther King Junior Boulevard,Fayetteville,AR,72701,pMCauvbD4U6MvQ5f
2011,2115 Longest Avenue,Louisville,KY,40204,kL9jbXzKKJMU4k9L
2012,7650 West 68th Avenue,Arvada,CO,80004,EZE07G5SVLqkDd9E
2013,117 South Capitol Parkway,Montgomery,AL,36107,yMIAqbKdORDQyIOI
2014,70 Valley Road,Louisville,KY,40204,3DCucREyrb6aHdmb
2015,2170 Benton Boulevard,Pooler,GA,31322,nOxXmvGbSvedeNXS
2016,3203 US Highway 98,Mexico Beach,FL,32456,4YepatcTCFqnGQjE
2017,21007 North 53rd Avenue,Glendale,AZ,85308,fPcF3ZZGeqNIqkXq
2018,856 Milton Street,Oakland,CA,94607,rnwziYSn4bTfEZob
2019,7326 North 62nd Avenue,Glendale,AZ,85301,hGnS8E6tsTivsdjV
2020,37608 2nd Street,Fremont,CA,94536,3DSV5OBcdHAfKLO5
2021,642 Sagamore Drive,Montgomery,AL,36109,pmzlJ0S2jmZm7Snk
2022,6005 Tamarack Drive,Montgomery,AL,36117,jIq0iTBh1dZHGL9Q
2023,7202 Jump Street,Youngstown,FL,32466,TQ4ucUqr6AOwVZDu
2024,120 Wells Avenue,Glen Burnie,MD,21061,TSt4MGud6Sa1XCFy
2025,18117 Muldrow Street,Anchorage,AK,99577,jVeWWvtNspobMLD7
2026,15267 Hesperian Boulevard,San Leandro,CA,94578,pXrPTlZY7I4ash8S
2027,8934 Arrowrock Trail,Smartsville,CA,95977,yVXTJ4V22flEW1bQ
2028,351 Porter Street,Manchester,CT,06040,WqfQ1ijdlNKVSeXH
2029,178 Old Homestead Road,Danville,VT,05873,s0JOLNFcGasMIZTi
2030,517 Wesley Avenue,Nashville,TN,37207,bZro4AVSaT4jF3B1
2031,1521 North Olympic Club Avenue,Fayetteville,AR,72704,m9OuDzIAFAv2tFhS
2032,3109 Thistle Down Lane,Nashville,TN,37013,uFSN0ZtrHbplQ8Sf
2033,2 Spencer Street,Lexington,MA,02420,BVqsyP1Illp6qs0W
2034,3714 John Mallette Drive,Nashville,TN,37218,yitQWEa3QFQzSBXb
2035,2008 Aberdeen Drive,Crofton,MD,21114,hnRWs3WyFvgE5JSw
2036,4423 Lilac Avenue,Savannah,GA,31404,AEfUllz5gMRFTH5P
2037,712 Parkside Place Northeast,Washington,DC,20019,JtLKGhkwuL2kiti0
2038,1330 North Mission Boulevard,Fayetteville,AR,72701,zRKIpuuiHcu16DJB
2039,3231 North Kings Cross,Fayetteville,AR,72703,MJp8nOOp1zyglbIF
2040,540 East Appleby Road,Fayetteville,AR,72703,zaJNGmHnAiVBDDz8
2041,6789 West 70th Avenue,Arvada,CO,80003,CMOkWq5af7FeXRPz
2042,19 Euston Street,Brookline,MA,02446,FTboSZ0TNBaBuNbv
2043,6216 West Bloomfield Road,Glendale,AZ,85304,cJDV7zkIzMcFsoef
2044,105 Hunt Club Court,Savannah,GA,31406,fyYWSo3f1XB2Li9T
2045,5242 Thornton Lane,Panama City,FL,32404,b6plaHwJdZYpgpKm
2046,115 Wells Street,Manchester,CT,06040,mlvzNmp6p8JCOvP0
2047,36360 Beech Place,Newark,CA,94560,fZ9CUwLtmCfEsF4f
2048,378 Bonny Street,Grand Junction,CO,81501,G2wlPTJDtac8QoWa
2049,7981 Robinson Way,Arvada,CO,80004,7NdEONFKd8EmZRdm
2050,120 North Hurstbourne Parkway,Louisville,KY,40222,LUlzFSLO3D2OAz0F
2051,7401 West Arrowhead Clubhouse Drive,Glendale,AZ,85308,PCSbjkf5bwopPWYP
2052,3041 West Marigold Drive,Fayetteville,AR,72704,lI99uwaJlUlAm3vd
2053,5701 East Shirley Lane,Montgomery,AL,36117,40vgYWDXUaWwmgUQ
2054,4486 U.S. 5,Newport,VT,05855,YYExsLGiKxXIstU2
2055,740 East 34th Street,Savannah,GA,31401,EEMav4BQe3x3OnZG
2056,5706 Worchester Drive,Montgomery,AL,36116,Y5R8CblTYIVSamUi
2057,334 North Cove Boulevard,Panama City,FL,32401,BHZrFKYJkhZQ51Li
2058,5458 30th Street Northwest,Washington,DC,20015,JYc41tavZOVxGE2e
2059,5157 West Kerry Lane,Glendale,AZ,85308,m41yH4vCcsYZjXAS
2060,7041 Dover Avenue,North Beach,MD,20714,WeV8IhhEatpWPxNc
2061,159 Adams Street,Manchester,CT,06040,gaalC5XLOfhP3yRw
2062,10312 Parlett Place,Cupertino,CA,95014,S1ZeUtTdwH2EeiSC
2063,1602 East 14th Court,Lynn Haven,FL,32444,enF5JePJB6v14LuN
2064,2850 Davenport Street Northwest,Washington,DC,20008,GVAUWEJ39ERTJUI6
2065,8800 Northwest 92nd Street,Oklahoma City,OK,73132,5ThyOafKFoxCRaAF
2066,3313 East Tecumseh Road,Norman,OK,73071,2D9jbbjuFwK072i2
2067,13525 West Stella Lane,Litchfield Park,AZ,85340,YIzyPYj14G4Sod2a
2068,5110 East Shoshone Avenue,Orange,CA,92867,z6G2HkaZst6azg43
2069,3 Dayton Street,Chelmsford,MA,01863,DBWQWX4UIfNEjTz1
2070,3752 Roswell Place,Montgomery,AL,36116,BNRYZTfQzZEuTNP5
2071,2310 Donleigh Court,Louisville,KY,40222,0tGPiFthRTrWYgFw
2072,20228 Crabtree Street,Anchorage,AK,99567,X2EEjYrQd8XujMoT
2073,86 Highland Street,Manchester,CT,06040,9EHqkP0hmWJjja1n
2074,126 Garth Road,Manchester,CT,06040,YCz7poyJW8maw7YZ
2075,2835 Southwest 78th Street,Oklahoma City,OK,73159,EUnwNG9SNCtVfWoW
2076,202 Pepperbush Road,Louisville,KY,40207,pT9JVEhRlXxasw6H
2077,595 West 54th Street,Savannah,GA,31405,Eshp6mRir6s3rEce
2078,4253 San Juan Avenue,Fremont,CA,94536,vnIVQlzCfU8mMnJJ
2079,13066 North 56th Avenue,Glendale,AZ,85304,z48p5P2q14kvqDuc
2080,320 South Link Lane,Fort Collins,CO,80524,aDAhNmZth0KEAhQl
2081,1414 West 7th Avenue,Anchorage,AK,99501,oTEyRvctiDzm199i
2082,40 Oliver Road,Manchester,CT,06042,Wtj9H2wSETUBCBlT
2083,202 Winston Road,Pasadena,MD,21122,RldHjilfqP6S5vQ3
2084,4130 Legation Street Northwest,Washington,DC,20015,Hb44gCbjIUcLPlvd
2085,9827 Davenport Avenue,Youngstown,FL,32466,pg4YpNag8LZS69FU
2086,135 Northshore Drive,Burlington,VT,05408,GhACd7iuZxU0Rg6e
2087,833 South Brownell Road,Williston,VT,05495,IxcpIivvVtkd0xIN
2088,4225 Eatons Creek Road,Nashville,TN,37218,aAj2XYIBEjh00uvH
2089,60 Bagley Street,Saint Johnsbury,VT,05819,73MKrkXgFUimKr8A
2090,721 South Jackson Street,Louisville,KY,40203,xlN99389XonnHXvY
2091,1227 Aaron Street,Montgomery,AL,36104,3Aos6NR1EVcswYkz
2092,1742 Allerford Drive,Hanover,MD,21076,coG1RGuXIONRv4hR
2093,1010 Hillcrest Drive,Fort Collins,CO,80521,qlLiy54UyDxIVQTK
2094,218 Durham Park Way,Pooler,GA,31322,kZaoediBZSpwcfYx
2095,309 Water Street,North Little Rock,AR,72117,AKM2yYuDItzr7PRu
2096,1514 Canton Avenue,Milton,MA,02186,F0ekcJBuLXzGS7NO
2097,1641 Kramer Street Northeast,Washington,DC,20002,QHbOtxskC10hY0UY
2098,43949 South Moray Street,Fremont,CA,94539,bgkn3FeCEoagvYze
2099,1014 South 2nd Street,Louisville,KY,40203,QXYPuqjcK0O6xUXS
2100,15509 East 7th Circle,Aurora,CO,80011,vSAg5w3PDntcEjB0
2101,2829 31st Street Northwest,Washington,DC,20008,eZAEbWsJKqDkW6QM
2102,2236 Susitna Drive,Anchorage,AK,99517,8OFfXsH019wGEVT0
2103,1032 Brayhill Road,Edmond,OK,73003,GHFrjsE12hyXwXUT
2104,1326 U.S. 80,Garden City,GA,31408,axe8upF5KKugNKUG
2105,1 Kelton Court,Oakland,CA,94611,SMmnf7jn5EO05CKw
2106,83 Oakdale Road,Newton,MA,02459,tJ9MJ2gENHTfYjhk
2107,517 Copperfield Way,Brentwood,TN,37027,H1L36h8HgsAcPZ3O
2108,218 Shipley Alley,Fayetteville,AR,72701,VxbvZ7DCduAuRfwQ
2109,804 Old Coach Place,Nashville,TN,37076,qcS9hfMkT9WtFAYI
2110,2928 Avon Road,Panama City,FL,32405,8hNvfi6xts2wfCUV
2111,16205 Wind Crest Way,Edmond,OK,73013,hUqh5K8dnsgl3dj7
2112,12725 Landmark Street,Anchorage,AK,99515,yMLF0xwKYRWb0v0x
2113,2436 Naples Avenue,Panama City,FL,32405,XVu8UVaxv0FhH4e3
2114,6045 Camelot Court,Montgomery,AL,36117,Zs8J4MLkUG2wBOjE
2115,2315 Kimberly Drive,Nashville,TN,37214,QptZbQr6LroMjZcu
2116,404 Dewey Street,Woodford,VT,05201,vFE398BKbcqLXew6
2117,2021 West Burnett Avenue,Louisville,KY,40210,vHYR6cSQwxmsiWCd
2118,16463 North 60th Avenue,Glendale,AZ,85306,KWoGj9jxvonEo2nJ
2119,24 Lawton Road,Manchester,CT,06042,IoXo4jLjVIwvFxbC
2120,4001 Teton Lane,Norman,OK,73072,MM1akgOoqEQatcyB
2121,501 West Maple Street,Fayetteville,AR,72701,jFNSaTNND5cnm6L9
2122,164 Tensaw Road,Montgomery,AL,36117,9ewkyX38faeqEYCP
2123,513 10th Street Southeast,Washington,DC,20003,1RqQ5lSZZgzmS2L7
2124,6148 Avon Avenue,San Gabriel,CA,91775,ChrgK5lIeyixL58p
2125,622 Elaine Drive,Nashville,TN,37211,065B0JYAmK84BSX2
2126,25721 Berryhill Road,Anchorage,AK,99577,4W1uOINqfxnl3t5B
2127,7950 West 51st Avenue,Arvada,CO,80002,8GDZ9Cl1B05OiJxG
2128,5348 Main Street,Franklin,VT,05457,Vn6yfWWVHE6Bvj3M
2129,4201 Georgia Avenue Northwest,Washington,DC,20011,n2fbUqusVSOcZyIK
2130,2806 Bass Street,Anchorage,AK,99507,b3H6ohZZMsRjOJbU
2131,527 Birch Mountain Road,Manchester,CT,06040,iLPbRvzxmK1c4qBd
2132,6060 West Royal Palm Road,Glendale,AZ,85302,x8S7X9Ys8BiEBogS
2133,6201 West Olive Avenue,Glendale,AZ,85302,BLeiph6AYhvQAs5x
2134,1725 Oxford Street,Berkeley,CA,94709,j3IXM8fkHUt1O0jO
2135,578 Vermont 30,Newfane,VT,05345,mUpzv7ALKW70pYtY
2136,14 Short Circle,Conway,AR,72032,Uu6e3x6a0Ib4bTNd
2137,400 D Street,Anchorage,AK,99501,J1WQ0SgACy0pUkWr
2138,10202 North 51st Drive,Glendale,AZ,85302,qtVh2yPHu4EU8vLP
2139,14300 Leesa Lane,Edmond,OK,73013,YKF7CIqfgK4W2xAB
2140,152 Bissell Street,Manchester,CT,06040,my7an9aFYQUh8SSU
2141,5073 West 65th Place,Arvada,CO,80003,85bHh340mtIMcRNp
2142,2809 Briarcliff Road,Panama City,FL,32405,oMBY5FlqFZczmkAb
2143,5747 West Missouri Avenue,Glendale,AZ,85301,y6Qej8yGm7ZREsTu
2144,16 Pine Hill Street,Manchester,CT,06042,jhoqGEZWWwCu8Qgk
2145,7100 Old Seward Highway,Anchorage,AK,99518,eWXtNupuSW68KbDN
2146,1643 North Jordan Lane,Fayetteville,AR,72703,nHAg3a8uDM2CyxLn
2147,4400 Vaneto Drive,Louisville,KY,40216,FUli7LPyiZVHxz22
2148,66 Bradford Road,Braintree,MA,02184,MDAyPIhf8s58ytR5
2149,3821 Southwest 25th Street,Oklahoma City,OK,73108,Ws80OiiljLoNcO54
2150,1931 Beauvoir Lake Drive,Montgomery,AL,36117,Ywjz6XNfQumKluQx
2151,89 Plaistow Road,Haverhill,MA,01830,svl14ynkmLjO9IjV
2152,6604 Northwest 130th Street,Oklahoma City,OK,73142,ZGgy71jG846ONEsU
2153,2732 West 67th Avenue,Anchorage,AK,99502,KCelH0X4TI1RETSW
2154,120 North Block Avenue,Fayetteville,AR,72701,VPxamOBHj4LFqMUe
2155,503 Early Street,Savannah,GA,31405,tfOue3um2ILANRUs
2156,224 Charter Oak Street,Manchester,CT,06040,Eb6rXzH0J4OS9ppJ
2157,846 Allen Road,Nashville,TN,37214,Q3SJWSlgBeRVt9bq
2158,5644 Kipling Parkway,Arvada,CO,80002,p5u2H9DbsKtQrW6h
2159,26 Garfield Street,Bristol,VT,05443,U5HeQ9ZqH5us92f1
2160,207 High Street,Manchester,CT,06040,hrPNSYk8vxuWCeth
2161,3825 West Muhammad Ali Boulevard,Louisville,KY,40212,Tc7TlDQTFrmTUFRb
2162,5575 South Dakota Avenue Northeast,Washington,DC,20011,E6qeVmlRZxnJ3ctw
2163,2708 Mabel Street,Berkeley,CA,94702,G9LgpNPfVhZEcgO2
2164,345 Buckland Hills Drive,Manchester,CT,06042,4ZkLJB1He2ktlK3C
2165,14 Olympia Street,Norton,MA,02766,SrQVlBgcJh64E186
2166,328 17th Street,Paso Robles,CA,93446,S69tHvfWHqXebthh
2167,3040 17th Street,Boulder,CO,80304,6VCNK2KVBEqXMABE
2168,2809 Rowland Avenue,Thunderbolt,GA,31404,4aFVw1iNNvyoXFTs
2169,615 Florida Avenue,Lynn Haven,FL,32444,8XhxqYWBGhsI1eAx
2170,5788 Cane Ridge Road,Nashville,TN,37013,lr3FxuwPk3mYKgsV
2171,137 East 53rd Avenue,Anchorage,AK,99518,4osGv3OLGSEu7mPB
2172,404 Ramble Wood Circle,Nashville,TN,37221,qkMWTH5WJuTDw6kY
2173,5985 Lamar Street,Arvada,CO,80003,ZY0qg2f7TypcRhbF
2174,1709 Southeast 51st Street,Oklahoma City,OK,73129,SKmY3PtFVGJ5jg6O
2175,1897 Poplar Ridge Road,Pasadena,MD,21122,V5wqn2IitU45jNrr
2176,6985 Woodstock Road,Hartford,VT,05001,8wwEWVbYe5P0OaT1
2177,2707 Wendell Avenue,Louisville,KY,40205,B55iGfi0DFI1zyEP
2178,103 North East Avenue,Panama City,FL,32401,mT2kKyocmXFdWI08
2179,1124 Frederick Douglass Avenue,Oklahoma City,OK,73117,rhZ1SOqxOQskmoKY
2180,7808 Baltimore Annapolis Boulevard,Glen Burnie,MD,21060,SwnN127HTOi6Z22y
2181,6369 West 70th Drive,Arvada,CO,80003,Mw5rUGf2pE9Ejo3e
2182,5926 Sneed Drive,Deale,MD,20751,vkUR3C5xd226rE9A
2183,5 Winslow Circle,Pooler,GA,31322,txbVNNhuUYKQmXRp
2184,8391 West 52nd Avenue,Arvada,CO,80002,UjCQi1KikxJ6vz07
2185,7947 Citadel Drive,Severn,MD,21144,xTChbFJhH7qDtYuB
2186,6617 North 59th Avenue,Glendale,AZ,85301,BdCQhrmVLoJB52Gm
2187,6002 Jo Danielle Place,Louisville,KY,40291,IfTaea1LQi3yq2F1
2188,5109 39th Street Northwest,Washington,DC,20016,LCWa646ASbFoZ7gZ
2189,1276 Bending Creek Drive,Nashville,TN,37013,lALlaG3yOPWUbTnl
2190,16502 South Main Street,Gardena,CA,90248,bi4sfxWZYoNFpRmC
2191,1820 22nd Street Southeast,Washington,DC,20020,pJTY6dJ8cdWJwymL
2192,1304 Southwest 67th Street,Oklahoma City,OK,73159,SXcpnUsqDlEytDm4
2193,697 Parker Street,Manchester,CT,06042,ZwH3Iuy3qRe09aa3
2194,8380 Lockwood Road,Pasadena,MD,21122,mEzRMFjFIt1K4eJg
2195,1931 West Deane Street,Fayetteville,AR,72703,lK0FmSQxtQnEcTzW
2196,1422 North Dawn Drive,Fayetteville,AR,72703,IjwTnyeIjvTYkc3d
2197,1211 Friendship Avenue,Panama City,FL,32401,pxekKEo7lpfGsHxg
2198,5116 Emmanuel Avenue,Anchorage,AK,99508,mcLrJ1XrsYW7tVKv
2199,404 Middle Turnpike West,Manchester,CT,06040,bdzdHF1IfMWbfCA9
2200,15 Mystic Avenue,Medford,MA,02155,rFZtfSEziP29XvRg
2201,1208 Festival Lane,Montgomery,AL,36117,scr0pGkZI7pet0rY
2202,61 Plymouth Lane,Manchester,CT,06040,gbIs3kWMldDvL8hK
2203,182 Irving Street,Manchester,CT,06042,MsEe21yEnecFXMmu
2204,2115 Honeysuckle Drive,Panama City,FL,32404,CLNppHwzjR4P2WCc
2205,1780 142nd Avenue,San Leandro,CA,94578,u3mYM70e9KTsVimi
2206,6030 Newland Street,Arvada,CO,80003,YIDgs9i9AR37qmGD
2207,1954 Hilltop Road,Jessup,MD,20794,FwoZnWFvpmjbbOrE
2208,1265 Southeast 23rd Terrace,Oklahoma City,OK,73129,afcLBOJWCeXFG0Ig
2209,9401 3rd Street Road,Louisville,KY,40272,Wz7VhN3dorWuzSX6
2210,627 Emerson Street Northwest,Washington,DC,20011,pRQzULZbqSoJZk1s
2211,6730 North 59th Drive,Glendale,AZ,85301,DZPO423CRM1MXIOC
2212,1313 North Road,Hinesburg,VT,05461,yG8nSZDbGFXzZJTm
2213,15238 North 65th Avenue,Glendale,AZ,85306,7U6EvaSb8UNliZF8
2214,775 47th Street,Oakland,CA,94609,7yeDkBK5AcdmoM1r
2215,2115 Northwest 22nd Street,Oklahoma City,OK,73107,F55eTTZQU6GN7AeB
2216,7374 West Walden Drive,Littleton,CO,80128,tzVDr6UyILKFzDsn
2217,111 Edgewater Road,Savannah,GA,31406,CcFSG5sPrmzwEo6w
2218,1710 Massachusetts Avenue Southeast,Washington,DC,20003,GrSoLe4yR5b4kVF7
2219,16020 North 69th Avenue,Peoria,AZ,85382,9CwXUrFsglsmxOyf
2220,18 Cambridge Street,Manchester,CT,06042,9EphZNeCttf1y9Fo
2221,1139 Addison Street,Berkeley,CA,94702,nNzK8f3ZJHlp5PGd
2222,7400 West Arrowhead Clubhouse Drive,Glendale,AZ,85308,XzrVOqShnlTNWpXz
2223,4922 West Cholla Street,Glendale,AZ,85304,fhfGrRVmTgbRRg9k
2224,5526 Thalman Drive,Brentwood,TN,37027,wGBo5WRFWSAMXwlQ
2225,30 Windermere Drive,Agawam,MA,01030,42SUCzQyafZYoUVs
2226,29 East Avenue,Colchester,VT,05446,IjbKt8zTnJmbQ2LU
2227,12 17th Place,Tybee Island,GA,31328,J0EUFGMY6RAXv5p4
2228,10175 West 58th Place,Arvada,CO,80004,w6igCr99eTM7e027
2229,549 Elysian Fields Road,Nashville,TN,37211,fxhNXCoDSh8f9JPC
2230,4 Stemson Way,Port Wentworth,GA,31407,nTdaiSIkGt1av9U6
2231,325 Baxter Lane,Fayetteville,AR,72701,xFDrfAOFqNQ2U27S
2232,3100 Gentilly Court,Montgomery,AL,36116,oigTNzpsQljasYtQ
2233,2729 East 14th Street,Panama City,FL,32401,FwvnJOXfl11va1IC
2234,1211 Rock Creek Trce,Nashville,TN,37189,2h0FFIY8wHYVCBWf
2235,8300 Highway 100,Nashville,TN,37221,HoZP4dNEJ3zMlNSs
2236,12330 Old Glenn Highway,Anchorage,AK,99577,rEgUXLCbLaOUqtYq
2237,9200 Gainswood Circle,Montgomery,AL,36117,E0DfpBxZrvi5r6mZ
2238,7300 West 74th Place,Arvada,CO,80003,MLziqrI48JMWzeAt
2239,4537 Tanglewood Trail,Boulder,CO,80301,0xEanpkkTfILxg3G
2240,3601 South Portland Avenue,Oklahoma City,OK,73119,Y6QypygxkLP9YKtg
2241,1101 West 48th Street,Savannah,GA,31405,gjzeh9hxPSCPG908
2242,650 Malvern Street,Montgomery,AL,36108,RnXrUA3fi1iqCa9W
2243,1711 8th Street Northwest,Washington,DC,20001,3EJdhzkVGpbEsGk1
2244,337 South Drive,Severna Park,MD,21146,iiXDpS94ZL5GtQHS
2245,6911 Steven Road,Panama City,FL,32404,HtsU48IXpOH8pCQf
2246,407 Bon Air Avenue,Brooklyn Park,MD,21225,dvq5yQezs3lUaKFM
2247,4300 Soquel Drive,Soquel,CA,95073,YBkWFfoOGgIHHGRm
2248,5 Westlund Avenue,Auburn,MA,01501,dGmVkoypjwh5WBjl
2249,7085 West Northern Avenue,Glendale,AZ,85303,Izk9frvO1suiR0yA
2250,368 Winthrop Court,Montgomery,AL,36104,2IrzPu0KMh54LC3L
2251,904 Walthour Road,Savannah,GA,31410,3k97N4Ky4eiGkGu0
2252,545 East Muhammad Ali Boulevard,Louisville,KY,40202,MA1jUdFibG9p8LJp
2253,3538 Albemarle Street Northwest,Washington,DC,20008,fAeaSDFdWnNIbZ0X
2254,739 Center Street,Manchester,CT,06040,9YBQ8GXmp1oKSknH
2255,3065 East Pebblestone Drive,Fayetteville,AR,72701,ADTmmXbzBzvJda6H
2256,5118 Augusta Road,Garden City,GA,31408,nvffmMP6IFyqpyN4
2257,7002 South Bryant Avenue,Oklahoma City,OK,73149,8tM5RPOVnsnIkRBA
2258,1825 Woodland Farms Court,Nashville,TN,37138,w07AFSKjGmn6qfcq
2259,1814 US Highway 98,Mexico Beach,FL,32456,QOXdBOxplCCC3kg4
2260,606 Lincoln Street,Savannah,GA,31401,20Bqq5Uv9BSSirCG
2261,5170 Hickory Hollow Parkway,Nashville,TN,37013,WdSRHKyRvL15nHK1
2262,2803 River Drive,Thunderbolt,GA,31404,VV0otOAJyLZWlO2T
2263,57 Hidden Lake Court,Savannah,GA,31419,wxPowbocSz79gHw6
2264,1820 Scenic Avenue,Berkeley,CA,94709,K2QxlfsiQUjUl4Zr
2265,597 East Miracle Drive,Fayetteville,AR,72701,3Tqzx9K7UhZpVl1E
2266,17433 Teklanika Drive,Anchorage,AK,99577,r4JPWl36dDKJ76KZ
2267,91 Courthouse Drive,Guildhall,VT,05905,bNACynY5tpXmiPr5
2268,111 Rosemary Street,Brockton,MA,02302,oHQcJrpNfn99guAq
2269,2205 Lindell Avenue,Nashville,TN,37204,AlMksdGRUTkp61ZQ
2270,4024 Northwest 16th Street,Oklahoma City,OK,73107,n5nTrCHUhaT6EsQG
2271,981 Groton Long Point Road,Groton,CT,06340,CDjwMc9VwG3fEVqF
2272,294 East Lakeshore Drive,Colchester,VT,05446,4b4M6hW7OULcqxAT
2273,53 Great Woods Road,Saugus,MA,01906,0fqxAVXMklUQ8NJT
2274,8801 North 63rd Drive,Glendale,AZ,85302,6DQEDi228xNeXJbn
2275,3213 Ivy Wood Lane,Laurel,MD,20724,exnXZIb5XcWGLffv
2276,5 Tranquil Place,Pooler,GA,31322,ljKvuuQoOffNOgyV
2277,3114 US Highway 98,Mexico Beach,FL,32456,FPTLuK4MqCrQYRBD
2278,14006 Coffee Bluff Road,Savannah,GA,31419,5GM2f2xWB7dVJnRA
2279,712 Southwest 1st Street,Moore,OK,73160,js0CUWeyX3ioLvaD
2280,10638 Happyville Road,Youngstown,FL,32466,d1QKHuWZtlE60L2p
2281,11933 West 71st Avenue,Arvada,CO,80004,CsjfRLQhFpJ7JQDa
2282,3373 Runnymede Place Northwest,Washington,DC,20015,lYkCSzrENgBB2Uuh
2283,14 Hillside Terrace,Richford,VT,05476,pGHCGlVEIImoy7Aq
2284,243 New State Road,Manchester,CT,06042,2XCoezBvxPukBanB
2285,18687 County Road 97,Woodland,CA,95695,zfPV0Wop6iwgHDu9
2286,21 Carver Lane,Manchester,CT,06040,btmepnqqTLmIFgxN
2287,6401 Green Meadow Lane,Oklahoma City,OK,73132,AZDCnzuSKM6C4rXc
2288,16 Cabot Street,Everett,MA,02149,6jXXfhXhhdnwmS8R
2289,2649 Firewood Drive,Fayetteville,AR,72703,JhJrksvKkzJ43tWZ
2290,104 Greenwood Drive,Manchester,CT,06042,5xJ0GGSLvjXh8Gny
2291,12013 Blue Moon Avenue,Oklahoma City,OK,73162,C7zGIEtmjsYJ1gY6
2292,9 South Pinyon Point,Fayetteville,AR,72701,n1IvrJhBsO7ExGgg
2293,8915 Shevie Drive,Louisville,KY,40272,tIlKwLfyCPlgBEQm
2294,5927 Camrose Drive,Anchorage,AK,99504,RdifSQLqVKzhtO3o
2295,1244 South 4th Street,Louisville,KY,40203,YvCRQKfW5wQbRY03
2296,1628 Button Bay Road,Vergennes,VT,05491,NVTu8HeIyTR75ZaV
2297,1504 East 55th Street,Savannah,GA,31404,6w3Ka0pTs2BLXVtF
2298,328 South Ranchwood Manor Drive,Oklahoma City,OK,73139,Bb1Xat1CH2VIVMJJ
2299,22424 Birchwood Loop Road,Anchorage,AK,99567,A6KByONSaXiUmynp
2300,140 West Cooper Avenue,Aspen,CO,81611,TcSVgMTaUCIYP0Xn
2301,7509 Linda Lane,Panama City,FL,32404,leJZfNJX1heQ4luC
2302,1311 Durrett Lane,Louisville,KY,40213,mHsznVrwB0nPXL9R
2303,325 Irwin Street,Anchorage,AK,99508,Pqb17cklT4G8hCI1
2304,2306 Edinburgh Drive,Montgomery,AL,36116,Q3yVMuYi2HL1kJ4d
2305,2311 West Lawson Street,Fayetteville,AR,72703,WF5EiYKvES6OWyys
2306,2A Cleveland Park Rd,Freetown,MA,02717,SKgn9moBPIvOWppz
2307,6275 Eric Lane,Montgomery,AL,36116,zx4IYklauqFR8CCx
2308,20270 Andover Avenue,Port Charlotte,FL,33954,GYS9URaMwoqezW6D
2309,8509 Olde Gate,Montgomery,AL,36116,FifuJ4QiHHRHxXsR
2310,4401 Virginia Avenue,Louisville,KY,40211,HGuzwZtlGjwGiCy6
2311,463 Pecan Tree Drive,Montgomery,AL,36109,bQvSPwqF7q3I5G5H
2312,1311 Elm Hill Pike,Nashville,TN,37210,B59DMgSusrOYdAUQ
2313,1313 Southwest 14th Street,Oklahoma City,OK,73108,8BEJP5U2w2dax88U
2314,6413 Kendall Street,Arvada,CO,80003,uXqIw17C4AtButzi
2315,261 East Old Hickory Boulevard,Nashville,TN,37115,1atIcaYWXfMfEDrD
2316,1402 North Capitol Street Northwest,Washington,DC,20002,6XD03Us9pg25BYjM
2317,725 65th Street,Oakland,CA,94609,xGuazpzaHLdaESwj
2318,833 50th Place Northeast,Washington,DC,20019,cFvIhfa3oNPHBTTI
2319,212 Burk Way,Del City,OK,73115,Mig0lTOd5vwtw8X8
2320,5631 West Colter Street,Glendale,AZ,85301,40IbxFsHpHu1Dk1d
2321,313 Wiley Street,Nashville,TN,37115,YTLPK0f6k19TVNO5
2322,18 Hamilton Street Northwest,Washington,DC,20011,hAJtYc8dmXlLlcSv
2323,3607 R Street Northwest,Washington,DC,20007,GkFl0rzCxvYXxiKi
2324,8415 Running Spring Drive,Louisville,KY,40241,xDs5JDTVngIci2kG
2325,110 Lenoak Drive,Louisville,KY,40214,70rNgfAaqDUkJLvT
2326,103 Razz Way,Panama City Beach,FL,32408,3Auh1vBEm2LG1Mch
2327,595 West 15th Street,Fayetteville,AR,72701,B014Bc1pH4p94wvw
2328,1217 Greenwood Court,Nashville,TN,37206,d1BQDRbS0Eg89M8M
2329,2399 East 14th Street,San Leandro,CA,94577,FnNFbAhysZNIv71y
2330,1109 East Glenn Lane,Fayetteville,AR,72703,69ZK5ECvYq5Lz5Fr
2331,1536 Rachaels Ridge,Nashville,TN,37076,UNOoC5Z5zVzB2gg6
2332,228 East Huntingdon Street,Savannah,GA,31401,LzRWrdjYKlyZJF9K
2333,102 East Ash Road,Plymouth,VT,05056,OEj0GO0QoFxnK9ly
2334,2314 Marian Bay Circle,Anchorage,AK,99515,lNDqd7VAWwPtpYyB
2335,12 Fletcher Lane,Shelburne,VT,05482,xXN3pjflc4RJXRlU
2336,21402 Caribbean Lane,Panama City Beach,FL,32413,WjyEOv4s1V3K3cr4
2337,2700 Verona Way,Edmond,OK,73034,5iPYWa2znmymUciX
2338,7010 Fulton Court,Montgomery,AL,36117,uP7ZRZMlm8PSmLxT
2339,836 Lamont Street Northwest,Washington,DC,20010,Mb4ccRh1hWGe3bWm
2340,103 Fenwick Village Drive,Savannah,GA,31419,ES0rQJcMdQDrbBy8
2341,16572 East Wyman Road,Fayetteville,AR,72701,uCRvu9Feyv82P0r5
2342,9 Montello Street,Brockton,MA,02301,Swf3KydocW456YZY
2343,536 Walters Farm Road,East Haven,VT,05837,dCfeUaC46Sb8g0Ek
2344,22524 Sambar Loop,Anchorage,AK,99567,b0VGbYYgvqghPwo6
2345,417 West Park Place,Oklahoma City,OK,73103,aVq2aiE58RZRNWZF
2346,Tyndall Drive,Tyndall Air Force Base,FL,32403,qdimE1PAKcTZ9yvq
2347,3708 Fort Lincoln Drive Northeast,Washington,DC,20018,zo4M6eavl4SbJi8L
2348,2505 Shadow Lane,Nashville,TN,37216,JcVAIqmJ4H24xtP6
2349,3534 Saint Lawrence Road,Nashville,TN,37080,0FNoxaJxEhM4EQcm
2350,1709 West Market Street,Louisville,KY,40203,rjQCPtEH6BHXvp9H
2351,74 Westerly Street,Manchester,CT,06042,Nc96j1UYBPTzJ3mL
2352,5156 South Dakota Avenue Northeast,Washington,DC,20017,CoA8tZG28YRgkmvV
2353,7 Rose Dhu Lane,Savannah,GA,31419,AzGbk3qB4rfBlzZA
2354,5801 South Watterson Trail,Louisville,KY,40291,aXHLa5E3b6FVPSFc
2355,20370 California 116,Monte Rio,CA,95462,YpR8qFq0fQqS3TQA
2356,4455 West 61st Place,Arvada,CO,80003,Zdh56ySHIGG0wYwh
2357,517 Retford Drive,Severna Park,MD,21146,pcpv8losinOB1Ie9
2358,9904 Daniel Drive,Louisville,KY,40118,GyPkLbFBaRl37lfN
2359,1709 Travers Court,Edmond,OK,73003,eCCS5YObCs7Vegnk
2360,1313 Southwest 115th Place,Oklahoma City,OK,73170,AKTU6r1jIqDY3pdZ
2361,12 Winter Street,Manchester,CT,06040,DA3ytxcBdP8Ns5tw
2362,539 Palermo Road,Panama City,FL,32405,GrIfxGDsLNx7CDna
2363,534 Turpin Street,Anchorage,AK,99504,Cs5FqztQp4Rzev6L
2364,3414 Vance Lane,Montgomery,AL,36109,UFCsAwdyidgCXNTh
2365,40 Strawberry Lane,Manchester,CT,06040,N4qFTkfAo0v4UDoc
2366,5119 West Columbine Drive,Glendale,AZ,85304,WosNTr2nC5ZZrklX
2367,2505 Southwest 43rd Street,Oklahoma City,OK,73119,4CjPz3ocs6wraKfG
2368,218 Turtle Cove,Panama City Beach,FL,32413,KZNBQtAGkkPkBcUv
2369,16 Ambassador Drive,Manchester,CT,06042,7iecKVQLN8FLzXW0
2370,1309 Clay Avenue,Panama City,FL,32401,3nfPTzjNOlfZ0EnA
2371,46 Sugarloaf Hill Road,Warren,VT,05674,8QMCMV726oKTRq9u
2372,99 Summer Street,Manchester,CT,06040,IPiL0BkJMdKqn1jz
2373,38 Bruce Road,Manchester,CT,06040,C8LJp8ho62EDQTkZ
2374,8213 Northwest 65th Place,Oklahoma City,OK,73132,yfrQdDhtJdb1aaMy
2375,1149 Darwin Street,Savannah,GA,31415,SZAi7MJdWFqvoSnc
2376,247 Summit Street,Manchester,CT,06042,sVwaEm639jX04IqG
2377,7090 West 64th Avenue,Arvada,CO,80003,OLRg0bjvYKEP7it2
2378,1054 Overton Lea Road,Nashville,TN,37220,7PYbgoBU5XnBQ8u2
2379,205 West Montgomery Cross Road,Savannah,GA,31406,Hy5pL6d5H3YMbpJx
2380,8101 Vaughn Road,Montgomery,AL,36117,nv84yPxzd7QHRHnx
2381,5950 West Missouri Avenue,Glendale,AZ,85301,UlatWdwa86DSjRLc
2382,713 Flight Avenue,Panama City,FL,32404,c0nya7Jdp2O3APnI
2383,90 Peabody Street,Nashville,TN,37210,95RU3aBBP4mtkbSm
2384,200 Redwood Road,Manchester,CT,06040,RPNDOvuPdQW6rk6W
2385,243 McKee Street,Manchester,CT,06040,O9JSrigyreV8KOPz
2386,409 Snook Lane,Panama City Beach,FL,32408,ExOzo4ZFRQCAAYNR
2387,594 Putnam Avenue,Cambridge,MA,02139,zcZOs5RsJE1zl3am
2388,264 River Road,Richmond,VT,05477,duMQA8abGoC0kbIr
2389,7541 Florence Circle,Anchorage,AK,99507,KFivbeYbDEYKsSbA
2390,5123 Ewell Street,Savannah,GA,31405,muQnhO59bctbjiMB
2391,302 Elberta Street,Nashville,TN,37210,mYcUMAXmqYINxAbP
2392,831 West Center Street,Fayetteville,AR,72701,6dqJ7ckA2cweXHGo
2393,649 Praderia Circle,Fremont,CA,94539,qGzx43zzQwrbyc2D
2394,2330 39th Street Northwest,Washington,DC,20007,1BKfRdv2VP78zXej
2395,227 Danyacrest Drive,Nashville,TN,37214,mndB76nuCDLMIAJF
2396,1908 Newton Street Northeast,Washington,DC,20018,IaVvGvJoHEPgKQ9W
2397,2375 Palm Lake Drive,Merritt Island,FL,32952,1q2VIlrfmHhYs9nF
2398,9436 Briarlea Court,Montgomery,AL,36117,MfY8wtc3qe2nkNzV
2399,1025 Rose Anne Road,Glen Burnie,MD,21060,It01vGNh9QwCdOdY
2400,4700 10th Street Northeast,Washington,DC,20017,bJltfy9GA4ZMe0LE
2401,2803 6th Street Northeast,Washington,DC,20017,FPC1url8ePVVVKY3
2402,900 Dupont Road,Louisville,KY,40207,ppIFN8bkdH3X7ssv
2403,5029 Montclair Drive,Nashville,TN,37211,q7w7PZcTY3sSt5B0
2404,3101 Penland Parkway,Anchorage,AK,99508,vvnuKUQ4WIeI5Dn9
2405,3504 Mount View Ridge Drive,Nashville,TN,37013,89R93aCpTrfKqyED
2406,768 North Main Street,Manchester,CT,06040,t7AaVd0horYC2Vu3
2407,1744 Shoreham Drive,Montgomery,AL,36106,0NYj0k3TpQkPWunl
2408,103 Edgewater Road,Severna Park,MD,21146,d0hL9btOVMLn8j8P
2409,7966 Chase Circle,Arvada,CO,80003,oCYP3Ab7zIONn6vW
2410,241 Braxton Way,Edgewater,MD,21037,nGfoKFdY5EeMJpAy
2411,6460 Lacrosse Lane,Glen Burnie,MD,21061,X98UiQk5Y4ROQbsP
2412,162 Wells Street,Manchester,CT,06040,JLmhkS9CepMDVSjJ
2413,115 Home Avenue,Burlington,VT,05401,48yn5VXhr7fa89y5
2414,1100 Cleveland Street,Fayetteville,AR,72701,H2R3XhQd7UVjbzYb
2415,56 Daley Lane,Castleton,VT,05732,LObTh98x7WpEGO9x
2416,461 Alder Street,Eureka,CA,95503,gX6SORdkOTYhchr4
2417,4601 Reka Drive,Anchorage,AK,99508,Drk3zVKAc6AUBhFK
2418,1 Blue Jay Terrace,Wareham,MA,02571,1ARn1f14kwTIYCD8
2419,13417 West Marlette Court,Litchfield Park,AZ,85340,Hr7UHTOPIs6snspv
2420,7931 West 55th Avenue,Arvada,CO,80002,yVnc11ledFK34PV3
2421,222 Rockcrest Way,Louisville,KY,40245,M3wVZvlyvGSWRFXJ
2422,3324 Valley Lee South,Laurel,MD,20724,7Mg5j4VJRZvszaez
2423,197 Oak Street,Manchester,CT,06040,aD6podBQSCK9H2Vw
2424,800 West Street,Panama City,FL,32404,oMpuyp0P0YOnpeVm
2425,3537 West Chevaux Drive,Fayetteville,AR,72704,WoWIckuj5V2WTR6O
2426,106 Camelot Drive,Plymouth,MA,02360,k3lyTVgniJ7xl0VC
2427,517 West 33rd Street,Savannah,GA,31415,Wq5JtHsDfpcAl9nl
2428,7113 North 69th Avenue,Glendale,AZ,85303,Nt80lIrMuLn6UBQv
2429,7453 West Melinda Lane,Glendale,AZ,85308,SRwVJGxKCNLm40Jt
2430,22709 Canyon Terrace Drive,Castro Valley,CA,94552,ed4b1xeD7Slg2XXZ
2431,8041 Elton Street,Glen Burnie,MD,21060,9Mar8piXNHQSI2QY
2432,921 5th Street Southeast,Washington,DC,20003,qfz86WKbnSBHtJLg
2433,2316 Northwest 113th Street,Oklahoma City,OK,73120,Ye43BLX7fsKNhGf7
2434,2200 East Victory Drive,Savannah,GA,31404,cZi26BZ27i1bKRdL
2435,19237 North 69th Avenue,Glendale,AZ,85308,m2QssAVxVjJzOgeL
2436,2560 Michigan Court,Panama City,FL,32405,rs5aaukxjJ7vxF9d
2437,61 Thomas Street,Dedham,MA,02026,aEuwqiMTziUNOa9y
2438,474 Merritt Avenue,Oakland,CA,94610,t2rES3zQLuI3QwCK
2439,6 Greenleaf Drive,Merrimac,MA,01860,EL9zY6rV0XkdxDab
2440,309 Glenwood Avenue,Glen Burnie,MD,21061,uDcDYxCllAtO9kj3
2441,5836 Red Barn Road,Montgomery,AL,36116,oqnCFMHjxfHjqY5U
2442,161 Creek Road,Middlebury,VT,05753,oLolt07lYKSLIKJ0
2443,3072 The Alameda,Concord,CA,94519,Iwiv3nVhbjAgSDmE
2444,2113 Bowen Drive,Montgomery,AL,36106,uB8YHyP4EcNhGr4R
2445,20117 Lucas Avenue,Anchorage,AK,99577,Y71jPwgx4EImJP1K
2446,14347 Corvallis Street,San Leandro,CA,94579,QJebTU0aE3SmTdPC
2447,11507 East Neville Avenue,Mesa,AZ,85209,8DWkjtzfBJCHYIsU
2448,95 Middle Turnpike West,Manchester,CT,06040,KNXaMdbpsSdvmHsP
2449,185 Woodlawn Road,Burlington,VT,05408,1GhCqTuTOVV9HFId
2450,2829 Cambridge Court,Oklahoma City,OK,73116,ZC56YxwVvD1AyGUz
2451,1720 D Street Northeast,Washington,DC,20002,sey7rFmoEX7sxSvG
2452,435 Porter Lake Drive,Springfield,MA,01106,NTyKBWZnZQrQgVb9
2453,10891 Kamishak Bay Circle,Anchorage,AK,99515,gZAWpyFKBJIPRPN9
2454,2 Misty Marsh Drive,Savannah,GA,31419,uo4jrcwgnY2Dp7Pm
2455,55 Armory Street,Quincy,MA,02169,njCpMJ5tKWOey2OE
2456,1250 Pram Place,Annapolis,MD,21403,1HYyhyMSJzQYmcqr
2457,31 Yosemite Avenue,Oakland,CA,94611,rk8UgqWbtUhvkhoQ
2458,287 Lawndale Drive,Nashville,TN,37211,aEcenxHzlRsyBfcu
2459,11117 Stonehedge Drive,South Burlington,VT,05403,BHaa8UVuxp30Asa8
2460,2362 Acushnet Avenue,New Bedford,MA,02745,Cjkspcs4ytTyESNJ
2461,3402 Prestwood Drive,Louisville,KY,40219,Q6l91XDxJrGvJNtS
2462,780 South Wilmington Avenue,Fayetteville,AR,72701,MdIpL1g0WXgysDee
2463,5434 Cedar Ash Crossing,Nashville,TN,37013,ZtuGvVBvZGXrfoRy
2464,7549 Delancey Street,Youngstown,FL,32466,23FvieIRUss9dXv8
2465,3142 North Warwick Drive,Fayetteville,AR,72703,zMwawzI123fGafVT
2466,225 Almond Street,Fall River,MA,02721,u14IYautrNlIqb1i
2467,12 Netherclift Way,Savannah,GA,31411,ftYJJZSPMxLszR9a
2468,938 Elkridge Landing Road,Linthicum Heights,MD,21090,bdCRkCfSSUqTnmq5
2469,5743 Teller Street,Arvada,CO,80002,5JnZQG9ss6qm4G4A
2470,240 Lynwood Drive,Montgomery,AL,36105,O1QBOFGcaA3fB9Fs
2471,1627 Connecticut Avenue Northwest,Washington,DC,20009,9tMHq4rtUJUMKJef
2472,7785 Montgomery Mews Court,Severn,MD,21144,rMqSLmKp3MMfJms9
2473,1495 Snell Boulevard,Nashville,TN,37218,rzFNQgZNE9mXSERN
2474,1818 Bay Street,Alameda,CA,94501,Dhylal8s24yTa2Hl
2475,2631 Northrup Place,Anchorage,AK,99508,isMooM84pMZIVtfj
2476,208 Kinnaird Lane,Louisville,KY,40243,NtyY7sCMtW47dvkQ
2477,2109 Puddingtons Patent Way,Gambrills,MD,21054,XHleG1zbhTniSY3m
2478,645 G Street,Anchorage,AK,99501,kwI3Q92fRy9kmAyf
2479,5 Irving Street,Easthampton,MA,01027,xncFCHZpJPwTlf41
2480,1707 6th Street Northwest,Washington,DC,20001,wVXxVh0T6HReP3Yo
2481,8614 Surf Drive,Panama City,FL,32408,Sk1i2a8qy6hbufts
2482,7192 West Topeka Drive,Glendale,AZ,85308,D8qmPldVFNyJ9e2l
2483,619 West 19th Avenue,Anchorage,AK,99503,rlUbtpe87CKfmHAj
2484,1992 West Street,Brookfield,VT,05036,5rMyvppoDcGJtjqt
2485,534 North 31st Street,Louisville,KY,40212,YeJyhATiUbM26wgv
2486,7420 Bearfoot Circle,Anchorage,AK,99502,wIbaaqXoHwUwSFTM
2487,265 Slater Street,Manchester,CT,06042,OQLENLzlEpFU8pen
2488,1642 Fendall Court,Crofton,MD,21114,5vemcNClERpVncVA
2489,1815 Grove Hill Lane,Montgomery,AL,36106,5Um4cUgSpCS6RxU2
2490,6609 Westshire Drive,Louisville,KY,40258,sAM6BwQQjoDv1ZqW
2491,6081 Jay Street,Arvada,CO,80003,VXzrqKfDGkb3iEAI
2492,711 Tashanna Lane,Southport,FL,32409,ANOhVvT5uY3Iqulm
2493,2638 East 40th Plaza,Panama City,FL,32405,R0tRFZlKVIpB8m04
2494,4121 Northwest 31st Street,Oklahoma City,OK,73112,60T0qySMZQRHYJeX
2495,6653 West Rose Garden Lane,Glendale,AZ,85308,6q09g2DNgOC5z8tY
2496,82 East Foster Street,Melrose,MA,02176,TT707E49GMtyV6EL
2497,13426 North 54th Drive,Glendale,AZ,85304,w31NzEIkmyXsUtdm
2498,6223 Kilmer Loop,Arvada,CO,80403,smgxsKWn3ntfcuw6
2499,7027 West Phelps Road,Peoria,AZ,85382,TB0N4vkaU070cupL
2500,3505 Richmond Avenue,Anchorage,AK,99508,BZuxNd5QnV8trLBJ
2501,704 Crescent Road,Nashville,TN,37205,AHEQIbmO3mQXDhiZ
2502,6315 North Oro Vista Court,Litchfield Park,AZ,85340,cmCeLDAAmB7IJ256
2503,3008 Russell Street,Berkeley,CA,94705,aXoXJSSyWxlDRyIJ
2504,5228 North 70th Avenue,Glendale,AZ,85303,V4wCsy9Vo1ZyBRas
2505,4039 Pipeline Road,Panama City,FL,32404,H8NKoM3tmxQOSLT5
2506,45 Baldridge Road,Annapolis,MD,21401,IZjAxwizyBYNHvWg
2507,17 Stratfield Avenue,Westfield,MA,01085,4BqM6KMGacjrwA6C
2508,110 Carraway Lane,Annapolis,MD,21401,zIibWpdNxyWtNvZe
2509,616 Bush Hill Road,Manchester,CT,06040,TwpmXPQAJSysZJxu
2510,1908 Peachtree Avenue,Oklahoma City,OK,73121,PPROpKO7JmRflzcv
2511,204 North Holt Street,Montgomery,AL,36104,Guc3fL6aINya1Px3
2512,17 Marina Drive,Savannah,GA,31411,QKXyRTxWKGVvf1gc
2513,1397 Tallac Lane,Lincoln,CA,95648,Onnp2Hm0OPzKsW6p
2514,1693 Alice Court,Annapolis,MD,21401,8ZBBmfhC2TKA5HFU
2515,711 Tatem Street,Savannah,GA,31405,w00VNK10t1ten49e
2516,7910 Ralston Road,Arvada,CO,80002,OpLtQuOL6EV5ExlD
2517,1809 Hughes Street,Nashville,TN,37208,Y0b1c8Pk7sFhsCLR
2518,9119 Whispering Willow Way,Tampa,FL,33614,VxRxpzq7FAZGhBNq
2519,141 Parker Road,Pittsford,VT,05763,SMjxmnbd4Yds1rFD
2520,2348 Cantalise Drive,Dublin,CA,94568,pZEt7Xm5bhplspNx
2521,649 South 41st Street,Louisville,KY,40211,bsSdO17Qbw2fy3L8
2522,1113 West Trinity Lane,Nashville,TN,37218,cV8tbkQ8PZTVtiz1
2523,22 South Duncan Avenue,Fayetteville,AR,72701,K3ZDN0tJNjo8BHXX
2524,407 West Hillwood Drive,Nashville,TN,37205,2U5oMv67E2F2ZxU7
2525,3446 Northwest 48th Street,Oklahoma City,OK,73112,cG9TKhMMPZRLJcDw
2526,880 H Street,Anchorage,AK,99501,xWsFVxfj0dyBNFwv
2527,405 Flint Ridge Court,Norman,OK,73072,479DU4tz1HbCi347
2528,7800 River Mist Avenue,Bakersfield,CA,93313,qHSBvFBLeKzAMVdk
2529,3704 Hughes Road,Louisville,KY,40207,c8anR7W15NAN4ywW
2530,7700 Morningside Drive Northwest,Washington,DC,20012,gD4lLTDFkVi6GF1g
2531,262 Mitchell Street,Groton,CT,06340,QUfDhje73ZNAheUQ
2532,84 Orange Street,Barre,VT,05641,R65hVcXe3RfdCULr
2533,7232 West Melinda Lane,Glendale,AZ,85308,LnkB5AJgC5LLpzLb
2534,4725 Royal Oak Drive,Oklahoma City,OK,73135,y11CGZVd7JojyBIG
2535,1247 West Mount Comfort Road,Fayetteville,AR,72703,pD36hQ2ZbG3HzJ8K
2536,5600 Carmichael Road,Montgomery,AL,36117,W5CUfS0EAj0v8Wgr
2537,537 East Waldburg Street,Savannah,GA,31401,C4QqtpOBchAcpwNR
2538,2708 Riverview Drive,Riva,MD,21140,kneQAtnJspzHzHGD
2539,109 Peter's Quay,Savannah,GA,31410,I99BgV4pHrzL0xA1
2540,7025 Queen Street,Arvada,CO,80004,PJLDf5O7HXDx84YT
2541,26 Wetherell Street,Manchester,CT,06040,U6jhdVl5MW9anlUP
2542,3125 Willow Lane Drive,Montgomery,AL,36109,9dL5pgg29Jla7Uja
2543,700 Towering Oak Court,Glen Burnie,MD,21061,VwNQcp1ml0FVGkUj
2544,1679 Frederick Michael Way,Livermore,CA,94550,xL264vi07vwDlJhT
2545,4331 Foeburn Lane,Louisville,KY,40207,eue1wUCXnE5Cxn4B
2546,7915 Depew Street,Arvada,CO,80003,FlFU5lp9UulG2TgD
2547,8432 West 78th Circle,Arvada,CO,80005,gkNtguOgH17BdfaF
2548,4506 Eads Place Northeast,Washington,DC,20019,FB8fGsRu33KQTXTP
2549,6500 Park Club Circle,Louisville,KY,40229,MZW1syg5UT0RrXbp
2550,7717 Everett Street,Arvada,CO,80005,pRPlwUFPPAmBtnMt
2551,304 Wilmington Island Road,Savannah,GA,31410,qsDxOIGb4DNW8V6j
2552,4300 Kansas Avenue Northwest,Washington,DC,20011,Nxl97ZM0wMZksIaz
2553,4822 Piney Branch Road Northwest,Washington,DC,20011,YMqUu9eVbzvzO5Yu
2554,52 Park Street,Manchester,CT,06040,iGfYmbJFsU844EDa
2555,713 Millard Fuller Drive,Montgomery,AL,36110,68m9u8M3DlIJ4pP7
2556,405 Savannah Park Way,Panama City Beach,FL,32407,xbHu4e1yrpGGiiG6
2557,718 Newhall Drive,Nashville,TN,37206,DqjqR7Kpkq64beJu
2558,6221 West Wethersfield Road,Glendale,AZ,85304,2Qt5YIOOZkePNdBs
2559,1021 Heathfield Circle,Brentwood,TN,37027,ZT8VMyjb3rIqgxCz
2560,118 Pearl Street,Manchester,CT,06040,F5KCnftuNc3fbcq9
2561,502 Main Street,Walpole,MA,02081,0APKenO3dedJrwaE
2562,683 North Wilson Avenue,Fayetteville,AR,72701,PjWLoZK2OzvjWkLN
2563,800 California 116,Sebastopol,CA,95472,fvnpobuuVJtb2aff
2564,105 Inglewood Drive,Glen Burnie,MD,21060,e2RHCN3uGMA2kBDi
2565,121 Alpine Way,Panama City,FL,32404,APwVZPir7sIm4E2u
2566,5611 North 61st Avenue,Glendale,AZ,85301,3OVNYFuOSWZl52nO
2567,8886 West 77th Circle,Arvada,CO,80005,UrZV3B77fwNynyXR
2568,9222 Sandra Grace Road,Southport,FL,32409,QTjSQytfgPUfEKGS
2569,16896 West 85th Lane,Arvada,CO,80007,ZRXPxsobYRn821ST
2570,8401 Pinewood Drive,Oklahoma City,OK,73135,ihEaXS5qSflnOw3f
2571,1514 16th Street Southeast,Washington,DC,20020,zsWXBi37jdoOXH00
2572,24647 Patricia Court,Hayward,CA,94541,dD90ls8OpHGuPqm7
2573,637 Laurelwood Circle,Vacaville,CA,95687,Fuy5l3AFdWjKsaXo
2574,80 South Main Street,Randolph,MA,02368,INNu0hxqYfJFMgoN
2575,36 Saint Ives Drive,Savannah,GA,31419,VswWBP8IA6h7B7SG
2576,3483 Canyon Creek Drive,San Jose,CA,95132,JxZJ3XXDUXxl8eFu
2577,60 Willow Lakes Drive,Savannah,GA,31419,lrLQrEtVDRyZFl3h
2578,607 Trails End Road,Manchester,CT,06042,hxAiJL9ZMpofyITX
2579,10802 Brickside Court,Riverview,FL,33579,Hg64vkQ7D6o4HglH
2580,168 Partridge Hill Road,Charlton,MA,01507,wb4sVNISfLzuw3I4
2581,7607 Beulah Church Road,Louisville,KY,40228,Tu87KtpbQiiRhBDZ
2582,4418 15th Street Northwest,Washington,DC,20011,e7rQ2P8SbaRmjBEs
2583,4770 Balboa Way,Fremont,CA,94536,Prptxe931Og3Bzu3
2584,1500 South Division Street,Guthrie,OK,73044,Uuyj3jWdzBQtqotz
2585,2636 Knollwood Drive,Montgomery,AL,36116,RoKdJmIdayTeVa3b
2586,38 Devon Drive,Manchester,CT,06040,E7dNfbGbTkHZOTSm
2587,17615 Center Drive,Fountain,FL,32438,WWV7D5im0VBen1ON
2588,7144 Marlborough Terrace,Berkeley,CA,94705,AsHjpz046x20pOdV
2589,425 Buckhalter Road,Savannah,GA,31405,GUWRg2bpFbC2cz9m
2590,1345 G Street Southeast,Washington,DC,20003,GRzwSzS7XhmO74a9
2591,5408 Iris Street,Arvada,CO,80002,eE2q60KPoVzBHGof
2592,319 West Silverwood Drive,Midwest City,OK,73110,xkLoKDiW3N33BnOJ
2593,416 Waverly Avenue,Baltimore,MD,21225,VsQ36tiX3vTxCxkY
2594,813 Linda Lane,Panama City Beach,FL,32407,Vn0NCufeQJgGNA55
2595,13583 West 68th Avenue,Arvada,CO,80004,5S9Ud2hmDDUpBVCR
2596,640 Hilliard Street,Manchester,CT,06042,dGkg5CUMzX5unkjo
2597,4216 Winter Lake Drive,Louisville,KY,40272,Ucd5fK5g36H8lsqM
2598,1566 Wingate Park Court,Montgomery,AL,36117,8cSMUJcFcoUWtzB9
2599,467 Biscayne Avenue Northwest,Palm Bay,FL,32907,ovc9Q9PL3O5btekK
2600,8028 North 56th Lane,Glendale,AZ,85302,nGism1ipjh2iradU
2601,39 Tania Drive,Manchester,CT,06040,N3Isaw39bhjIH36g
2602,512 Tennyson Road,Hayward,CA,94544,Fp1Mq4foKPwI6qtH
2603,1245 Southwest 31st Street,Oklahoma City,OK,73109,tkwPvRurwCAWCy7U
2604,6225 West Citrus Way,Glendale,AZ,85301,GGYxhqsmoEW0sHFF
2605,1164 Middle Turnpike West,Manchester,CT,06040,03Cq96Xqzwf2LcQ3
2606,20000 North 57th Avenue,Glendale,AZ,85308,dGhwig0qOeTjuVN9
2607,8307 Brookline Place,Oklahoma City,OK,73159,Nu1koCApWnCIyNIG
2608,3200 Southwest 95th Street,Oklahoma City,OK,73159,5GZ5LoYlzEyQ6wgZ
2609,3 Carson Street,Chico,CA,95928,ByuJkdZWKfnuftyD
2610,4000 Beth Manor Drive,Montgomery,AL,36109,eaVDnzW5uikiQY93
2611,162 South Main Street,Stowe,VT,05672,hg7bPHkDukJXKoCG
2612,1254 Muldoon Road,Anchorage,AK,99504,QXxBXWqUkt2IoLeh
2613,55 Russells Mills Road,Dartmouth,MA,02748,ZpO5uY8Dd3tWHzDh
2614,10 Tel Road,Woodford,VT,05201,bB8KU3STjfIfLmIV
2615,1713 Apian Way,Edmond,OK,73003,78VotgBLrCiFyovq
2616,152 Teddy Drive,Union City,CA,94587,sWsttJ3vYzRz8pCa
2617,10914 Oak Harbor Drive,Louisville,KY,40299,hjl0GU4eCleLi2jx
2618,85 West Seymeria Drive,Beverly Hills,FL,34465,3DDYn46Mceu9tKom
2619,4246 Ray Drive,Montgomery,AL,36109,ExenNoyT2jbBlX8x
2620,584 Westford Street,Lowell,MA,01851,kcf3oi1Ic9LhDvQp
2621,12546 West Montebello Avenue,Litchfield Park,AZ,85340,vnJtUNCIpN9tTK9m
2622,4709 North Willow Avenue,Bethany,OK,73008,JXH3O9wjuCcMRjWf
2623,3919 Landherr Drive,Louisville,KY,40299,Byrnt18ukkp2P4wd
2624,19 Katama Way,Pooler,GA,31322,TPukV3uVYKMrpeq9
2625,661 West Corinth Road,Washington,VT,05675,U36uXqW5PZ5j4Umw
2626,2121 Stepping Stone Trail,Edmond,OK,73013,yQaQL6CeUlLhTSPv
2627,56 Channing Drive,Manchester,CT,06040,Va3Zl5gegFwV8v2v
2628,1939 Greenwood Street,Savannah,GA,31404,uAPk4A0YeFse2S7s
2629,10 Bramblebush Drive,Barnstable,MA,02635,YRyz4QfRhE6GMbdH
2630,5119 Marla Drive,Panama City,FL,32404,2Kvf4RuVJyHy1QuP
2631,4125 Cobia Street,Panama City,FL,32408,MdVuS0AlY31Z6X7K
2632,6820 West 84th Circle,Arvada,CO,80003,kis8Y5RLQsZnnQhv
2633,7730 Wilkinson Road,Nashville,TN,37080,ANHTziBEcp5ITtJQ
2634,302 Black Sky Lane,Pasadena,MD,21122,PjCKtqFgDidyPpcF
2635,18505 Onyx Avenue,Waddell,AZ,85355,4L91yrZylZs3Oqyu
2636,12438 West 83rd Avenue,Arvada,CO,80005,M12o8aVWq5iF8Fw2
2637,653 Vermont 12,Hartland,VT,05048,Nh5EJI2VqaACZqRQ
2638,10927 West 59th Avenue,Arvada,CO,80004,iczJh762rE9YNSJa
2639,5039 North 57th Avenue,Glendale,AZ,85301,8mZlS5aMjXMmeGne
2640,9009 West Nicolet Avenue,Glendale,AZ,85305,B2KXAgPIYVYMj0ar
2641,645 Malaga Place,Panama City Beach,FL,32413,lKDIJYkcndzOyLkL
2642,2064 West Columbia Way,Hanford,CA,93230,LnE1J4bd84rIExAB
2643,800 Quacco Road,Savannah,GA,31419,kIvi7d4KxOwNwPZj
2644,8 Chandler Street,Plymouth,MA,02360,AgCWglEBHOm8AYbx
2645,3 Carvel Circle,Edgewater,MD,21037,Vx7kuSrLMITlOQUD
2646,2196 East Jonquil Road,Fayetteville,AR,72703,WcqoOmEvUtqLHnV4
2647,129 Lark Lane,Farmington,AR,72730,gThQV3NCsR3diIdp
2648,243 West Haven Drive,Severna Park,MD,21146,J71Bce9yICG2AMDU
2649,4960 Maple Grove Drive,Fayetteville,AR,72764,7MZ7pg8iglDfgHz3
2650,47634 Kato Road,Fremont,CA,94538,ZIIGq9ulkBUUR1Ry
2651,6902 West Sherri Jean Lane,Peoria,AZ,85382,DoJBgMouPNrvthrc
2652,2703 Woolsey Street,Berkeley,CA,94705,VkN5nmCKeeD2GHW2
2653,302 Tuten Avenue,Savannah,GA,31415,7B6MzDtW5BsAwcbZ
2654,112 Cherokee Road,Nashville,TN,37205,mA8q9ozbf35Fq4tl
2655,1528 Spruce Street,Berkeley,CA,94709,0TFAmsxHGCPARfis
2656,244 La Normandy Drive,Louisville,KY,40223,TW56BY4lAQThL0PY
2657,6950 West Nicolet Avenue,Glendale,AZ,85303,7Bb1cs3hm7H4yyDU
2658,2147 Millhaven Drive,Edgewater,MD,21037,O6rQpqfvBrBvrr8F
2659,4313 Bylsma Circle,Panama City,FL,32404,HUO44ENYz1e1Psvk
2660,2201 Fendall Court,Crofton,MD,21114,tUgR6q13Kmu30G7W
2661,4360 Hagan Road,Montgomery,AL,36109,xf0GG4HENiRVXAFb
2662,10277 West 52nd Place,Wheat Ridge,CO,80033,FDNxkaHqMyzZOZG8
2663,12283 Thomas Lane,Yucaipa,CA,92399,ThAbUz7ZTTTeqy6N
2664,14854 Bay View Circle,Panama City Beach,FL,32413,1ArQQNe3o4OZ4qu8
2665,314 Lallemand Court,Nashville,TN,37211,CY757Rd3khEEZtSo
2666,901 Samson Road,Saint Albans City,VT,05478,znMCOCYkl85I0L0o
2667,4405 West Solano Drive South,Glendale,AZ,85301,C83SGoTJ1IZn5AQF
2668,9903 West 53rd Place,Arvada,CO,80002,Tq2CuGRufHBy9vzX
2669,6870 West 52nd Avenue,Arvada,CO,80002,vpTdkCBPcmxUOfjx
2670,265 Airport Road,Weathersfield,VT,05151,fqHRUNF741OCb1d0
2671,1408 Holly Street,Nashville,TN,37206,RkjSMGB76zLM2eZ1
2672,1333 Kenyon Street Northwest,Washington,DC,20010,xPNd27TcxE2YtrbE
2673,2203 West 24th Street,Panama City,FL,32405,MbKZpPhrPNDjGfeq
2674,4235 Phelan Court,Montgomery,AL,36116,1Ikio3o2xwJgfDIO
2675,24020 Reese Road,Anchorage,AK,99567,rYZtDajVJQMIu75q
2676,1828 East Parkshore Drive,Fayetteville,AR,72703,abgBBqYZw3QoTE1m
2677,77 Shadow Brook Estates,South Hadley,MA,01075,lUFTFM2oiNg05jbR
2678,125 Heritage Way,Savannah,GA,31419,gYhA0Lc3N3yPxPvM
2679,61 Hills Street,Manchester,CT,06040,DROp4ZNRKBCVrkn0
2680,3819 Dartmouth Avenue,Nashville,TN,37215,HvdYp6JSFLnJG5rX
2681,6434 Wright Street,Arvada,CO,80004,O5ZvdeMlMWaVtnUa
2682,743 East 9th Avenue,Anchorage,AK,99501,hH1PaZEvXyN8xRz9
2683,7901 West 52nd Avenue,Arvada,CO,80002,UEiPRukseA7kajqO
2684,26 Battery Drive,Tybee Island,GA,31328,ubfzx1pceD4euPrb
2685,1194 Cragmont Avenue,Berkeley,CA,94708,MWMZ7jBWazfeP9mf
2686,104 Bennington Street,Lawrence,MA,01841,nyZvoOrHCqXoVxxh
2687,1380 Quincy Street Northwest,Washington,DC,20011,esIqWSfOGUvXFapI
2688,46710 Crawford Street,Fremont,CA,94539,PWqaPSTFvMknrdv9
2689,3328 Sunny Meadows Court,Birmingham,AL,35242,jL5giRhv8wxkNty8
2690,225 Kennedy Road,Manchester,CT,06042,f2MY0XSJTPCVT6Xa
2691,6622 West Mescal Street,Glendale,AZ,85304,R3k2KfcRI4H4zFbI
2692,133 White Cap Way,Panama City Beach,FL,32407,8hnhsk0ATcXPhp4p
2693,4430 Davenport Street Northwest,Washington,DC,20016,RnmDoqJBQiBnkGSD
2694,814 Miner Road,Crownsville,MD,21032,p4yCmP0a3TEc5cVu
2695,1302 Cherry Street,Panama City,FL,32401,WnW6q2yK3CnGaH6a
2696,2522 South College Drive,Fayetteville,AR,72701,IFBJnfq5eKTfa4xP
2697,6710 Quay Street,Arvada,CO,80003,MTXtNO3f7zhuG0Uu
2698,1514 Wyoming Avenue,Lynn Haven,FL,32444,xWm55EzcN9dpJE3w
2699,123 Elizabeth Drive,Manchester,CT,06042,mmzC8OtrDMtHm36C
2700,7350 West Wedington Drive,Fayetteville,AR,72704,5AF3LNPqbnqBQtcL
2701,6604 West Montebello Avenue,Glendale,AZ,85301,OfkG4h5K9YjoMjk0
2702,812 Southwest 151st Street,Oklahoma City,OK,73170,USB60cQNDg0FxKfC
2703,202 Deer Run Trail,Manchester,CT,06042,OvUYL079vZJir43E
2704,4316 Sunnybrook Drive,Montgomery,AL,36108,5ENWGaxkfYGpzjGL
2705,6521 North 65th Avenue,Glendale,AZ,85301,TWmV3pCxKDGrbAdY
2706,24 Norman Street,Salem,MA,01970,3n3Zj21e3TQ4SlYX
2707,3 Furman Place,Swanton,VT,05488,WlywfZxgWRwvG6jL
2708,10714 Abercorn Street,Savannah,GA,31419,9SLBTgqpLL1fl7z9
2709,1823 North Munchkin Lane,Fayetteville,AR,72704,U6wmFSlij5PIqMao
2710,8752 Pierce Way,Arvada,CO,80003,p8AmPCwCWc8iy5NP
2711,68 Princeton Street,Manchester,CT,06042,RmreE5gTaiCVbaeU
2712,147 Willow Ridge Lane,Indian Springs Village,AL,35124,jxeUubvCii75D3MV
2713,4132 Carmichael Road,Montgomery,AL,36106,elzFjwkQ2EvVL1yI
2714,10313 Durham Drive,Oklahoma City,OK,73162,ywD8ItOEQ1EP7ryc
2715,7 Oliver Street,Athol,MA,01331,dCsQAuwFGBkdGhn3
2716,1605 Remington Road,Edmond,OK,73034,CkmyeQiTv81H2AmW
2717,21 Hill Street,Barre,VT,05641,KEpnVB5pFf43hkHG
2718,402 Carlton Place,Goodlettsville,TN,37072,dCoxsmcyxMY3WkZT
2719,1079 East Kentucky Street,Louisville,KY,40204,gyuzDFApexj4q0D8
2720,6391 West 60th Avenue,Arvada,CO,80003,lLCuS23BgXKpiJWQ
2721,5529 East Saddleridge Drive,Fayetteville,AR,72703,eVYRfuZT2s1NaJ0o
2722,8848 North New World Drive,Glendale,AZ,85302,mjkatWPKrgnG6XX3
2723,12300 Apache Avenue,Savannah,GA,31419,13fqyfmQpG0JD1AM
2724,3511 Oakland Zion Road,Fayetteville,AR,72703,QxbcTnsnzuWuACPE
2725,2417 Becker Place,Del City,OK,73115,352w7n2k71MXgVLm
2726,257 Broadway,Lynn,MA,01904,dYHM3clTqGY6x4C8
2727,6311 West Wagoner Road,Glendale,AZ,85308,4rl89fvT8vS78nsQ
2728,17480 Beaujolais Circle,Anchorage,AK,99577,V1kW3KqpnfQAKmr6
2729,5330 Shaun Circle,Anchorage,AK,99507,WwdGvnpAWwAGJkjI
2730,1612 Whitemarsh Way,Savannah,GA,31410,fax91Q43QAbMRCCq
2731,316 Sourwood Court,Millersville,MD,21108,z6tDlX8Vqi2uQIhQ
2732,11813 West 75th Circle,Arvada,CO,80005,Ixu3NUMKnuPec4BD
2733,32 Prospect Street,Manchester,CT,06040,gODzYOqg7GPJ5Fqu
2734,9030 Pennington PIace,Montgomery,AL,36117,oGwIou25unHxnjVI
2735,17 Gregory Street,Middleton,MA,01949,QRa46zQ37wFSnSN1
2736,13531 West 72nd Drive,Arvada,CO,80005,Y1WzZbOYr5cKWZfj
2737,314 Mesa Street,Wheatland,CA,95692,BFJH8jdeEcQX5n1m
2738,3528 Seasons Drive,Nashville,TN,37013,gygTY9FFfoXwmEnK
2739,31 Mitchell Road,Manchester,CT,06042,dVeVWCUbufhBHrw7
2740,678 Fairlane Street,Fayetteville,AR,72701,sFfgRZVY6r6RfvcA
2741,1631 Madison Avenue,Montgomery,AL,36107,cIu6kDtLTAgzEEaI
2742,6932 West Montebello Avenue,Glendale,AZ,85303,bVEkLFdIUhCMhx7S
2743,217 Northeast 1st Street,Moore,OK,73160,qarDAs5xbDn9Yvuh
2744,4667 Benning Road Southeast,Washington,DC,20019,RPeZ3PAPQhvr0ZeD
2745,61 Cubles Drive,Brimfield,MA,01010,w9DxdvoNWSd4h7of
2746,60 Montgomery Street,Springfield,MA,01151,mkrndF4VaUHx32ZE
2747,78 Cliffside Drive,Manchester,CT,06042,MvN0F0BrXGuMpW2j
2748,4200 Northwest 59th Street,Oklahoma City,OK,73112,VuDEL6rorz06DbKl
2749,6912 Sunrise Drive,Panama City,FL,32407,0UTWMZ1oVxEnawHa
2750,4328 Brewer Road,Montgomery,AL,36108,N4Pi0B02XSFnTYrc
2751,14525 South Brent Drive,Oklahoma City,OK,73170,N2Qz7JCLtb3GIZML
2752,319 Elderwood Court,Annapolis,MD,21409,tIpKQKwQEoqKpMqS
2753,1007 Ash Street,Louisville,KY,40217,qJdwz0EYQigzXTQE
2754,6817 Brentwood Street,Arvada,CO,80004,h3NulQwyyb7Glhqc
2755,1432 Bell Trace Drive,Nashville,TN,37013,NRVgvJIHfp7yDU82
2756,534 Hamilton Street Northeast,Washington,DC,20011,ESQbQhf93TtGkWW8
2757,105 West Wareingwood Drive,Montgomery,AL,36109,mdd5qLFq227QnzKV
2758,1110 Okie Street Northeast,Washington,DC,20002,d0qAV2EUzvGKXDrq
2759,720 South River Landing Road,Edgewater,MD,21037,HIdXxulaocaSfBUd
2760,1601 East 19th Street,Edmond,OK,73013,wyNx382bFcp2NpNB
2761,124 Rod Key Street,Lyndon,VT,05851,lckBQOI6OH2oOWr8
2762,6741 West Robert E Lee Street,Glendale,AZ,85308,7MhU7HNAwCAWDuov
2763,701 Mussel Slough Road,Hanford,CA,93230,hys9ZFZ2JZNMIxEC
2764,323 Randolph Street,Montgomery,AL,36104,f0J8QkZkctGSiS1i
2765,1718 Underwood Road,Gambrills,MD,21054,ZBoxwQJCdtim5quR
2766,7431 Gilbert Road,Panama City,FL,32404,K9Y7FX6lDwVPiqTa
2767,6123 West Marlette Avenue,Glendale,AZ,85301,2Tf9ZBzZ9cfFIwkO
2768,218 Saint Antons Way,Arnold,MD,21012,9eMCeftIesHNNUap
2769,4350 Woodley Square,Montgomery,AL,36116,XHUvPEavnPRswd43
2770,3145 19th Avenue Court,Greeley,CO,80631,7iqUSCJ5Bzwgevld
2771,89 Barrensdale Drive,Severna Park,MD,21146,GxQDRG0yRi6BpOyT
2772,531 Bobbin Mill Road,Lunenburg,VT,05906,CB0nS3Af3HLjicQ9
2773,39247 Sundale Drive,Fremont,CA,94538,14y1cp5Tm5rXWKqN
2774,3384 North Southridge Drive,Fayetteville,AR,72703,PvYCfWFc7Gnton87
2775,112 Coleman Boulevard,Savannah,GA,31408,NnABpPY8krkjX6U9
2776,3001 Spyglass Hill Road,Edmond,OK,73034,mqWEbKDbCBhXR170
2777,6366 West Aurora Drive,Glendale,AZ,85308,c7v8GWYPHR3DMMyj
2778,53 Philip Road,Manchester,CT,06040,9TkluvZ9D95OJH6Z
2779,3415 Bog Road,Belvidere,VT,05442,9brznQTB0j42Il1g
2780,552 Maynadier Lane,Crownsville,MD,21032,DxSZMQTFFRJCxXR1
2781,13 Riverview Avenue,Groton,CT,06340,jNKfvQCyF8ZRdUSS
2782,16031 West 63rd Lane,Arvada,CO,80403,qirs8F6Wfvh2BHaP
2783,5327 Pierce Street,Arvada,CO,80002,QkBvPhdVgEPmjiTo
2784,106 Varnum Street Northwest,Washington,DC,20011,OdDYODISWy4atMHw
2785,460 Woodbridge Street,Manchester,CT,06042,d1X3Xb7IZQqUCmfP
2786,3449 Rockway Avenue,Annapolis,MD,21403,GshMpf9mzX4YfMNd
2787,96 Lakehouse Drive,Fairlee,VT,05045,wxkNldIIoNyUXkRW
2788,40902 Ingersoll Terrace,Fremont,CA,94538,8I6T21fKAlpO91IU
2789,1613 Ensenada Way,Aurora,CO,80011,TGvXEucsCUDuyhZM
2790,13213 Spanish Moss Road,Savannah,GA,31419,iBga1ELG80nevMcc
2791,5708 Beverly Street,Savannah,GA,31405,YgQXWgguzY8apbKB
2792,5205 West Thunderbird Road,Glendale,AZ,85306,06WqXeEgpSnIYdps
2793,12493 West 84th Circle,Arvada,CO,80005,DdsULcqagksSmsKv
2794,16 Fuller Street,Brookline,MA,02446,V9VfZ92u04yJpnOz
2795,305 Broderick Place,Panama City Beach,FL,32413,0TM7kIU4fbvBmjrQ
2796,10202 Vista Drive,Cupertino,CA,95014,YIWeBaUJtagMeq63
2797,2641 Heather Lane,Redding,CA,96002,X6UlPg026TsDA9rm
2798,2906 Clare Avenue,Nashville,TN,37209,OjpmTHnIBoHwE1pL
2799,10819 Bluegrass Parkway,Jeffersontown,KY,40299,hUTG3siVrDnLZFwq
2800,194 North Main Street,Webster,MA,01570,5HQWdKLB6RiSiBME
2801,34 Belair Drive,Holbrook,MA,02343,3hmBi34hfc06OUsT
2802,23 Columbia Drive,Manchester,CT,06042,xYWtkSiO5PN5omkm
2803,8063 Regency Drive,Pleasanton,CA,94588,yiFtdzHHlyX6WCtm
2804,6324 Moore Circle,Arvada,CO,80004,pvUlcz0PKcNICyB2
2805,4602 West Luke Avenue,Glendale,AZ,85301,ZEkm194F2t5Brkvk
2806,6234 West Behrend Drive,Glendale,AZ,85308,7Q32iuVyTwp7beFt
2807,2410 Pafford Drive,Nashville,TN,37206,ffqPZQqmSM8DbF2Y
2808,1383 Purdue Street,San Leandro,CA,94579,tMgU3N94WvaqL8wq
2809,4221 U.S. 5,Burke,VT,05871,2KibUrE1FDwzUnfb
2810,219 Shana Road,Glen Burnie,MD,21060,M69C8Nm0rnai4o1X
2811,8007 Kendrick Crossing Lane,Louisville,KY,40291,V1BIqKQLbSmVdvp2
2812,1606 Aaron Street,Montgomery,AL,36104,j2Oe757jTvNoEt8D
2813,3782 North Front Street,Fayetteville,AR,72703,VFAVx945yrhMwER0
2814,1636 Church Street Northwest,Washington,DC,20036,yJ7Xw19sPKD7Oi0h
2815,2704 McGee Avenue,Berkeley,CA,94703,UaQxm0jrG8sd1KwR
2816,1803 Hickory Avenue,Panama City,FL,32405,OWn5628gM2MZeupv
2817,505 North Washington Avenue,Fayetteville,AR,72701,MxH10xHLFvJWBF5l
2818,2008 Ashton Avenue,Nashville,TN,37218,HxVlWci4jRaZhvIz
2819,120 Depot Street,Easton,MA,02375,s2VySOkYwFiQailU
2820,1400 Rosa L Parks Boulevard,Nashville,TN,37208,ejOdTyxeoz3JLeO1
2821,511 Norton Avenue,Nashville,TN,37207,Zt8iyotQo8a1mfhj
2822,1265 Xavier Avenue,Hayward,CA,94545,hpcXsLnO5EA3NAAD
2823,623 Rhode Island Avenue Northwest,Washington,DC,20001,WcEfST6Dk9ElKFBY
2824,8642 Yule Street,Arvada,CO,80007,mpjSYOLM9xizD5Ss
2825,4712 Rock Creek Road,Ardmore,OK,73401,E5vwaMWebfFKt7tN
2826,2142 Colonel Way,Odenton,MD,21113,VigB7UphLKtDtzQD
2827,10400 Royal Oak Road,Oakland,CA,94605,uvXA6LzdDmP9xJKl
2828,420 Cove Villa Street,Panama City Beach,FL,32407,E5mbUrAyCIg9Wajy
2829,70 East Terrace,South Burlington,VT,05403,lnHVdUQLRuihfoWv
2830,21323 North 64th Avenue,Glendale,AZ,85308,nAky2Eicng1eDM6w
2831,6500 Thurlow Place,Edmond,OK,73034,xDqmvvGvFi7z6DXQ
2832,814 Keswick Boulevard,Louisville,KY,40217,WMWSpLRKc8INGBCd
2833,328 Missouri Avenue Northwest,Washington,DC,20011,k3OfzJLIdXUxOjgL
2834,1403 12th Street Northwest,Washington,DC,20005,Gz8BHokhqNmpplWg
2835,2640 8th Avenue,Oakland,CA,94606,GJw4ebXussZL802I
2836,2 Addison Place,Bloomingdale,GA,31302,TyQ3CLgXR2Dcvfy4
2837,4 Eastview Lane,Savannah,GA,31410,CxNJPmJfTUSMDhvb
2838,1583 Elberta Court,Severn,MD,21144,vM16B8iQJtFURqjS
2839,8726 Downey Road,Severn,MD,21144,FNfYU5MChHKHSGXm
2840,11515 Leemont Drive,Louisville,KY,40272,JgQjBv2abEknsc5G
2841,173 Center Street,Manchester,CT,06040,lobQ8J7g5CHwGhYF
2842,211 Oak Street,Manchester,CT,06040,kQ90GQ7CNbGeZDgu
2843,3024 24th Street Northeast,Washington,DC,20018,x85aYSu8mrCFcBHe
2844,276 Adams Street,Quincy,MA,02169,US0d4hHMfvjbqot3
2845,225 Claude Street,Annapolis,MD,21401,n2D2x0pA7tvLNTrU
2846,8501 Twin Gable Drive,Montgomery,AL,36116,Ri236IrZ8YpKagwL
2847,2400 Easy Street,San Leandro,CA,94578,P4gExtw3beW5WJR6
2848,5302 1st Street Northwest,Washington,DC,20011,6siT3Xmp3zmwSCuQ
2849,101 Mustang Drive,San Luis Obispo,CA,93405,FTWIghHIyWhs7p78
2850,8507 Lorento Street,Panama City Beach,FL,32408,RkRaAe4y82TCmYSJ
2851,6740 West Montebello Avenue,Glendale,AZ,85303,xWH4QAG5DHTOtg3E
2852,1601 Northwest 22nd Street,Oklahoma City,OK,73106,wsnFsBNnksgKVCW3
2853,1902 6th Street Northwest,Washington,DC,20001,TskI60BoiHKwDKkN
2854,500 Revere Beach Boulevard,Revere,MA,02151,fibrGrTzCiY864Ku
2855,1995 Nolensville Pike,Nashville,TN,37211,d0QPkxcdT1044JAU
2856,1509 Hadley Avenue,Nashville,TN,37138,mFnQ9gDtvfoOq4xO
2857,115 Saint John Street,Manchester,CT,06040,NUTRRM1hHfyooHJ7
2858,142 Ash Drive,Montgomery,AL,36117,GYvbPRZHrY835mBo
2859,6717 North 59th Avenue,Glendale,AZ,85301,qoTEQZHCmsORMuwh
2860,45430 Lauri Lane,Oakhurst,CA,93644,O8PfamLhEwip8sXb
2861,31 Buckland Hills Drive,Manchester,CT,06042,iftlCrevmz7Zft6J
2862,305 Becket Avenue,Louisville,KY,40118,7GSL5GHlyjP261FR
2863,8841 Tempest Circle,Anchorage,AK,99507,4bZ1cuY2hOis8GG0
2864,3114 West 20th Court,Panama City,FL,32405,zm5P0T9C2xqnmkG7
2865,1710 Monroe Street Northeast,Washington,DC,20018,jogEHVrLYlak5Fq9
2866,17623 Norma Lane,Fountain,FL,32438,kTYvZwDHQBtYLhfn
2867,4079 North Sunflower Circle,Fayetteville,AR,72703,nqtyMMPZArZ8vgTj
2868,6342 West Wheeler Road,Fayetteville,AR,72704,sUkfv5JhkxG4tJDk
2869,6950 Reno Drive,Arvada,CO,80002,cDL6Qz6t7yttd704
2870,1841 Logan Street,Anchorage,AK,99508,ny6JZ9hwQbDk7nWN
2871,320 South Ramblin Oaks Drive,Moore,OK,73160,6eKMUrCLKDpJNgpv
2872,908 Lodge Hill Road,Louisville,KY,40223,vBckpHavsK9ejchJ
2873,327 Woodbridge Street,Manchester,CT,06042,R69Wzxe2qtZCCKdt
2874,3035 Osprey Circle,Panama City,FL,32405,BEgl7HOU5wocKbGy
2875,2209 Florida Avenue,Savannah,GA,31404,Nx9HW7ZIDLGvY19X
2876,2320 Northwest 113th Place,Oklahoma City,OK,73120,n6ceJbUbS4Am8HEN
2877,7725 Ney Avenue,Oakland,CA,94605,SFPJRDRaqQJf3Vp1
2878,171 Tolland Turnpike,Manchester,CT,06042,3hEgdoP7iTfjCMjG
2879,2402 Eastbridge Court,Louisville,KY,40223,IcaLLl1e9Aw4gExZ
2880,11012 Eagles Cove Drive,Louisville,KY,40241,d2Q94InSJ7XVfCv8
2881,275 Henry Street,Manchester,CT,06042,AKYXpnqUI0Z4cKPp
2882,57 Pierpoint Avenue,Rutland,VT,05701,9ByWzgHxOSLp5FmQ
2883,1405 Tolkien Drive,Conway,AR,72034,qrQ4YglV66NL58jY
2884,716 O Street,Anchorage,AK,99501,SonkvfElOygGKwtT
2885,1008 Rhode Island Avenue Northwest,Washington,DC,20001,Y64kXJUAxwav3mwl
2886,1311 Northwest 98th Street,Oklahoma City,OK,73114,zwaJHN6tCQlyn8s0
2887,208 Waterford Drive,Lynn Haven,FL,32444,ugoLB4l043MgXM5D
2888,7681 Delridge Circle,Anchorage,AK,99507,phOL49DLNvFcsZ50
2889,1544 Kenilworth Avenue Northeast,Washington,DC,20019,awgJXjiUJzxKW2i9
2890,206 Blue Marlin Drive,Savannah,GA,31410,9ncYoZqpXzBekysj
2891,3620 Bentfield Drive,Nashville,TN,37013,Rt4jhfPkWEtj6E4f
2892,1426 C Street Southeast,Washington,DC,20003,EqQbJfIipOKISwrr
2893,6293 Braun Circle,Arvada,CO,80004,KOmK5BQDx1GTFiki
2894,15 Cranberry Hill Road,Thetford,VT,05043,38NKHV85l5ckQS5C
2895,Biloxi Crossing,Fayetteville,AR,72701,SdncFugFjk6FOqL3
2896,949 South Lawrence Street,Montgomery,AL,36104,OkqRxVGYOw5QbyqC
2897,14206 James Rees Way,Louisville,KY,40299,b9d3O3JwJxJE6ZVo
2898,4739 South Court Street,Montgomery,AL,36105,UxfHsrcVFncQLGhs
2899,2944 Sheldon Jackson Street,Anchorage,AK,99508,xRKpfGs2PNQ1c8xQ
2900,6435 West Hillsborough Avenue,Tampa,FL,33634,kKpvQTm8oRDBsxQ3
2901,112 Joyner Avenue,Nashville,TN,37210,JNYLVb2R0TSbI4Dz
2902,2654 Quiet Water Cove,Annapolis,MD,21401,t0bCoYmE3oAPtyWR
2903,1163 Rosedale Drive,Montgomery,AL,36107,CqncFuq3g8OoSs0b
2904,6101 North 60th Avenue,Glendale,AZ,85301,2xnNDIPBM8rpBuZw
2905,811 River Dell Drive,Louisville,KY,40206,9u4KXPE73GtNv7XU
2906,826 Webster Street,Hayward,CA,94544,eQ5Y4Fkz81SVX4Mk
2907,7124 West Morrow Drive,Glendale,AZ,85308,YWelbee0FSMg2t2B
2908,18827 Fish Hatchery Road,Anchorage,AK,99577,HIFZr9y9Zt0e7QL0
2909,4107 East 68th Avenue,Anchorage,AK,99507,5vM32dsiLGEpbcEC
2910,2817 3rd Street,Thunderbolt,GA,31404,DIhq2dMWWa2M0kRI
2911,6917 Briarcreek Drive,Oklahoma City,OK,73162,sCSbEc8fxDL4ioJE
2912,9300 C Street,Oakland,CA,94603,IZqksCDemRtpNd4I
2913,89 Augusta Drive,Fayetteville,AR,72703,ApUDKX2HxERrz4xj
2914,3115 Cherokee Drive,Fayetteville,AR,72701,F1dOW5vHnwS0Eky5
2915,3111 West Ika Lane,Fayetteville,AR,72704,CghHEjgHyUEcqRvy
2916,2327 Pomeroy Road Southeast,Washington,DC,20020,ERSHOINtIoPM9CpJ
2917,3207 Art Hall Lane,Pasadena,MD,21122,HDnNlqWzCNUqDeZf
2918,8671 West 78th Circle,Arvada,CO,80005,cL1lr9roAyjPswVP
2919,735 West Treadwell Street,Fayetteville,AR,72701,FK8IfA2DGRWTmiMf
2920,4333 Catherine Street,Panama City Beach,FL,32408,9iQsKvzzcUA1iRZB
2921,427 Gulf View Drive,Panama City Beach,FL,32413,LQQB2UGXk0SCIpcQ
2922,75 Calfoster Drive,Wolcott,VT,05680,cdKppeMuVwgT7juG
2923,311 Oak Street,Manchester,CT,06040,bXmstF7H8dVIHYUV
2924,8554 Twin Gable Drive,Montgomery,AL,36116,21MOuLN9vmy22WUd
2925,8409 Gullane Court,Pasadena,MD,21122,pQZe6gEgdEl5LQ21
2926,2076 North Crossover Road,Fayetteville,AR,72703,o3FYp3toD2iQeP83
2927,5 Little Deer Road,Groton,VT,05046,SpGYa22JXlrHZgSZ
2928,835 Shiloh Court,Redding,CA,96003,IrqHNfQO58bZ4fLQ
2929,121 Mills Run Drive,Savannah,GA,31405,f3PdZ8uC1pbL6amz
2930,1106 Mission Drive,Antioch,CA,94509,tjQdZqQReyi8Au65
2931,2522 Fountain Avenue,South Lake Tahoe,CA,96150,5ns7ZwQwgNTw0IGn
2932,28250 Dickens Avenue,Hayward,CA,94544,959yiClQZKhjKW8v
2933,776 Morrill Road,Danville,VT,05828,lv6GCOLUFwpxyXib
2934,10484 West 82nd Avenue,Arvada,CO,80005,5udT0CKiSpQ3KSp3
2935,3901 West End Avenue,Nashville,TN,37205,sZWmDum5gLqLx67P
2936,1259 Everett Avenue,Louisville,KY,40204,zOe2jRdTjSiub1NF
2937,2868 Peak Road,Wheelock,VT,05851,2iIWOatFg06Gk00S
2938,182 Regency Circle,Pooler,GA,31322,YO4E3FqKn9CsYhmC
2939,4540 Phyllis Court,Livermore,CA,94550,fRtiAjuQTvRPG2Le
2940,7854 Webster Way,Arvada,CO,80003,b7e9See0MTl3NVCm
2941,5680 Eddins Road,Montgomery,AL,36117,sbDFN9NuOn7JPblJ
2942,8569 Vermont 9,Woodford,VT,05201,UhL9v5Dxjs2KiZSg
2943,30451 Servilla Place,Castaic,CA,91384,WIeViZ010aNmtbEA
2944,1515 Northwest 19th Street,Oklahoma City,OK,73106,fiXjGIMc3q4bRex9
2945,2185 Howe Pond Road,Readsboro,VT,05350,IlfpSGfqOyXrqvNz
2946,1822 Dixdale Avenue,Louisville,KY,40210,eRKuPOLnomoUZBp4
2947,8040 Cranberry Street,Anchorage,AK,99502,nosU29JRL87rKKmV
2948,269 Hugh Thomas Drive,Panama City,FL,32404,CnBtnV0VTnA7KJBN
2949,5938 Laguna Honda Street,Redding,CA,96001,sjrhvK2Up4XuDESf
2950,1 Tanaquay Court,Savannah,GA,31411,sNkWc6ipC68GOOq6
2951,231 South Kimbrel Avenue,Panama City,FL,32404,rrJMKqhUNnKHG6es
2952,22 Star Farms Drive,Manchester,CT,06040,0Jba920UxFQaTJT9
2953,421 1/2 6th Street Southeast,Washington,DC,20003,lj5ybwDIickxZfK9
2954,1606 Trevilian Way,Louisville,KY,40205,PT6TCT3LqbVtCSaj
2955,1217 Southwest 91st Street,Oklahoma City,OK,73139,Qh8QctZmMuXwQfso
2956,707 Leaning Oaks Drive,Savannah,GA,31410,1F60l6Yfcx4uKCDA
2957,84 Holbrook Street,North Adams,MA,01247,4Vy4FRua9H8jRSUS
2958,30544 Whitmore Road,Whitmore,CA,96096,y8JD5ZxXRDC1F5eG
2959,72 Milford Road,Manchester,CT,06042,0hImuPmHEhECU7om
2960,10301 La Plaza Drive,Louisville,KY,40272,1m8e5Qxt8A5ghZXh
2961,1001 Northwest 104th Street,Oklahoma City,OK,73114,W2LjeWNOOrsMvbHg
2962,2375 Main Street,Palmer,MA,01069,nrClH9WQYT1r1qzE
2963,416 Ridge Street Northwest,Washington,DC,20001,8y6uy9O16eQYtvtG
2964,7728 Twin Oaks Road,Severn,MD,21144,qdteu3bry4tHkehz
2965,488 Mill Road,Hartford,VT,05001,hKIIgz4Lqfvh8e3N
2966,102 Hayes Drive,Pooler,GA,31322,aaNVnTqqpMfuC2Ld
2967,5712 Saulsbury Street,Arvada,CO,80002,lK97zazhgL51nZKL
2968,2732 North Ashbrook Drive,Fayetteville,AR,72703,c400e9ppnqVbU2I1
2969,3031 Montgomery Street,Savannah,GA,31405,1u17vppyxxWlJb5H
2970,327 Fairway Boulevard,Panama City Beach,FL,32407,uGzjXfUqPARTEKj1
2971,396 Hartford Road,Manchester,CT,06040,p42kCp2PQrau7yby
2972,22618 South Figueroa Street,Carson,CA,90745,18UhqvQV1rOUfOK7
2973,81 Buck Hill Road,Guilford,VT,05301,XHsaOF5zvIBKFOLR
2974,145 Great Western Road,Yarmouth,MA,02664,kuALsR9c1DtYecXo
2975,7506 Harvey Street,Panama City,FL,32404,HRc51Xowk5N7Arpf
2976,903 Mallard Creek Road,Saint Matthews,KY,40207,rCsjCoz3rfO5xTE7
2977,840 River Crest Court,Louisville,KY,40206,pYM4WrsJ5IoA8Pz7
2978,817 Nevada Drive Northeast,Palm Bay,FL,32907,ylIwbC1XZ4SmRGF0
2979,1439 2nd Street,Panama City,FL,32409,k6D07ZEpP6NNLVqW
2980,5150 West Eugie Avenue,Glendale,AZ,85304,JuB3rpBqOerOQzFI
2981,600 12th Avenue South,Nashville,TN,37203,ZaVno9iqL2MJikFx
2982,112 3rd Street Northeast,Washington,DC,20002,du37745OVunsjHlr
2983,3813 Sheffield Lane,Pueblo,CO,81005,CcaGXrAf4pi08O9Z
2984,1497 Greenbrier Road,West Sacramento,CA,95691,v4gCpVQ88IXBheuQ
2985,3546 Rosa L Parks Avenue,Montgomery,AL,36105,lqnI8c2zUUjYCb5T
2986,7296 West Wedington Drive,Fayetteville,AR,72704,4ZpRkUJTswerynEF
2987,3365 Wyndham Drive,Fremont,CA,94536,5rhWBQ9l1Ozkv1de
2988,705 Upshur Street Northwest,Washington,DC,20011,YLO48VeKQv0viiW2
2989,4339 Oak Street,Montgomery,AL,36105,hV9kldcvkebqOOFp
2990,514 Flower Lane,Alameda,CA,94502,6pU4NE2q4cDuH8Lh
2991,303 Addison Drive,Glen Burnie,MD,21060,hrelNa9F5QxTM4EK
2992,3827 West Chapman Avenue,Orange,CA,92868,CHVD5PAS9SfBTHlO
2993,6516 Nile Circle,Arvada,CO,80007,72zqNU4xXv2761rG
2994,2150 Yarbrough Street,Montgomery,AL,36110,LCLxHXU4ho7t4Ewk
2995,29104 Quartz Lane,Tollhouse,CA,93667,HLsvGsfrRKrex6E8
2996,9346 West 66th Place,Arvada,CO,80004,OJkydejyfs4L7VmR
2997,214 South End Road,Mount Tabor,VT,05739,xvP64ROuO4YKFNFe
2998,11901 Northern Raven Drive,Anchorage,AK,99516,LSb73S0PzFrdcZ3z
2999,1122 McDaniel Street,Sun City Center,FL,33573,47UA1zqkX1jJziDs
3000,44 Downey Drive,Manchester,CT,06040,24LSV2cIFAE77sik
3001,1736 81st Avenue,Oakland,CA,94621,SzqP2dtD5tdhdNWi
3002,5397 Wentworth Avenue,Oakland,CA,94601,XpTVnAf8ZvVUgIQ8
3003,234 East Beach Drive,Panama City,FL,32401,fV3AtcFR6Pp2fBRg
3004,10841 Sutter Circle,Sutter Creek,CA,95685,NOoztuAMGBXXMaK4
3005,501 Holly Avenue,Pooler,GA,31322,pDb6ZMZSM3uDciLA
3006,46 Apel Place,Manchester,CT,06042,PHawtgC0qFQXz8hj
3007,7096 Park Mesa Way,San Diego,CA,92111,WSV6y780kfiNu98g
3008,1430 South Gay Avenue,Panama City,FL,32404,r5IjWtZFbFsDLVt3
3009,4717 Forest Hills Drive,Noble,OK,73068,O0KKFpIImBygFxt1
3010,8277 Lamar Place,Arvada,CO,80003,Lz95oNWx0rafjEBV
3011,38252 Farwell Drive,Fremont,CA,94536,AkfxLeUrYtzaZj9m
3012,939 West Beach Drive,Panama City,FL,32401,x2X4Y9Dk7eWalRtJ
3013,122 40th Avenue North,Nashville,TN,37209,WTMiAk3h9zXNVRmh
3014,4812 Alton Place Northwest,Washington,DC,20016,ev0bHkdUwa5gxAhj
3015,5837 West Evans Drive,Glendale,AZ,85306,nkwFScFIbVPqkFvK
3016,5024 Ryan Drive,Oklahoma City,OK,73135,fENO9Li4o7U4PxAs
3017,4075 North Cadillac Drive,Fayetteville,AR,72703,EwGA3ixU7n1KkUia
3018,13628 West 62nd Drive,Arvada,CO,80004,dQEsqqTgSQae8PIo
3019,9545 West 74th Avenue,Arvada,CO,80005,Ls2yB8J9RgqloxCM
3020,3784 Milky Way Drive,Anchorage,AK,99517,wWkM9IQBliHu3A3q
3021,5208 Colorado Avenue Northwest,Washington,DC,20011,swk8keet88XeU8U0
3022,6412 Lenawee Street,Panama City,FL,32404,6WxKZHckA63J3qOY
3023,3522 Whiting Avenue,Montgomery,AL,36105,x21socLfX7t3tNHW
3024,435 Benita Drive,Nashville,TN,37211,OKCEFsY1m6MjffIw
3025,1709 7th Avenue Northwest,Ardmore,OK,73401,6GjzI4VBdopjpHST
3026,2014 Clemens Road,Oakland,CA,94602,6ViU0dl5XvBbVgNx
3027,2 Ellenwood Street,Barre,VT,05641,hrMvlh0AYcIuC2WQ
3028,306 East Lafayette Street,Fayetteville,AR,72701,9ZclDLdrHQ7nVBW8
3029,104 White Street,Manchester,CT,06042,D2AEdRACvbkqfBha
3030,8188 Poinsett Terrace,Pasadena,MD,21122,Q70x5DJE1y8mtCFB
3031,217 West Congress Street,Savannah,GA,31401,SnMwZu4U1C4T83nb
3032,5116 Feys Court,Louisville,KY,40216,PlHTO6vG5gHyagie
3033,7513 Lois Street,Panama City,FL,32404,IX4AGKIUN78P4A7q
3034,36 Grove Street,Manchester,CT,06042,VawG8GDpcmvEQmSi
3035,6385 Oak Street,Arvada,CO,80004,SbFAvn1tUUGRq2iC
3036,1822 Pine Grove Court,Severn,MD,21144,KKF9sxbPKeCc3y66
3037,32512 Christine Drive,Union City,CA,94587,npiNxTcOnkbziLYK
3038,4432 Cobalt Drive,Harwood,MD,20776,rlaAbdepcub0Fhmy
3039,5458 Zephyr Court,Arvada,CO,80002,X7KkE4CihOlHjSGx
3040,3949 Ethan Allen Highway,Saint Albans City,VT,05478,rSUMRc4GbajfVwRs
3041,5412 East 22nd Avenue,Anchorage,AK,99508,JziOruEjoC67Y5mE
3042,923 K Street Northeast,Washington,DC,20002,8LHRE512W8dBjR2L
3043,1749 Haleys Hope Court,Nashville,TN,37209,5307PKX3cMPmeUUO
3044,97 Lincoln Street,Fitchburg,MA,01420,Ayu1JHJkqodvRE80
3045,2220 Kirk Avenue,Nashville,TN,37218,8ogBzlHTdnDNiN1F
3046,430 Fig Street,Madera,CA,93638,RTkuMUk6rfEzLn7K
3047,68 Bigelow Street,Manchester,CT,06040,HZM4dWdhOeJseisF
3048,220 Avenue B,Williston,VT,05495,u0aaY0nl04EIDwJx
3049,9106 Ellis Way,Arvada,CO,80005,k0VcCTt14e9GdFsR
3050,2511 Hearst Avenue,Berkeley,CA,94709,27FJWlQ18NjMQAyQ
3051,962 South Silverado Drive,Fayetteville,AR,72701,wJIm22Qg0fR4UGXI
3052,26 Greenbriar Drive,Savannah,GA,31419,RJx159XITtcI4wgN
3053,1637 Delphil Street,Pueblo,CO,81006,qALSrGrVpYqSu4vC
3054,11113 North Miller Avenue,Oklahoma City,OK,73120,yd3y5Vtx1Oeb7zQ4
3055,8 Richardson Road,Barre,VT,05641,OHvVjADr6J4wzWpJ
3056,17372 Crestview Road,Fayetteville,AR,72701,LHvwY2vDexM7KyIm
3057,357 Chaplin Street Southeast,Washington,DC,20019,J9Hlx2FxTVnMFAVh
3058,3 Emery Hill Drive,Dummerston,VT,05301,DDG49BjpAQ075vUc
3059,6108 Iris Way,Arvada,CO,80004,RzUffwDgoVIMV5Gw
3060,1424 Winter Avenue,Louisville,KY,40204,FPDsvW65UisJ5p1a
3061,23622 Greatland Drive,Anchorage,AK,99567,Lwunu7WCQEhNIWhJ
3062,715 36.1 Road,Palisade,CO,81526,js51HvXGSZatXKj3
3063,180 Intervale Avenue,Burlington,VT,05401,Nb8vw6aUAzowAQs8
3064,5707 Whispering Hills Boulevard,Louisville,KY,40219,R1CBKQOkd8yFyBqx
3065,7737 Wynlakes Boulevard,Montgomery,AL,36117,G2dLVW3zugcsRAuv
3066,6 Sawmill Lane,Westford,VT,05494,H0CDtyze7Ik8zyHE
3067,2052 East 42nd Street,Savannah,GA,31404,gfk1ZrgAm1LdLm6e
3068,184 Woodland Street,Manchester,CT,06042,zWPyJKGxWSGozcb2
3069,210 Beachcomber Drive,Pismo Beach,CA,93449,Q7O9tARiaaoBrp7v
3070,3438 Carlton Avenue,Fort Collins,CO,80525,fM994OI4H9k9afgO
3071,7 Cloutman Street,Salem,MA,01970,7bwpaqp63ANeoDPb
3072,7758 Betty Louise Drive,Panama City,FL,32404,klZsH6iZmNcf4Uol
3073,2140 Colony Loop,Anchorage,AK,99507,NaJUGJUeI3ixPQod
3074,7 River Otter Lane,Savannah,GA,31411,rWQzbAZPT840jlNO
3075,110 Allen Place,Farmington,AR,72730,bCjy2rCS3nrCX93p
3076,501 Running Creek Place,Louisville,KY,40243,IlGdqxWquPteNwkc
3077,8417 Timothy Lane,Oklahoma City,OK,73135,moWMPk4FKer67LaZ
3078,6241 Hudson Creek Drive,Louisville,KY,40291,Of7CJAsg1qAVn7iI
3079,3 Hawser Way,Port Wentworth,GA,31407,vOapF0F7Jf3UtNKO
3080,24 Haven Drive,Savannah,GA,31406,C29EOT8ekGoA7KOd
3081,514 East 38th Street,Savannah,GA,31401,7N5RK1LlShLv9SDJ
3082,4108 Kogru Place,Anchorage,AK,99577,jOlMorrS7D7wQwJq
3083,1504 P Street Northwest,Washington,DC,20005,WsfXy6omaTNgPMBr
3084,7309 Live Oak Court,Montgomery,AL,36117,uAWRR2ZAGLZfui2W
3085,63 Summit Street,Manchester,CT,06040,FL3M0YpGa7XzEEfN
3086,32532 Jean Drive,Union City,CA,94587,UJYBa9J5Xbv4kbWc
3087,19803 North Mitkof Loop,Anchorage,AK,99577,j8RlxNfxxcfd2qH6
3088,140 William Chambers Junior Drive,Glen Burnie,MD,21060,JrKLhmwskbFL339f
3089,159 North Pawlet Road,Pawlet,VT,05761,kkgCaqOntq6SUnMe
3090,8320 Cloud Street,Laurel,MD,20724,6qcByzbWUWrNMBFT
3091,320 Union Station Way,Calera,AL,35040,YWTgb2DpRgFEB3tr
3092,614 East Duffy Lane,Savannah,GA,31401,5ra6C4dYsp38az2G
3093,12002 Vanherr Drive,Louisville,KY,40299,WqYs1bFh3eqNaoRY
3094,6418 Iris Way,Arvada,CO,80004,OXyRvenkm2n9ZeEW
3095,66 Ocala Drive,Nashville,TN,37013,KH2KcJKPUnmFj9Ty
3096,7405 River Park Drive,Nashville,TN,37221,hmvANdADq6VD2dEn
3097,903 Burton Avenue,Louisville,KY,40208,DJmTNgdoW0AREieN
3098,8293 Grayson Grove,Montgomery,AL,36117,TbihGslMw0BGTHxh
3099,1772 150th Avenue,San Leandro,CA,94578,w4VEJTgiDFCcVEQV
3100,1 Portsmouth Road,Piedmont,CA,94610,xivdf2QCXsEcHLuo
3101,13 Breezy Palm Way,Savannah,GA,31406,EEfmBYYSDgga96xx
3102,3824 Rosewood Court,Midwest City,OK,73110,tDVmKncJhFBtrO5l
3103,7911 Deronia Avenue,Louisville,KY,40222,91rVgVH0lyLg7AHO
3104,819 Beazer Lane,Nashville,TN,37013,qMFf2pFVoENhyeJS
3105,3426 Broadview Street,Montgomery,AL,36110,Ktnr0gzKln3bElMX
3106,3 Kimball Street,Marblehead,MA,01945,8FPQBaF69QGXO5qo
3107,1169 East Hopkins Avenue,Aspen,CO,81611,GHXd1iwvQoXl0b2F
3108,445 Industrial Lane,Barre,VT,05641,VVsX44f7cLvY4BB3
3109,1650 North Sang Avenue,Fayetteville,AR,72703,rK1VkZIn1qHo2LKz
3110,2812 Jasper Street Southeast,Washington,DC,20020,mW4Jg74tTw1Ze2rT
3111,3146 North Old Wire Road,Fayetteville,AR,72703,bvJLWMw6vmy6oXTp
3112,6630 MacArthur Boulevard,Oakland,CA,94605,HpjtQjDcrUF42ie4
3113,54 Pine Meadow Drive,Hyde Park,VT,05655,utXQo6rUEtQyFB54
3114,1505 Rosewood Avenue,Louisville,KY,40204,WxBenVXTyrHQi4ZM
3115,4742 Bellevue Avenue,Louisville,KY,40215,wXBwzeGdGc239dkn
3116,2044 Bullard Street,Montgomery,AL,36106,2jgUhP3QPDKGnsgX
3117,19448 Currant Drive,Edmond,OK,73012,89rAUnpal1Ut4ZU6
3118,6342 Kendall Street,Arvada,CO,80003,sSeXC7sh3x5zzBY3
3119,809 Blue Ridge Drive,Edmond,OK,73003,34rDJP7g0U3nxxe3
3120,5 Yerxa Road,Cambridge,MA,02140,PMIsxYQcfB6qeH6d
3121,7450 Wade Circle,Anchorage,AK,99518,MQnPNuAFCoDmrYvr
3122,10222 Pine Glen Circle,Louisville,KY,40291,LkzoKwC1WGSiLb77
3123,1481 Stannage Avenue,Berkeley,CA,94702,qzGaDATIp0AcwbjP
3124,7817 Moose Run Circle,Anchorage,AK,99507,aMz8OR9zFKglxMBt
3125,95 Westbourne Way,Pooler,GA,31322,oR1NZqfJCy4343Zy
3126,1324 Beddington Park,Nashville,TN,37215,fzJRkFdsCDdagdJF
3127,62 High Street,Manchester,CT,06040,KSoHAKkf83uL4CRK
3128,1215 Joseph Avenue,Nashville,TN,37207,sGNYyU4vk7qqIaWX
3129,2815 Blueridge Place,Anchorage,AK,99504,9Ci9qKMFHXpq0RK1
3130,15557 Sutter Creek Road,Sutter Creek,CA,95685,I8LjjErspYeQmI4u
3131,2411 Alteras Drive,Nashville,TN,37211,ym6wDQjKzY3L69QO
3132,112 Aquinnah Drive,Pooler,GA,31322,FaqMrD6JTU3sdD4P
3133,301 Willow Way,Lynn Haven,FL,32444,ME9oZ2J0kvwYnFjR
3134,268 Glengary Garth,Glen Burnie,MD,21061,vK5phJ0dKTdArnn9
3135,33655 5th Street,Union City,CA,94587,tCEwUOTeCi4Xbzaj
3136,70 Orchard Shore Road,Colchester,VT,05446,Gcvf8jb1VSof5sUQ
3137,28 Garden Drive,Manchester,CT,06040,HdZ8W6XfPEEmJrba
3138,6262 29th Street Northwest,Washington,DC,20015,jqJMVbJ6VELIzvlD
3139,8398 West 62nd Place,Arvada,CO,80004,EF4HgQNVqqOj8KbG
3140,15771 West 64th Avenue,Arvada,CO,80403,xNJn9YVdqgP9lNRZ
3141,714 Venetian Way,Panama City,FL,32405,vlYSIVsZyDqOEl3D
3142,800 Old Stage Road,Glen Burnie,MD,21061,WbxwA26MGQriKoql
3143,8447 West 51st Avenue,Arvada,CO,80002,cylpo9UrZpLmVP2f
3144,81 Reynolds Drive,Colchester,VT,05446,QfUu4wFpRFwVzdYR
3145,3420 Northwest 41st Street,Oklahoma City,OK,73112,KHyQEzgqvFTaNr6e
3146,512 Danley Court,Nashville,TN,37013,ogTGtEXarAhwCcgX
3147,3180 Parthenon Avenue,Nashville,TN,37203,PoO2B4SrW4dbprCX
3148,20443 Granite Park Circle,Anchorage,AK,99577,WbZmusRjqV6nehjp
3149,42 Adams Road,Greenfield,MA,01301,f1T0RVfA6BfjhqHs
3150,22 Eden Street,Millis,MA,02054,9WVKhsfcgB416Vzt
3151,3340 Woodpark Drive,Montgomery,AL,36116,hXfQN8G4gOM6SwPH
3152,24 Amherst Drive,Manchester,CT,06042,0xDBE9Z4dNC3CBqr
3153,31250 Courthouse Drive,Union City,CA,94587,Asg46SD4XwYpcWd3
3154,5472 Sunstar Common,Fremont,CA,94555,eKGqdKMdqLnFh1Tq
3155,2186 Knollwood Drive,Boulder,CO,80302,v85lkkrIVha93n6S
3156,116 9th Street Southeast,Washington,DC,20003,VNLt49J2qQwVUF03
3157,600 Marshall Street,Louisville,KY,40202,OpHXHkHLqAuYnATM
3158,3320 Peterkin Avenue,Anchorage,AK,99508,hQ53R4T78FM5nJPO
3159,38 Milford Street,Medway,MA,02053,UDrBI1TexaqSoPkJ
3160,4305 Willowview Boulevard,Louisville,KY,40299,61O0jZx3Pcf46R67
3161,6407 West Monte Cristo Avenue,Glendale,AZ,85306,lTA0v631MeYUiLXU
3162,7071 Senators Drive,Montgomery,AL,36117,uwpCV7i3t8rRsAOS
3163,312 Shepherd Hills Drive,Nashville,TN,37115,UjqBmmyyvryqzUtw
3164,195 Kennedy Road,Manchester,CT,06042,BDzYwDscCRg12PDm
3165,3098 Vermont 122,Sheffield,VT,05866,uhToq9iWdSP6RLLg
3166,4493 Heath Circle,Rohnert Park,CA,94928,j4EtQKEwD1ctAGFt
3167,11160 Vosikof Place,Anchorage,AK,99507,98j193Jk3s2WrrhV
3168,4216 Lorraine Street,Panama City Beach,FL,32408,dLks0CLJPemjU3tU
3169,2741 31st Place Northeast,Washington,DC,20018,L7orb0TDf4rQDSeM
3170,260 Park Avenue,Pooler,GA,31322,fcYmGoiEikZVFIrn
3171,82 The Commons,Moretown,VT,05660,fePo0oKqNQE4XVtn
3172,721 Bay Ridge Avenue,Annapolis,MD,21403,spxYSJ3EtTEXTWyI
3173,23124 North 71st Drive,Glendale,AZ,85310,z5L69E2V1dwflrVZ
3174,150 Somersby Boulevard,Pooler,GA,31322,CnH1kvlhU3GcLlus
3175,8 Elmwood Drive,Rutland,VT,05701,IZBGzQFxkBC82R6v
3176,2162 Mulberry Hill Road,Annapolis,MD,21409,8VcA4lsQlVodeyeA
3177,20 Garfield Street,Needham,MA,02492,g75MlUhhVrpbadJ4
3178,7810 Spring Farm Pointe Place,Prospect,KY,40059,dt1nKxPJGmGgjuUU
3179,243 Orchard Road,Burke,VT,05832,LJWIfYuZdFt3VYo5
3180,39 Newhall Street,Lynn,MA,01902,NE6UOIvZt2nas24t
3181,312 Westhill Avenue,Inverness,FL,34452,JIieiTDwpGWrHhuh
3182,4112 Rockdale Street,Savannah,GA,31405,8nyZWdvB06PBx68p
3183,11941 West 58th Avenue,Arvada,CO,80002,ZndJ0hdct7ocKvNL
3184,6506 North Lagoon Drive,Panama City Beach,FL,32408,ALut2zageWtnMZQT
3185,2337 Nebraska Avenue,Selma,CA,93662,reEclkz4Wr6S9lYI
3186,8070 Holland Court,Arvada,CO,80005,ya3Sf0nHlhzM57OE
3187,7105 Tanager Avenue,Glen Burnie,MD,21060,g1ruOtEc6hCKW6w1
3188,201 Juniper Springs Drive,Mammoth Lakes,CA,93546,OwaCp1wtAzS12i7T
3189,1 North School Avenue,Fayetteville,AR,72701,G2KsQ69aCCjJcL0S
3190,3610 Story Road,San Jose,CA,95127,fRiksNzBcFPTtP14
3191,6143 Prosperity Drive,Anchorage,AK,99504,vRAWdLTAhy0HJjZp
3192,9740 Rhythm Road,Midwest City,OK,73130,BYT4XoEnhu0H4U4T
3193,3141 North Lancaster Lane,Fayetteville,AR,72703,FjdlHpRSrAUT0V1W
3194,324 Tulip Oak Court,Linthicum Heights,MD,21090,i3dVMjKRoczlrFHE
3195,23 Cove Drive,Savannah,GA,31419,7utiXV5ulZb2A5bA
3196,2269 Eastern Boulevard,Montgomery,AL,36117,mLDNhJA5lPhB8vhZ
3197,406 Stilz Avenue,Louisville,KY,40206,JcDTRIRIo74OXUjG
3198,13415 Panama City Beach Parkway,Panama City Beach,FL,32407,yw38HNPiqLfd8h4g
3199,61 Callahan Way,Mammoth Lakes,CA,93546,QUp2DfAEKXUyPKhF
